lat,lon,name,admin1,admin2,cc
34.05223,-118.24368,Los Angeles,California,Los Angeles County,US
39.77918,-98.78507,Smith Center,Kansas,Smith County,US
37.77493,-122.41942,San Francisco,California,San Francisco County,US
37.77493,-122.41942,San Francisco,California,San Francisco County,US
37.77493,-122.41942,San Francisco,California,San Francisco County,US
40.48622,-74.45182,New Brunswick,New Jersey,Middlesex County,US
40.71427,-74.00597,New York City,New York,,US
40.34872,-74.65905,Princeton,New Jersey,Mercer County,US
40.34872,-74.65905,Princeton,New Jersey,Mercer County,US
39.77918,-98.78507,Smith Center,Kansas,Smith County,US
40.71427,-74.00597,New York City,New York,,US
39.77918,-98.78507,Smith Center,Kansas,Smith County,US
51.47572,10.48104,Grossbodungen,Thuringia,,DE
40.71427,-74.00597,New York City,New York,,US
39.95233,-75.16379,Philadelphia,Pennsylvania,Philadelphia County,US
35.88919,-106.07975,El Rancho,New Mexico,Santa Fe County,US
63.85694,-148.96611,Healy,Alaska,Denali Borough,US
39.77918,-98.78507,Smith Center,Kansas,Smith County,US
63.85694,-148.96611,Healy,Alaska,Denali Borough,US
32.77952,-108.15032,Santa Clara,New Mexico,Grant County,US
39.77918,-98.78507,Smith Center,Kansas,Smith County,US
39.77918,-98.78507,Smith Center,Kansas,Smith County,US
17.9324,-99.60257,Mezcala,Guerrero,,MX
40.71427,-74.00597,New York City,New York,,US
27.57823,77.69806,Vrindavan,Uttar Pradesh,Mathura,IN
27.57823,77.69806,Vrindavan,Uttar Pradesh,Mathura,IN
27.57823,77.69806,Vrindavan,Uttar Pradesh,Mathura,IN
27.57823,77.69806,Vrindavan,Uttar Pradesh,Mathura,IN
27.57823,77.69806,Vrindavan,Uttar Pradesh,Mathura,IN
27.57823,77.69806,Vrindavan,Uttar Pradesh,Mathura,IN
27.57823,77.69806,Vrindavan,Uttar Pradesh,Mathura,IN
27.57823,77.69806,Vrindavan,Uttar Pradesh,Mathura,IN
27.57823,77.69806,Vrindavan,Uttar Pradesh,Mathura,IN
27.57823,77.69806,Vrindavan,Uttar Pradesh,Mathura,IN
40.78343,-73.96625,Manhattan,New York,New York County,US
40.71427,-74.00597,New York City,New York,,US
39.77918,-98.78507,Smith Center,Kansas,Smith County,US
40.71427,-74.00597,New York City,New York,,US
39.77918,-98.78507,Smith Center,Kansas,Smith County,US
39.77918,-98.78507,Smith Center,Kansas,Smith County,US
39.77918,-98.78507,Smith Center,Kansas,Smith County,US
39.77918,-98.78507,Smith Center,Kansas,Smith County,US
39.77918,-98.78507,Smith Center,Kansas,Smith County,US
39.77918,-98.78507,Smith Center,Kansas,Smith County,US
39.77918,-98.78507,Smith Center,Kansas,Smith County,US
39.77918,-98.78507,Smith Center,Kansas,Smith County,US
43.13443,-90.7054,Boscobel,Wisconsin,Grant County,US
40.71427,-74.00597,New York City,New York,,US
35.51476,-106.36586,Santo Domingo Pueblo,New Mexico,Sandoval County,US
35.03279,-107.61396,Skyline-Ganipa,New Mexico,Cibola County,US
35.03279,-107.61396,Skyline-Ganipa,New Mexico,Cibola County,US
35.03279,-107.61396,Skyline-Ganipa,New Mexico,Cibola County,US
39.77918,-98.78507,Smith Center,Kansas,Smith County,US
32.792,-115.56305,El Centro,California,Imperial County,US
39.77918,-98.78507,Smith Center,Kansas,Smith County,US
-4.9711,120.1127,Palattae,South Sulawesi,,ID
-4.9711,120.1127,Palattae,South Sulawesi,,ID
7.41537,-65.18961,Maripa,Bolivar,Municipio Sucre,VE
40.71427,-74.00597,New York City,New York,,US
37.77493,-122.41942,San Francisco,California,San Francisco County,US
39.77918,-98.78507,Smith Center,Kansas,Smith County,US
37.76521,-122.24164,Alameda,California,Alameda County,US
39.77918,-98.78507,Smith Center,Kansas,Smith County,US
40.78343,-73.96625,Manhattan,New York,New York County,US
39.95233,-75.16379,Philadelphia,Pennsylvania,Philadelphia County,US
39.95233,-75.16379,Philadelphia,Pennsylvania,Philadelphia County,US
39.95233,-75.16379,Philadelphia,Pennsylvania,Philadelphia County,US
39.95233,-75.16379,Philadelphia,Pennsylvania,Philadelphia County,US
39.95233,-75.16379,Philadelphia,Pennsylvania,Philadelphia County,US
39.95233,-75.16379,Philadelphia,Pennsylvania,Philadelphia County,US
39.95233,-75.16379,Philadelphia,Pennsylvania,Philadelphia County,US
39.95233,-75.16379,Philadelphia,Pennsylvania,Philadelphia County,US
39.77918,-98.78507,Smith Center,Kansas,Smith County,US
39.77918,-98.78507,Smith Center,Kansas,Smith County,US
39.77918,-98.78507,Smith Center,Kansas,Smith County,US
39.77918,-98.78507,Smith Center,Kansas,Smith County,US
39.77918,-98.78507,Smith Center,Kansas,Smith County,US
39.77918,-98.78507,Smith Center,Kansas,Smith County,US
39.77918,-98.78507,Smith Center,Kansas,Smith County,US
39.77918,-98.78507,Smith Center,Kansas,Smith County,US
39.77918,-98.78507,Smith Center,Kansas,Smith County,US
39.77918,-98.78507,Smith Center,Kansas,Smith County,US
39.77918,-98.78507,Smith Center,Kansas,Smith County,US
39.77918,-98.78507,Smith Center,Kansas,Smith County,US
39.77918,-98.78507,Smith Center,Kansas,Smith County,US
39.52963,-119.8138,Reno,Nevada,Washoe County,US
47.36667,8.55,Zurich,Zurich,Bezirk Zuerich,CH
4.88447,-1.75536,Takoradi,Western,,GH
22.96139,-102.05556,Los Zacatones,San Luis Potosi,Villa de Ramos,MX
34.94931,104.72584,Santai Zhen,Gansu Sheng,,CN
39.77918,-98.78507,Smith Center,Kansas,Smith County,US
37.77493,-122.41942,San Francisco,California,San Francisco County,US
45.307,-69.03337,Brownville,Maine,Piscataquis County,US
39.77918,-98.78507,Smith Center,Kansas,Smith County,US
16.99488,-96.47112,Santa Ana del Valle,Oaxaca,,MX
40.34872,-74.65905,Princeton,New Jersey,Mercer County,US
39.77918,-98.78507,Smith Center,Kansas,Smith County,US
39.77918,-98.78507,Smith Center,Kansas,Smith County,US
39.77918,-98.78507,Smith Center,Kansas,Smith County,US
39.77918,-98.78507,Smith Center,Kansas,Smith County,US
22.05697,78.93958,Chhindwara,Madhya Pradesh,Chhindwara,IN
39.77918,-98.78507,Smith Center,Kansas,Smith County,US
35.49147,-92.03126,Heber Springs,Arkansas,Cleburne County,US
35.49147,-92.03126,Heber Springs,Arkansas,Cleburne County,US
35.49147,-92.03126,Heber Springs,Arkansas,Cleburne County,US
40.18261,-74.52932,Shrewsbury,New Jersey,Monmouth County,US
39.77918,-98.78507,Smith Center,Kansas,Smith County,US
42.35843,-71.05977,Boston,Massachusetts,Suffolk County,US
8.9,39.91667,Metahara,Oromiya,,ET
40.78343,-73.96625,Manhattan,New York,New York County,US
40.78343,-73.96625,Manhattan,New York,New York County,US
40.78343,-73.96625,Manhattan,New York,New York County,US
40.78343,-73.96625,Manhattan,New York,New York County,US
40.78343,-73.96625,Manhattan,New York,New York County,US
40.78343,-73.96625,Manhattan,New York,New York County,US
40.78343,-73.96625,Manhattan,New York,New York County,US
40.78343,-73.96625,Manhattan,New York,New York County,US
40.78343,-73.96625,Manhattan,New York,New York County,US
40.78343,-73.96625,Manhattan,New York,New York County,US
40.78343,-73.96625,Manhattan,New York,New York County,US
40.78343,-73.96625,Manhattan,New York,New York County,US
40.78343,-73.96625,Manhattan,New York,New York County,US
40.78343,-73.96625,Manhattan,New York,New York County,US
40.78343,-73.96625,Manhattan,New York,New York County,US
40.78343,-73.96625,Manhattan,New York,New York County,US
40.78343,-73.96625,Manhattan,New York,New York County,US
40.78343,-73.96625,Manhattan,New York,New York County,US
40.78343,-73.96625,Manhattan,New York,New York County,US
40.78343,-73.96625,Manhattan,New York,New York County,US
40.78343,-73.96625,Manhattan,New York,New York County,US
40.78343,-73.96625,Manhattan,New York,New York County,US
40.78343,-73.96625,Manhattan,New York,New York County,US
40.78343,-73.96625,Manhattan,New York,New York County,US
40.78343,-73.96625,Manhattan,New York,New York County,US
40.78343,-73.96625,Manhattan,New York,New York County,US
40.78343,-73.96625,Manhattan,New York,New York County,US
40.78343,-73.96625,Manhattan,New York,New York County,US
40.78343,-73.96625,Manhattan,New York,New York County,US
40.78343,-73.96625,Manhattan,New York,New York County,US
40.78343,-73.96625,Manhattan,New York,New York County,US
40.78343,-73.96625,Manhattan,New York,New York County,US
40.78343,-73.96625,Manhattan,New York,New York County,US
40.78343,-73.96625,Manhattan,New York,New York County,US
40.78343,-73.96625,Manhattan,New York,New York County,US
40.78343,-73.96625,Manhattan,New York,New York County,US
40.78343,-73.96625,Manhattan,New York,New York County,US
40.78343,-73.96625,Manhattan,New York,New York County,US
40.78343,-73.96625,Manhattan,New York,New York County,US
40.78343,-73.96625,Manhattan,New York,New York County,US
40.78343,-73.96625,Manhattan,New York,New York County,US
40.78343,-73.96625,Manhattan,New York,New York County,US
40.78343,-73.96625,Manhattan,New York,New York County,US
40.78343,-73.96625,Manhattan,New York,New York County,US
40.78343,-73.96625,Manhattan,New York,New York County,US
40.78343,-73.96625,Manhattan,New York,New York County,US
40.78343,-73.96625,Manhattan,New York,New York County,US
40.78343,-73.96625,Manhattan,New York,New York County,US
40.78343,-73.96625,Manhattan,New York,New York County,US
40.78343,-73.96625,Manhattan,New York,New York County,US
40.78343,-73.96625,Manhattan,New York,New York County,US
40.78343,-73.96625,Manhattan,New York,New York County,US
40.78343,-73.96625,Manhattan,New York,New York County,US
40.78343,-73.96625,Manhattan,New York,New York County,US
40.78343,-73.96625,Manhattan,New York,New York County,US
40.78343,-73.96625,Manhattan,New York,New York County,US
40.78343,-73.96625,Manhattan,New York,New York County,US
40.78343,-73.96625,Manhattan,New York,New York County,US
40.78343,-73.96625,Manhattan,New York,New York County,US
40.78343,-73.96625,Manhattan,New York,New York County,US
40.78343,-73.96625,Manhattan,New York,New York County,US
40.78343,-73.96625,Manhattan,New York,New York County,US
40.78343,-73.96625,Manhattan,New York,New York County,US
40.78343,-73.96625,Manhattan,New York,New York County,US
40.78343,-73.96625,Manhattan,New York,New York County,US
40.78343,-73.96625,Manhattan,New York,New York County,US
40.78343,-73.96625,Manhattan,New York,New York County,US
40.78343,-73.96625,Manhattan,New York,New York County,US
40.78343,-73.96625,Manhattan,New York,New York County,US
40.78343,-73.96625,Manhattan,New York,New York County,US
40.78343,-73.96625,Manhattan,New York,New York County,US
40.78343,-73.96625,Manhattan,New York,New York County,US
40.78343,-73.96625,Manhattan,New York,New York County,US
40.78343,-73.96625,Manhattan,New York,New York County,US
40.78343,-73.96625,Manhattan,New York,New York County,US
40.78343,-73.96625,Manhattan,New York,New York County,US
40.78343,-73.96625,Manhattan,New York,New York County,US
40.78343,-73.96625,Manhattan,New York,New York County,US
40.78343,-73.96625,Manhattan,New York,New York County,US
40.78343,-73.96625,Manhattan,New York,New York County,US
40.78343,-73.96625,Manhattan,New York,New York County,US
40.78343,-73.96625,Manhattan,New York,New York County,US
40.78343,-73.96625,Manhattan,New York,New York County,US
40.78343,-73.96625,Manhattan,New York,New York County,US
40.78343,-73.96625,Manhattan,New York,New York County,US
40.78343,-73.96625,Manhattan,New York,New York County,US
40.78343,-73.96625,Manhattan,New York,New York County,US
40.78343,-73.96625,Manhattan,New York,New York County,US
40.78343,-73.96625,Manhattan,New York,New York County,US
40.78343,-73.96625,Manhattan,New York,New York County,US
40.78343,-73.96625,Manhattan,New York,New York County,US
40.78343,-73.96625,Manhattan,New York,New York County,US
40.78343,-73.96625,Manhattan,New York,New York County,US
40.78343,-73.96625,Manhattan,New York,New York County,US
40.78343,-73.96625,Manhattan,New York,New York County,US
40.78343,-73.96625,Manhattan,New York,New York County,US
40.78343,-73.96625,Manhattan,New York,New York County,US
40.78343,-73.96625,Manhattan,New York,New York County,US
40.78343,-73.96625,Manhattan,New York,New York County,US
40.78343,-73.96625,Manhattan,New York,New York County,US
40.78343,-73.96625,Manhattan,New York,New York County,US
40.78343,-73.96625,Manhattan,New York,New York County,US
40.78343,-73.96625,Manhattan,New York,New York County,US
40.78343,-73.96625,Manhattan,New York,New York County,US
40.78343,-73.96625,Manhattan,New York,New York County,US
40.78343,-73.96625,Manhattan,New York,New York County,US
40.78343,-73.96625,Manhattan,New York,New York County,US
39.77918,-98.78507,Smith Center,Kansas,Smith County,US
39.77918,-98.78507,Smith Center,Kansas,Smith County,US
39.77918,-98.78507,Smith Center,Kansas,Smith County,US
39.77918,-98.78507,Smith Center,Kansas,Smith County,US
39.77918,-98.78507,Smith Center,Kansas,Smith County,US
39.77918,-98.78507,Smith Center,Kansas,Smith County,US
39.77918,-98.78507,Smith Center,Kansas,Smith County,US
39.77918,-98.78507,Smith Center,Kansas,Smith County,US
39.77918,-98.78507,Smith Center,Kansas,Smith County,US
39.77918,-98.78507,Smith Center,Kansas,Smith County,US
39.77918,-98.78507,Smith Center,Kansas,Smith County,US
39.77918,-98.78507,Smith Center,Kansas,Smith County,US
39.77918,-98.78507,Smith Center,Kansas,Smith County,US
39.77918,-98.78507,Smith Center,Kansas,Smith County,US
39.77918,-98.78507,Smith Center,Kansas,Smith County,US
39.77918,-98.78507,Smith Center,Kansas,Smith County,US
39.77918,-98.78507,Smith Center,Kansas,Smith County,US
39.77918,-98.78507,Smith Center,Kansas,Smith County,US
39.77918,-98.78507,Smith Center,Kansas,Smith County,US
39.77918,-98.78507,Smith Center,Kansas,Smith County,US
39.77918,-98.78507,Smith Center,Kansas,Smith County,US
39.77918,-98.78507,Smith Center,Kansas,Smith County,US
39.77918,-98.78507,Smith Center,Kansas,Smith County,US
39.77918,-98.78507,Smith Center,Kansas,Smith County,US
39.77918,-98.78507,Smith Center,Kansas,Smith County,US
39.77918,-98.78507,Smith Center,Kansas,Smith County,US
39.77918,-98.78507,Smith Center,Kansas,Smith County,US
39.77918,-98.78507,Smith Center,Kansas,Smith County,US
39.77918,-98.78507,Smith Center,Kansas,Smith County,US
39.77918,-98.78507,Smith Center,Kansas,Smith County,US
39.77918,-98.78507,Smith Center,Kansas,Smith County,US
39.77918,-98.78507,Smith Center,Kansas,Smith County,US
39.77918,-98.78507,Smith Center,Kansas,Smith County,US
39.77918,-98.78507,Smith Center,Kansas,Smith County,US
40.78343,-73.96625,Manhattan,New York,New York County,US
40.78343,-73.96625,Manhattan,New York,New York County,US
40.78343,-73.96625,Manhattan,New York,New York County,US
39.77918,-98.78507,Smith Center,Kansas,Smith County,US
39.77918,-98.78507,Smith Center,Kansas,Smith County,US
39.77918,-98.78507,Smith Center,Kansas,Smith County,US
39.77918,-98.78507,Smith Center,Kansas,Smith County,US
39.77918,-98.78507,Smith Center,Kansas,Smith County,US
39.77918,-98.78507,Smith Center,Kansas,Smith County,US
40.78343,-73.96625,Manhattan,New York,New York County,US
39.77918,-98.78507,Smith Center,Kansas,Smith County,US
40.78343,-73.96625,Manhattan,New York,New York County,US
39.77918,-98.78507,Smith Center,Kansas,Smith County,US
63.85694,-148.96611,Healy,Alaska,Denali Borough,US
39.09973,-94.57857,Kansas City,Missouri,Jackson County,US
36.58597,-79.39502,Danville,Virginia,City of Danville,US
39.77918,-98.78507,Smith Center,Kansas,Smith County,US
20.93915,-100.98075,Xoconoxtle el Grande,Guanajuato,Dolores Hidalgo Cuna de la Independencia Nacional,MX
39.77918,-98.78507,Smith Center,Kansas,Smith County,US
39.77918,-98.78507,Smith Center,Kansas,Smith County,US
39.77918,-98.78507,Smith Center,Kansas,Smith County,US
39.77918,-98.78507,Smith Center,Kansas,Smith County,US
39.77918,-98.78507,Smith Center,Kansas,Smith County,US
39.77918,-98.78507,Smith Center,Kansas,Smith County,US
39.77918,-98.78507,Smith Center,Kansas,Smith County,US
39.77918,-98.78507,Smith Center,Kansas,Smith County,US
39.77918,-98.78507,Smith Center,Kansas,Smith County,US
39.77918,-98.78507,Smith Center,Kansas,Smith County,US
34.06233,-93.6899,Murfreesboro,Arkansas,Pike County,US
39.77918,-98.78507,Smith Center,Kansas,Smith County,US
39.77918,-98.78507,Smith Center,Kansas,Smith County,US
39.77918,-98.78507,Smith Center,Kansas,Smith County,US
39.77918,-98.78507,Smith Center,Kansas,Smith County,US
39.77918,-98.78507,Smith Center,Kansas,Smith County,US
41.85003,-87.65005,Chicago,Illinois,Cook County,US
39.77918,-98.78507,Smith Center,Kansas,Smith County,US
39.77918,-98.78507,Smith Center,Kansas,Smith County,US
39.77918,-98.78507,Smith Center,Kansas,Smith County,US
43.07951,-75.53934,Vernon,New York,Oneida County,US
28.73221,-82.50621,Sugarmill Woods,Florida,Citrus County,US
39.77918,-98.78507,Smith Center,Kansas,Smith County,US
37.77493,-122.41942,San Francisco,California,San Francisco County,US
37.77493,-122.41942,San Francisco,California,San Francisco County,US
37.77493,-122.41942,San Francisco,California,San Francisco County,US
39.77918,-98.78507,Smith Center,Kansas,Smith County,US
39.77918,-98.78507,Smith Center,Kansas,Smith County,US
40.71427,-74.00597,New York City,New York,,US
40.71427,-74.00597,New York City,New York,,US
40.71427,-74.00597,New York City,New York,,US
39.77918,-98.78507,Smith Center,Kansas,Smith County,US
39.77918,-98.78507,Smith Center,Kansas,Smith County,US
39.77918,-98.78507,Smith Center,Kansas,Smith County,US
39.77918,-98.78507,Smith Center,Kansas,Smith County,US
40.71427,-74.00597,New York City,New York,,US
40.71427,-74.00597,New York City,New York,,US
39.77918,-98.78507,Smith Center,Kansas,Smith County,US
39.77918,-98.78507,Smith Center,Kansas,Smith County,US
40.71427,-74.00597,New York City,New York,,US
39.77918,-98.78507,Smith Center,Kansas,Smith County,US
40.78343,-73.96625,Manhattan,New York,New York County,US
39.77918,-98.78507,Smith Center,Kansas,Smith County,US
40.78343,-73.96625,Manhattan,New York,New York County,US
40.71427,-74.00597,New York City,New York,,US
39.77918,-98.78507,Smith Center,Kansas,Smith County,US
40.71427,-74.00597,New York City,New York,,US
40.71427,-74.00597,New York City,New York,,US
40.71427,-74.00597,New York City,New York,,US
39.77918,-98.78507,Smith Center,Kansas,Smith County,US
39.77918,-98.78507,Smith Center,Kansas,Smith County,US
39.77918,-98.78507,Smith Center,Kansas,Smith County,US
39.77918,-98.78507,Smith Center,Kansas,Smith County,US
39.77918,-98.78507,Smith Center,Kansas,Smith County,US
39.77918,-98.78507,Smith Center,Kansas,Smith County,US
39.77918,-98.78507,Smith Center,Kansas,Smith County,US
39.77918,-98.78507,Smith Center,Kansas,Smith County,US
39.77918,-98.78507,Smith Center,Kansas,Smith County,US
39.77918,-98.78507,Smith Center,Kansas,Smith County,US
39.77918,-98.78507,Smith Center,Kansas,Smith County,US
39.77918,-98.78507,Smith Center,Kansas,Smith County,US
39.77918,-98.78507,Smith Center,Kansas,Smith County,US
39.77918,-98.78507,Smith Center,Kansas,Smith County,US
40.71427,-74.00597,New York City,New York,,US
39.77918,-98.78507,Smith Center,Kansas,Smith County,US
37.77493,-122.41942,San Francisco,California,San Francisco County,US
39.77918,-98.78507,Smith Center,Kansas,Smith County,US
39.77918,-98.78507,Smith Center,Kansas,Smith County,US
39.77918,-98.78507,Smith Center,Kansas,Smith County,US
39.77918,-98.78507,Smith Center,Kansas,Smith County,US
34.09834,-118.32674,Hollywood,California,Los Angeles County,US
39.77918,-98.78507,Smith Center,Kansas,Smith County,US
39.77918,-98.78507,Smith Center,Kansas,Smith County,US
39.77918,-98.78507,Smith Center,Kansas,Smith County,US
34.09834,-118.32674,Hollywood,California,Los Angeles County,US
37.26217,-119.70098,Coarsegold,California,Madera County,US
37.26217,-119.70098,Coarsegold,California,Madera County,US
37.26217,-119.70098,Coarsegold,California,Madera County,US
37.26217,-119.70098,Coarsegold,California,Madera County,US
37.26217,-119.70098,Coarsegold,California,Madera County,US
40.77593,-74.60071,Mendham,New Jersey,Morris County,US
37.26217,-119.70098,Coarsegold,California,Madera County,US
39.77918,-98.78507,Smith Center,Kansas,Smith County,US
39.77918,-98.78507,Smith Center,Kansas,Smith County,US
34.09834,-118.32674,Hollywood,California,Los Angeles County,US
37.77493,-122.41942,San Francisco,California,San Francisco County,US
39.77918,-98.78507,Smith Center,Kansas,Smith County,US
39.77918,-98.78507,Smith Center,Kansas,Smith County,US
34.09834,-118.32674,Hollywood,California,Los Angeles County,US
34.37583,118.345,Xin'an,Jiangsu Sheng,,CN
34.09834,-118.32674,Hollywood,California,Los Angeles County,US
37.26217,-119.70098,Coarsegold,California,Madera County,US
39.77918,-98.78507,Smith Center,Kansas,Smith County,US
39.77918,-98.78507,Smith Center,Kansas,Smith County,US
39.77918,-98.78507,Smith Center,Kansas,Smith County,US
34.09834,-118.32674,Hollywood,California,Los Angeles County,US
39.77918,-98.78507,Smith Center,Kansas,Smith County,US
39.77918,-98.78507,Smith Center,Kansas,Smith County,US
34.05223,-118.24368,Los Angeles,California,Los Angeles County,US
40.71427,-74.00597,New York City,New York,,US
40.71427,-74.00597,New York City,New York,,US
40.71427,-74.00597,New York City,New York,,US
34.07362,-118.40036,Beverly Hills,California,Los Angeles County,US
34.07362,-118.40036,Beverly Hills,California,Los Angeles County,US
37.77493,-122.41942,San Francisco,California,San Francisco County,US
37.77493,-122.41942,San Francisco,California,San Francisco County,US
40.71427,-74.00597,New York City,New York,,US
39.77918,-98.78507,Smith Center,Kansas,Smith County,US
39.77918,-98.78507,Smith Center,Kansas,Smith County,US
39.77918,-98.78507,Smith Center,Kansas,Smith County,US
34.09834,-118.32674,Hollywood,California,Los Angeles County,US
34.09834,-118.32674,Hollywood,California,Los Angeles County,US
34.09834,-118.32674,Hollywood,California,Los Angeles County,US
34.09834,-118.32674,Hollywood,California,Los Angeles County,US
34.09834,-118.32674,Hollywood,California,Los Angeles County,US
34.05223,-118.24368,Los Angeles,California,Los Angeles County,US
39.77918,-98.78507,Smith Center,Kansas,Smith County,US
34.05223,-118.24368,Los Angeles,California,Los Angeles County,US
39.77918,-98.78507,Smith Center,Kansas,Smith County,US
39.77918,-98.78507,Smith Center,Kansas,Smith County,US
39.77918,-98.78507,Smith Center,Kansas,Smith County,US
39.77918,-98.78507,Smith Center,Kansas,Smith County,US
34.05223,-118.24368,Los Angeles,California,Los Angeles County,US
40.71427,-74.00597,New York City,New York,,US
34.09834,-118.32674,Hollywood,California,Los Angeles County,US
40.71427,-74.00597,New York City,New York,,US
40.71427,-74.00597,New York City,New York,,US
39.77918,-98.78507,Smith Center,Kansas,Smith County,US
34.09834,-118.32674,Hollywood,California,Los Angeles County,US
39.77918,-98.78507,Smith Center,Kansas,Smith County,US
39.77918,-98.78507,Smith Center,Kansas,Smith County,US
39.77918,-98.78507,Smith Center,Kansas,Smith County,US
39.77918,-98.78507,Smith Center,Kansas,Smith County,US
40.71427,-74.00597,New York City,New York,,US
39.77918,-98.78507,Smith Center,Kansas,Smith County,US
40.71427,-74.00597,New York City,New York,,US
40.71427,-74.00597,New York City,New York,,US
40.71427,-74.00597,New York City,New York,,US
28.73221,-82.50621,Sugarmill Woods,Florida,Citrus County,US
39.77918,-98.78507,Smith Center,Kansas,Smith County,US
39.77918,-98.78507,Smith Center,Kansas,Smith County,US
34.09834,-118.32674,Hollywood,California,Los Angeles County,US
28.73221,-82.50621,Sugarmill Woods,Florida,Citrus County,US
39.77918,-98.78507,Smith Center,Kansas,Smith County,US
39.77918,-98.78507,Smith Center,Kansas,Smith County,US
39.77918,-98.78507,Smith Center,Kansas,Smith County,US
43.07951,-75.53934,Vernon,New York,Oneida County,US
39.77918,-98.78507,Smith Center,Kansas,Smith County,US
39.77918,-98.78507,Smith Center,Kansas,Smith County,US
39.77918,-98.78507,Smith Center,Kansas,Smith County,US
39.77918,-98.78507,Smith Center,Kansas,Smith County,US
39.77918,-98.78507,Smith Center,Kansas,Smith County,US
39.77918,-98.78507,Smith Center,Kansas,Smith County,US
39.77918,-98.78507,Smith Center,Kansas,Smith County,US
43.07951,-75.53934,Vernon,New York,Oneida County,US
39.77918,-98.78507,Smith Center,Kansas,Smith County,US
39.77918,-98.78507,Smith Center,Kansas,Smith County,US
39.77918,-98.78507,Smith Center,Kansas,Smith County,US
39.77918,-98.78507,Smith Center,Kansas,Smith County,US
39.77918,-98.78507,Smith Center,Kansas,Smith County,US
39.77918,-98.78507,Smith Center,Kansas,Smith County,US
39.77918,-98.78507,Smith Center,Kansas,Smith County,US
39.77918,-98.78507,Smith Center,Kansas,Smith County,US
43.07951,-75.53934,Vernon,New York,Oneida County,US
39.77918,-98.78507,Smith Center,Kansas,Smith County,US
43.07951,-75.53934,Vernon,New York,Oneida County,US
39.77918,-98.78507,Smith Center,Kansas,Smith County,US
40.71427,-74.00597,New York City,New York,,US
43.07951,-75.53934,Vernon,New York,Oneida County,US
39.77918,-98.78507,Smith Center,Kansas,Smith County,US
39.77918,-98.78507,Smith Center,Kansas,Smith County,US
39.77918,-98.78507,Smith Center,Kansas,Smith County,US
43.07951,-75.53934,Vernon,New York,Oneida County,US
43.07951,-75.53934,Vernon,New York,Oneida County,US
39.77918,-98.78507,Smith Center,Kansas,Smith County,US
39.77918,-98.78507,Smith Center,Kansas,Smith County,US
40.77593,-74.60071,Mendham,New Jersey,Morris County,US
40.77593,-74.60071,Mendham,New Jersey,Morris County,US
39.77918,-98.78507,Smith Center,Kansas,Smith County,US
39.77918,-98.78507,Smith Center,Kansas,Smith County,US
39.77918,-98.78507,Smith Center,Kansas,Smith County,US
39.77918,-98.78507,Smith Center,Kansas,Smith County,US
39.77918,-98.78507,Smith Center,Kansas,Smith County,US
39.77918,-98.78507,Smith Center,Kansas,Smith County,US
39.77918,-98.78507,Smith Center,Kansas,Smith County,US
39.77918,-98.78507,Smith Center,Kansas,Smith County,US
43.07951,-75.53934,Vernon,New York,Oneida County,US
39.77918,-98.78507,Smith Center,Kansas,Smith County,US
39.77918,-98.78507,Smith Center,Kansas,Smith County,US
43.07951,-75.53934,Vernon,New York,Oneida County,US
43.07951,-75.53934,Vernon,New York,Oneida County,US
39.77918,-98.78507,Smith Center,Kansas,Smith County,US
39.77918,-98.78507,Smith Center,Kansas,Smith County,US
39.77918,-98.78507,Smith Center,Kansas,Smith County,US
39.77918,-98.78507,Smith Center,Kansas,Smith County,US
39.77918,-98.78507,Smith Center,Kansas,Smith County,US
39.77918,-98.78507,Smith Center,Kansas,Smith County,US
39.77918,-98.78507,Smith Center,Kansas,Smith County,US
39.77918,-98.78507,Smith Center,Kansas,Smith County,US
39.77918,-98.78507,Smith Center,Kansas,Smith County,US
39.77918,-98.78507,Smith Center,Kansas,Smith County,US
39.77918,-98.78507,Smith Center,Kansas,Smith County,US
39.77918,-98.78507,Smith Center,Kansas,Smith County,US
39.77918,-98.78507,Smith Center,Kansas,Smith County,US
40.77593,-74.60071,Mendham,New Jersey,Morris County,US
40.77593,-74.60071,Mendham,New Jersey,Morris County,US
41.92676,-73.91264,Rhinebeck,New York,Dutchess County,US
41.92676,-73.91264,Rhinebeck,New York,Dutchess County,US
37.26217,-119.70098,Coarsegold,California,Madera County,US
39.77918,-98.78507,Smith Center,Kansas,Smith County,US
39.77918,-98.78507,Smith Center,Kansas,Smith County,US
39.77918,-98.78507,Smith Center,Kansas,Smith County,US
39.77918,-98.78507,Smith Center,Kansas,Smith County,US
39.77918,-98.78507,Smith Center,Kansas,Smith County,US
39.77918,-98.78507,Smith Center,Kansas,Smith County,US
40.78343,-73.96625,Manhattan,New York,New York County,US
39.77918,-98.78507,Smith Center,Kansas,Smith County,US
39.77918,-98.78507,Smith Center,Kansas,Smith County,US
39.77918,-98.78507,Smith Center,Kansas,Smith County,US
39.77918,-98.78507,Smith Center,Kansas,Smith County,US
39.77918,-98.78507,Smith Center,Kansas,Smith County,US
39.77918,-98.78507,Smith Center,Kansas,Smith County,US
39.77918,-98.78507,Smith Center,Kansas,Smith County,US
39.77918,-98.78507,Smith Center,Kansas,Smith County,US
40.71427,-74.00597,New York City,New York,,US
40.71427,-74.00597,New York City,New York,,US
37.77493,-122.41942,San Francisco,California,San Francisco County,US
39.77918,-98.78507,Smith Center,Kansas,Smith County,US
43.65757,-71.50035,Meredith,New Hampshire,Belknap County,US
43.65757,-71.50035,Meredith,New Hampshire,Belknap County,US
43.07951,-75.53934,Vernon,New York,Oneida County,US
39.77918,-98.78507,Smith Center,Kansas,Smith County,US
39.77918,-98.78507,Smith Center,Kansas,Smith County,US
39.77918,-98.78507,Smith Center,Kansas,Smith County,US
35.68698,-105.9378,Santa Fe,New Mexico,Santa Fe County,US
35.68698,-105.9378,Santa Fe,New Mexico,Santa Fe County,US
35.68698,-105.9378,Santa Fe,New Mexico,Santa Fe County,US
35.68698,-105.9378,Santa Fe,New Mexico,Santa Fe County,US
35.68698,-105.9378,Santa Fe,New Mexico,Santa Fe County,US
35.68698,-105.9378,Santa Fe,New Mexico,Santa Fe County,US
43.07951,-75.53934,Vernon,New York,Oneida County,US
35.68698,-105.9378,Santa Fe,New Mexico,Santa Fe County,US
34.09834,-118.32674,Hollywood,California,Los Angeles County,US
42.65565,-70.62032,Rockport,Massachusetts,Essex County,US
42.65565,-70.62032,Rockport,Massachusetts,Essex County,US
42.65565,-70.62032,Rockport,Massachusetts,Essex County,US
39.77918,-98.78507,Smith Center,Kansas,Smith County,US
39.77918,-98.78507,Smith Center,Kansas,Smith County,US
39.77918,-98.78507,Smith Center,Kansas,Smith County,US
39.77918,-98.78507,Smith Center,Kansas,Smith County,US
43.80951,-72.15592,Lyme,New Hampshire,Grafton County,US
39.77918,-98.78507,Smith Center,Kansas,Smith County,US
39.77918,-98.78507,Smith Center,Kansas,Smith County,US
39.77918,-98.78507,Smith Center,Kansas,Smith County,US
39.77918,-98.78507,Smith Center,Kansas,Smith County,US
40.71427,-74.00597,New York City,New York,,US
39.77918,-98.78507,Smith Center,Kansas,Smith County,US
39.77918,-98.78507,Smith Center,Kansas,Smith County,US
39.77918,-98.78507,Smith Center,Kansas,Smith County,US
39.77918,-98.78507,Smith Center,Kansas,Smith County,US
34.09834,-118.32674,Hollywood,California,Los Angeles County,US
39.77918,-98.78507,Smith Center,Kansas,Smith County,US
39.77918,-98.78507,Smith Center,Kansas,Smith County,US
39.77918,-98.78507,Smith Center,Kansas,Smith County,US
34.05223,-118.24368,Los Angeles,California,Los Angeles County,US
39.77918,-98.78507,Smith Center,Kansas,Smith County,US
39.77918,-98.78507,Smith Center,Kansas,Smith County,US
39.77918,-98.78507,Smith Center,Kansas,Smith County,US
39.77918,-98.78507,Smith Center,Kansas,Smith County,US
39.77918,-98.78507,Smith Center,Kansas,Smith County,US
39.77918,-98.78507,Smith Center,Kansas,Smith County,US
39.77918,-98.78507,Smith Center,Kansas,Smith County,US
39.77918,-98.78507,Smith Center,Kansas,Smith County,US
39.77918,-98.78507,Smith Center,Kansas,Smith County,US
34.09834,-118.32674,Hollywood,California,Los Angeles County,US
39.77918,-98.78507,Smith Center,Kansas,Smith County,US
39.77918,-98.78507,Smith Center,Kansas,Smith County,US
39.77918,-98.78507,Smith Center,Kansas,Smith County,US
39.77918,-98.78507,Smith Center,Kansas,Smith County,US
39.77918,-98.78507,Smith Center,Kansas,Smith County,US
39.77918,-98.78507,Smith Center,Kansas,Smith County,US
39.77918,-98.78507,Smith Center,Kansas,Smith County,US
37.77493,-122.41942,San Francisco,California,San Francisco County,US
39.77918,-98.78507,Smith Center,Kansas,Smith County,US
39.77918,-98.78507,Smith Center,Kansas,Smith County,US
39.77918,-98.78507,Smith Center,Kansas,Smith County,US
39.77918,-98.78507,Smith Center,Kansas,Smith County,US
39.77918,-98.78507,Smith Center,Kansas,Smith County,US
39.77918,-98.78507,Smith Center,Kansas,Smith County,US
39.77918,-98.78507,Smith Center,Kansas,Smith County,US
39.77918,-98.78507,Smith Center,Kansas,Smith County,US
39.77918,-98.78507,Smith Center,Kansas,Smith County,US
39.77918,-98.78507,Smith Center,Kansas,Smith County,US
39.77918,-98.78507,Smith Center,Kansas,Smith County,US
39.77918,-98.78507,Smith Center,Kansas,Smith County,US
39.77918,-98.78507,Smith Center,Kansas,Smith County,US
39.77918,-98.78507,Smith Center,Kansas,Smith County,US
39.77918,-98.78507,Smith Center,Kansas,Smith County,US
34.09834,-118.32674,Hollywood,California,Los Angeles County,US
37.77493,-122.41942,San Francisco,California,San Francisco County,US
37.77493,-122.41942,San Francisco,California,San Francisco County,US
34.09834,-118.32674,Hollywood,California,Los Angeles County,US
34.09834,-118.32674,Hollywood,California,Los Angeles County,US
34.09834,-118.32674,Hollywood,California,Los Angeles County,US
39.77918,-98.78507,Smith Center,Kansas,Smith County,US
34.09834,-118.32674,Hollywood,California,Los Angeles County,US
39.77918,-98.78507,Smith Center,Kansas,Smith County,US
39.77918,-98.78507,Smith Center,Kansas,Smith County,US
39.77918,-98.78507,Smith Center,Kansas,Smith County,US
39.77918,-98.78507,Smith Center,Kansas,Smith County,US
39.77918,-98.78507,Smith Center,Kansas,Smith County,US
39.77918,-98.78507,Smith Center,Kansas,Smith County,US
39.77918,-98.78507,Smith Center,Kansas,Smith County,US
37.77493,-122.41942,San Francisco,California,San Francisco County,US
37.77493,-122.41942,San Francisco,California,San Francisco County,US
39.77918,-98.78507,Smith Center,Kansas,Smith County,US
39.77918,-98.78507,Smith Center,Kansas,Smith County,US
37.77493,-122.41942,San Francisco,California,San Francisco County,US
39.77918,-98.78507,Smith Center,Kansas,Smith County,US
37.77493,-122.41942,San Francisco,California,San Francisco County,US
37.77493,-122.41942,San Francisco,California,San Francisco County,US
39.77918,-98.78507,Smith Center,Kansas,Smith County,US
37.77493,-122.41942,San Francisco,California,San Francisco County,US
37.77493,-122.41942,San Francisco,California,San Francisco County,US
39.77918,-98.78507,Smith Center,Kansas,Smith County,US
37.77493,-122.41942,San Francisco,California,San Francisco County,US
37.85909,-122.48525,Sausalito,California,Marin County,US
37.85909,-122.48525,Sausalito,California,Marin County,US
39.77918,-98.78507,Smith Center,Kansas,Smith County,US
37.85909,-122.48525,Sausalito,California,Marin County,US
37.85909,-122.48525,Sausalito,California,Marin County,US
39.77918,-98.78507,Smith Center,Kansas,Smith County,US
37.77493,-122.41942,San Francisco,California,San Francisco County,US
39.77918,-98.78507,Smith Center,Kansas,Smith County,US
39.77918,-98.78507,Smith Center,Kansas,Smith County,US
39.77918,-98.78507,Smith Center,Kansas,Smith County,US
37.85909,-122.48525,Sausalito,California,Marin County,US
37.85909,-122.48525,Sausalito,California,Marin County,US
39.77918,-98.78507,Smith Center,Kansas,Smith County,US
37.85909,-122.48525,Sausalito,California,Marin County,US
39.77918,-98.78507,Smith Center,Kansas,Smith County,US
37.77493,-122.41942,San Francisco,California,San Francisco County,US
39.77918,-98.78507,Smith Center,Kansas,Smith County,US
39.77918,-98.78507,Smith Center,Kansas,Smith County,US
37.77493,-122.41942,San Francisco,California,San Francisco County,US
37.77493,-122.41942,San Francisco,California,San Francisco County,US
37.77493,-122.41942,San Francisco,California,San Francisco County,US
37.77493,-122.41942,San Francisco,California,San Francisco County,US
39.77918,-98.78507,Smith Center,Kansas,Smith County,US
37.77493,-122.41942,San Francisco,California,San Francisco County,US
39.77918,-98.78507,Smith Center,Kansas,Smith County,US
39.77918,-98.78507,Smith Center,Kansas,Smith County,US
39.77918,-98.78507,Smith Center,Kansas,Smith County,US
39.77918,-98.78507,Smith Center,Kansas,Smith County,US
39.77918,-98.78507,Smith Center,Kansas,Smith County,US
37.77493,-122.41942,San Francisco,California,San Francisco County,US
39.77918,-98.78507,Smith Center,Kansas,Smith County,US
39.77918,-98.78507,Smith Center,Kansas,Smith County,US
39.77918,-98.78507,Smith Center,Kansas,Smith County,US
39.77918,-98.78507,Smith Center,Kansas,Smith County,US
37.77493,-122.41942,San Francisco,California,San Francisco County,US
39.77918,-98.78507,Smith Center,Kansas,Smith County,US
37.77493,-122.41942,San Francisco,California,San Francisco County,US
37.77493,-122.41942,San Francisco,California,San Francisco County,US
39.77918,-98.78507,Smith Center,Kansas,Smith County,US
39.77918,-98.78507,Smith Center,Kansas,Smith County,US
39.77918,-98.78507,Smith Center,Kansas,Smith County,US
39.77918,-98.78507,Smith Center,Kansas,Smith County,US
39.77918,-98.78507,Smith Center,Kansas,Smith County,US
39.77918,-98.78507,Smith Center,Kansas,Smith County,US
39.77918,-98.78507,Smith Center,Kansas,Smith County,US
37.77493,-122.41942,San Francisco,California,San Francisco County,US
39.77918,-98.78507,Smith Center,Kansas,Smith County,US
39.77918,-98.78507,Smith Center,Kansas,Smith County,US
39.77918,-98.78507,Smith Center,Kansas,Smith County,US
39.77918,-98.78507,Smith Center,Kansas,Smith County,US
39.77918,-98.78507,Smith Center,Kansas,Smith County,US
39.77918,-98.78507,Smith Center,Kansas,Smith County,US
39.77918,-98.78507,Smith Center,Kansas,Smith County,US
39.77918,-98.78507,Smith Center,Kansas,Smith County,US
39.77918,-98.78507,Smith Center,Kansas,Smith County,US
39.77918,-98.78507,Smith Center,Kansas,Smith County,US
39.77918,-98.78507,Smith Center,Kansas,Smith County,US
37.77493,-122.41942,San Francisco,California,San Francisco County,US
39.77918,-98.78507,Smith Center,Kansas,Smith County,US
39.77918,-98.78507,Smith Center,Kansas,Smith County,US
39.77918,-98.78507,Smith Center,Kansas,Smith County,US
39.77918,-98.78507,Smith Center,Kansas,Smith County,US
39.77918,-98.78507,Smith Center,Kansas,Smith County,US
39.77918,-98.78507,Smith Center,Kansas,Smith County,US
39.77918,-98.78507,Smith Center,Kansas,Smith County,US
39.77918,-98.78507,Smith Center,Kansas,Smith County,US
39.77918,-98.78507,Smith Center,Kansas,Smith County,US
37.77493,-122.41942,San Francisco,California,San Francisco County,US
39.77918,-98.78507,Smith Center,Kansas,Smith County,US
39.77918,-98.78507,Smith Center,Kansas,Smith County,US
39.77918,-98.78507,Smith Center,Kansas,Smith County,US
37.77493,-122.41942,San Francisco,California,San Francisco County,US
39.77918,-98.78507,Smith Center,Kansas,Smith County,US
39.77918,-98.78507,Smith Center,Kansas,Smith County,US
39.77918,-98.78507,Smith Center,Kansas,Smith County,US
39.77918,-98.78507,Smith Center,Kansas,Smith County,US
37.77493,-122.41942,San Francisco,California,San Francisco County,US
39.77918,-98.78507,Smith Center,Kansas,Smith County,US
39.77918,-98.78507,Smith Center,Kansas,Smith County,US
39.77918,-98.78507,Smith Center,Kansas,Smith County,US
39.77918,-98.78507,Smith Center,Kansas,Smith County,US
39.77918,-98.78507,Smith Center,Kansas,Smith County,US
39.77918,-98.78507,Smith Center,Kansas,Smith County,US
39.77918,-98.78507,Smith Center,Kansas,Smith County,US
39.77918,-98.78507,Smith Center,Kansas,Smith County,US
39.77918,-98.78507,Smith Center,Kansas,Smith County,US
39.77918,-98.78507,Smith Center,Kansas,Smith County,US
39.77918,-98.78507,Smith Center,Kansas,Smith County,US
39.77918,-98.78507,Smith Center,Kansas,Smith County,US
39.77918,-98.78507,Smith Center,Kansas,Smith County,US
39.77918,-98.78507,Smith Center,Kansas,Smith County,US
37.77493,-122.41942,San Francisco,California,San Francisco County,US
39.77918,-98.78507,Smith Center,Kansas,Smith County,US
39.77918,-98.78507,Smith Center,Kansas,Smith County,US
39.77918,-98.78507,Smith Center,Kansas,Smith County,US
39.77918,-98.78507,Smith Center,Kansas,Smith County,US
39.77918,-98.78507,Smith Center,Kansas,Smith County,US
39.77918,-98.78507,Smith Center,Kansas,Smith County,US
37.77493,-122.41942,San Francisco,California,San Francisco County,US
39.77918,-98.78507,Smith Center,Kansas,Smith County,US
39.77918,-98.78507,Smith Center,Kansas,Smith County,US
39.77918,-98.78507,Smith Center,Kansas,Smith County,US
39.77918,-98.78507,Smith Center,Kansas,Smith County,US
37.90604,-122.54498,Mill Valley,California,Marin County,US
39.77918,-98.78507,Smith Center,Kansas,Smith County,US
44.29985,-120.83447,Prineville,Oregon,Crook County,US
39.77918,-98.78507,Smith Center,Kansas,Smith County,US
39.77918,-98.78507,Smith Center,Kansas,Smith County,US
39.77918,-98.78507,Smith Center,Kansas,Smith County,US
37.77493,-122.41942,San Francisco,California,San Francisco County,US
39.77918,-98.78507,Smith Center,Kansas,Smith County,US
39.77918,-98.78507,Smith Center,Kansas,Smith County,US
39.77918,-98.78507,Smith Center,Kansas,Smith County,US
39.77918,-98.78507,Smith Center,Kansas,Smith County,US
39.77918,-98.78507,Smith Center,Kansas,Smith County,US
34.23216,-118.23529,La Crescenta-Montrose,California,Los Angeles County,US
34.23216,-118.23529,La Crescenta-Montrose,California,Los Angeles County,US
37.77493,-122.41942,San Francisco,California,San Francisco County,US
39.77918,-98.78507,Smith Center,Kansas,Smith County,US
39.77918,-98.78507,Smith Center,Kansas,Smith County,US
39.77918,-98.78507,Smith Center,Kansas,Smith County,US
39.77918,-98.78507,Smith Center,Kansas,Smith County,US
39.77918,-98.78507,Smith Center,Kansas,Smith County,US
39.77918,-98.78507,Smith Center,Kansas,Smith County,US
39.77918,-98.78507,Smith Center,Kansas,Smith County,US
39.77918,-98.78507,Smith Center,Kansas,Smith County,US
39.77918,-98.78507,Smith Center,Kansas,Smith County,US
39.77918,-98.78507,Smith Center,Kansas,Smith County,US
39.77918,-98.78507,Smith Center,Kansas,Smith County,US
39.77918,-98.78507,Smith Center,Kansas,Smith County,US
39.77918,-98.78507,Smith Center,Kansas,Smith County,US
39.77918,-98.78507,Smith Center,Kansas,Smith County,US
39.77918,-98.78507,Smith Center,Kansas,Smith County,US
37.77493,-122.41942,San Francisco,California,San Francisco County,US
39.77918,-98.78507,Smith Center,Kansas,Smith County,US
39.77918,-98.78507,Smith Center,Kansas,Smith County,US
39.77918,-98.78507,Smith Center,Kansas,Smith County,US
39.77918,-98.78507,Smith Center,Kansas,Smith County,US
39.77918,-98.78507,Smith Center,Kansas,Smith County,US
39.77918,-98.78507,Smith Center,Kansas,Smith County,US
39.77918,-98.78507,Smith Center,Kansas,Smith County,US
72.78684,-56.15485,Upernavik,Qaasuitsup,,GL
39.77918,-98.78507,Smith Center,Kansas,Smith County,US
37.77493,-122.41942,San Francisco,California,San Francisco County,US
37.77493,-122.41942,San Francisco,California,San Francisco County,US
39.77918,-98.78507,Smith Center,Kansas,Smith County,US
39.77918,-98.78507,Smith Center,Kansas,Smith County,US
39.77918,-98.78507,Smith Center,Kansas,Smith County,US
39.77918,-98.78507,Smith Center,Kansas,Smith County,US
39.77918,-98.78507,Smith Center,Kansas,Smith County,US
39.77918,-98.78507,Smith Center,Kansas,Smith County,US
37.77493,-122.41942,San Francisco,California,San Francisco County,US
39.77918,-98.78507,Smith Center,Kansas,Smith County,US
39.77918,-98.78507,Smith Center,Kansas,Smith County,US
39.77918,-98.78507,Smith Center,Kansas,Smith County,US
39.77918,-98.78507,Smith Center,Kansas,Smith County,US
39.77918,-98.78507,Smith Center,Kansas,Smith County,US
39.77918,-98.78507,Smith Center,Kansas,Smith County,US
39.77918,-98.78507,Smith Center,Kansas,Smith County,US
39.77918,-98.78507,Smith Center,Kansas,Smith County,US
39.77918,-98.78507,Smith Center,Kansas,Smith County,US
39.77918,-98.78507,Smith Center,Kansas,Smith County,US
39.1911,-106.81754,Aspen,Colorado,Pitkin County,US
39.77918,-98.78507,Smith Center,Kansas,Smith County,US
39.77918,-98.78507,Smith Center,Kansas,Smith County,US
39.77918,-98.78507,Smith Center,Kansas,Smith County,US
39.77918,-98.78507,Smith Center,Kansas,Smith County,US
39.77918,-98.78507,Smith Center,Kansas,Smith County,US
39.77918,-98.78507,Smith Center,Kansas,Smith County,US
37.77493,-122.41942,San Francisco,California,San Francisco County,US
37.77493,-122.41942,San Francisco,California,San Francisco County,US
39.77918,-98.78507,Smith Center,Kansas,Smith County,US
39.77918,-98.78507,Smith Center,Kansas,Smith County,US
39.77918,-98.78507,Smith Center,Kansas,Smith County,US
39.77918,-98.78507,Smith Center,Kansas,Smith County,US
39.77918,-98.78507,Smith Center,Kansas,Smith County,US
39.77918,-98.78507,Smith Center,Kansas,Smith County,US
37.77493,-122.41942,San Francisco,California,San Francisco County,US
39.77918,-98.78507,Smith Center,Kansas,Smith County,US
39.77918,-98.78507,Smith Center,Kansas,Smith County,US
39.77918,-98.78507,Smith Center,Kansas,Smith County,US
37.77493,-122.41942,San Francisco,California,San Francisco County,US
39.77918,-98.78507,Smith Center,Kansas,Smith County,US
39.77918,-98.78507,Smith Center,Kansas,Smith County,US
39.77918,-98.78507,Smith Center,Kansas,Smith County,US
39.77918,-98.78507,Smith Center,Kansas,Smith County,US
39.77918,-98.78507,Smith Center,Kansas,Smith County,US
39.77918,-98.78507,Smith Center,Kansas,Smith County,US
39.77918,-98.78507,Smith Center,Kansas,Smith County,US
39.77918,-98.78507,Smith Center,Kansas,Smith County,US
39.77918,-98.78507,Smith Center,Kansas,Smith County,US
39.77918,-98.78507,Smith Center,Kansas,Smith County,US
39.77918,-98.78507,Smith Center,Kansas,Smith County,US
39.77918,-98.78507,Smith Center,Kansas,Smith County,US
39.77918,-98.78507,Smith Center,Kansas,Smith County,US
39.77918,-98.78507,Smith Center,Kansas,Smith County,US
39.77918,-98.78507,Smith Center,Kansas,Smith County,US
39.77918,-98.78507,Smith Center,Kansas,Smith County,US
39.77918,-98.78507,Smith Center,Kansas,Smith County,US
39.77918,-98.78507,Smith Center,Kansas,Smith County,US
37.77493,-122.41942,San Francisco,California,San Francisco County,US
39.06741,-120.12824,Tahoma,California,Placer County,US
39.06741,-120.12824,Tahoma,California,Placer County,US
39.06741,-120.12824,Tahoma,California,Placer County,US
39.06741,-120.12824,Tahoma,California,Placer County,US
39.06741,-120.12824,Tahoma,California,Placer County,US
39.06741,-120.12824,Tahoma,California,Placer County,US
39.06741,-120.12824,Tahoma,California,Placer County,US
39.77918,-98.78507,Smith Center,Kansas,Smith County,US
37.77493,-122.41942,San Francisco,California,San Francisco County,US
39.77918,-98.78507,Smith Center,Kansas,Smith County,US
39.77918,-98.78507,Smith Center,Kansas,Smith County,US
39.77918,-98.78507,Smith Center,Kansas,Smith County,US
39.77918,-98.78507,Smith Center,Kansas,Smith County,US
39.77918,-98.78507,Smith Center,Kansas,Smith County,US
39.77918,-98.78507,Smith Center,Kansas,Smith County,US
39.77918,-98.78507,Smith Center,Kansas,Smith County,US
39.77918,-98.78507,Smith Center,Kansas,Smith County,US
39.77918,-98.78507,Smith Center,Kansas,Smith County,US
39.77918,-98.78507,Smith Center,Kansas,Smith County,US
39.77918,-98.78507,Smith Center,Kansas,Smith County,US
39.77918,-98.78507,Smith Center,Kansas,Smith County,US
39.77918,-98.78507,Smith Center,Kansas,Smith County,US
39.77918,-98.78507,Smith Center,Kansas,Smith County,US
39.77918,-98.78507,Smith Center,Kansas,Smith County,US
39.77918,-98.78507,Smith Center,Kansas,Smith County,US
39.77918,-98.78507,Smith Center,Kansas,Smith County,US
39.77918,-98.78507,Smith Center,Kansas,Smith County,US
39.77918,-98.78507,Smith Center,Kansas,Smith County,US
39.77918,-98.78507,Smith Center,Kansas,Smith County,US
39.77918,-98.78507,Smith Center,Kansas,Smith County,US
39.77918,-98.78507,Smith Center,Kansas,Smith County,US
39.77918,-98.78507,Smith Center,Kansas,Smith County,US
39.44572,-123.80529,Fort Bragg,California,Mendocino County,US
39.44572,-123.80529,Fort Bragg,California,Mendocino County,US
38.44047,-122.71443,Santa Rosa,California,Sonoma County,US
39.77918,-98.78507,Smith Center,Kansas,Smith County,US
37.77493,-122.41942,San Francisco,California,San Francisco County,US
39.77918,-98.78507,Smith Center,Kansas,Smith County,US
39.77918,-98.78507,Smith Center,Kansas,Smith County,US
34.09834,-118.32674,Hollywood,California,Los Angeles County,US
34.09834,-118.32674,Hollywood,California,Los Angeles County,US
39.77918,-98.78507,Smith Center,Kansas,Smith County,US
34.09834,-118.32674,Hollywood,California,Los Angeles County,US
39.77918,-98.78507,Smith Center,Kansas,Smith County,US
37.77493,-122.41942,San Francisco,California,San Francisco County,US
39.77918,-98.78507,Smith Center,Kansas,Smith County,US
39.77918,-98.78507,Smith Center,Kansas,Smith County,US
39.77918,-98.78507,Smith Center,Kansas,Smith County,US
39.77918,-98.78507,Smith Center,Kansas,Smith County,US
39.77918,-98.78507,Smith Center,Kansas,Smith County,US
40.71427,-74.00597,New York City,New York,,US
44.9429,-123.0351,Salem,Oregon,Marion County,US
42.33143,-83.04575,Detroit,Michigan,Wayne County,US
39.77918,-98.78507,Smith Center,Kansas,Smith County,US
16.99488,-96.47112,Santa Ana del Valle,Oaxaca,,MX
44.9429,-123.0351,Salem,Oregon,Marion County,US
44.9429,-123.0351,Salem,Oregon,Marion County,US
63.05,11.65,Aas,Sor-Trondelag,Tydal,NO
39.77918,-98.78507,Smith Center,Kansas,Smith County,US
39.77918,-98.78507,Smith Center,Kansas,Smith County,US
41.89193,12.51133,Rome,Latium,Citta metropolitana di Roma Capitale,IT
39.77918,-98.78507,Smith Center,Kansas,Smith County,US
39.77918,-98.78507,Smith Center,Kansas,Smith County,US
39.77918,-98.78507,Smith Center,Kansas,Smith County,US
40.6501,-73.94958,Brooklyn,New York,Kings County,US
39.95233,-75.16379,Philadelphia,Pennsylvania,Philadelphia County,US
41.48148,-73.21317,Southbury,Connecticut,New Haven County,US
39.77918,-98.78507,Smith Center,Kansas,Smith County,US
39.77918,-98.78507,Smith Center,Kansas,Smith County,US
39.77918,-98.78507,Smith Center,Kansas,Smith County,US
39.77918,-98.78507,Smith Center,Kansas,Smith County,US
39.77918,-98.78507,Smith Center,Kansas,Smith County,US
39.77918,-98.78507,Smith Center,Kansas,Smith County,US
39.77918,-98.78507,Smith Center,Kansas,Smith County,US
39.77918,-98.78507,Smith Center,Kansas,Smith County,US
39.77918,-98.78507,Smith Center,Kansas,Smith County,US
40.71427,-74.00597,New York City,New York,,US
39.77918,-98.78507,Smith Center,Kansas,Smith County,US
39.77918,-98.78507,Smith Center,Kansas,Smith County,US
39.77918,-98.78507,Smith Center,Kansas,Smith County,US
39.77918,-98.78507,Smith Center,Kansas,Smith County,US
40.6501,-73.94958,Brooklyn,New York,Kings County,US
40.6501,-73.94958,Brooklyn,New York,Kings County,US
40.6501,-73.94958,Brooklyn,New York,Kings County,US
40.6501,-73.94958,Brooklyn,New York,Kings County,US
40.6501,-73.94958,Brooklyn,New York,Kings County,US
40.6501,-73.94958,Brooklyn,New York,Kings County,US
40.6501,-73.94958,Brooklyn,New York,Kings County,US
40.6501,-73.94958,Brooklyn,New York,Kings County,US
40.6501,-73.94958,Brooklyn,New York,Kings County,US
39.77918,-98.78507,Smith Center,Kansas,Smith County,US
39.77918,-98.78507,Smith Center,Kansas,Smith County,US
39.77918,-98.78507,Smith Center,Kansas,Smith County,US
44.9429,-123.0351,Salem,Oregon,Marion County,US
40.71427,-74.00597,New York City,New York,,US
32.72532,-114.6244,Yuma,Arizona,Yuma County,US
41.85003,-87.65005,Chicago,Illinois,Cook County,US
39.77918,-98.78507,Smith Center,Kansas,Smith County,US
39.77918,-98.78507,Smith Center,Kansas,Smith County,US
39.77918,-98.78507,Smith Center,Kansas,Smith County,US
32.77007,-108.28033,Silver City,New Mexico,Grant County,US
32.77007,-108.28033,Silver City,New Mexico,Grant County,US
32.77007,-108.28033,Silver City,New Mexico,Grant County,US
32.77007,-108.28033,Silver City,New Mexico,Grant County,US
32.77007,-108.28033,Silver City,New Mexico,Grant County,US
32.77007,-108.28033,Silver City,New Mexico,Grant County,US
32.77007,-108.28033,Silver City,New Mexico,Grant County,US
32.77007,-108.28033,Silver City,New Mexico,Grant County,US
32.77007,-108.28033,Silver City,New Mexico,Grant County,US
32.77007,-108.28033,Silver City,New Mexico,Grant County,US
32.77007,-108.28033,Silver City,New Mexico,Grant County,US
32.77007,-108.28033,Silver City,New Mexico,Grant County,US
32.77952,-108.15032,Santa Clara,New Mexico,Grant County,US
32.77952,-108.15032,Santa Clara,New Mexico,Grant County,US
32.77952,-108.15032,Santa Clara,New Mexico,Grant County,US
32.77952,-108.15032,Santa Clara,New Mexico,Grant County,US
32.77952,-108.15032,Santa Clara,New Mexico,Grant County,US
32.77952,-108.15032,Santa Clara,New Mexico,Grant County,US
48.78232,9.17702,Stuttgart,Baden-Wuerttemberg,Regierungsbezirk Stuttgart,DE
48.78232,9.17702,Stuttgart,Baden-Wuerttemberg,Regierungsbezirk Stuttgart,DE
40.71427,-74.00597,New York City,New York,,US
40.71427,-74.00597,New York City,New York,,US
40.71427,-74.00597,New York City,New York,,US
40.71427,-74.00597,New York City,New York,,US
40.71427,-74.00597,New York City,New York,,US
40.71427,-74.00597,New York City,New York,,US
40.71427,-74.00597,New York City,New York,,US
40.71427,-74.00597,New York City,New York,,US
37.77493,-122.41942,San Francisco,California,San Francisco County,US
37.77493,-122.41942,San Francisco,California,San Francisco County,US
37.77493,-122.41942,San Francisco,California,San Francisco County,US
37.77493,-122.41942,San Francisco,California,San Francisco County,US
37.77493,-122.41942,San Francisco,California,San Francisco County,US
37.77493,-122.41942,San Francisco,California,San Francisco County,US
40.71427,-74.00597,New York City,New York,,US
40.71427,-74.00597,New York City,New York,,US
40.71427,-74.00597,New York City,New York,,US
40.71427,-74.00597,New York City,New York,,US
40.71427,-74.00597,New York City,New York,,US
40.71427,-74.00597,New York City,New York,,US
40.71427,-74.00597,New York City,New York,,US
40.71427,-74.00597,New York City,New York,,US
40.71427,-74.00597,New York City,New York,,US
40.71427,-74.00597,New York City,New York,,US
40.71427,-74.00597,New York City,New York,,US
40.71427,-74.00597,New York City,New York,,US
40.71427,-74.00597,New York City,New York,,US
40.71427,-74.00597,New York City,New York,,US
40.71427,-74.00597,New York City,New York,,US
40.71427,-74.00597,New York City,New York,,US
40.71427,-74.00597,New York City,New York,,US
40.71427,-74.00597,New York City,New York,,US
40.71427,-74.00597,New York City,New York,,US
40.71427,-74.00597,New York City,New York,,US
40.71427,-74.00597,New York City,New York,,US
40.71427,-74.00597,New York City,New York,,US
40.71427,-74.00597,New York City,New York,,US
40.71427,-74.00597,New York City,New York,,US
40.71427,-74.00597,New York City,New York,,US
40.71427,-74.00597,New York City,New York,,US
40.71427,-74.00597,New York City,New York,,US
40.71427,-74.00597,New York City,New York,,US
40.71427,-74.00597,New York City,New York,,US
40.71427,-74.00597,New York City,New York,,US
40.71427,-74.00597,New York City,New York,,US
40.71427,-74.00597,New York City,New York,,US
40.71427,-74.00597,New York City,New York,,US
40.71427,-74.00597,New York City,New York,,US
40.71427,-74.00597,New York City,New York,,US
40.71427,-74.00597,New York City,New York,,US
40.71427,-74.00597,New York City,New York,,US
40.71427,-74.00597,New York City,New York,,US
40.71427,-74.00597,New York City,New York,,US
40.71427,-74.00597,New York City,New York,,US
40.71427,-74.00597,New York City,New York,,US
40.71427,-74.00597,New York City,New York,,US
40.71427,-74.00597,New York City,New York,,US
40.71427,-74.00597,New York City,New York,,US
40.71427,-74.00597,New York City,New York,,US
40.71427,-74.00597,New York City,New York,,US
40.71427,-74.00597,New York City,New York,,US
40.71427,-74.00597,New York City,New York,,US
40.71427,-74.00597,New York City,New York,,US
40.71427,-74.00597,New York City,New York,,US
40.71427,-74.00597,New York City,New York,,US
40.71427,-74.00597,New York City,New York,,US
40.71427,-74.00597,New York City,New York,,US
40.71427,-74.00597,New York City,New York,,US
40.71427,-74.00597,New York City,New York,,US
40.71427,-74.00597,New York City,New York,,US
40.71427,-74.00597,New York City,New York,,US
40.71427,-74.00597,New York City,New York,,US
40.71427,-74.00597,New York City,New York,,US
41.30815,-72.92816,New Haven,Connecticut,New Haven County,US
39.77918,-98.78507,Smith Center,Kansas,Smith County,US
32.77007,-108.28033,Silver City,New Mexico,Grant County,US
34.94931,104.72584,Santai Zhen,Gansu Sheng,,CN
39.77918,-98.78507,Smith Center,Kansas,Smith County,US
40.71427,-74.00597,New York City,New York,,US
51.50853,-0.12574,London,England,Greater London,GB
39.77918,-98.78507,Smith Center,Kansas,Smith County,US
39.77918,-98.78507,Smith Center,Kansas,Smith County,US
39.77918,-98.78507,Smith Center,Kansas,Smith County,US
39.77918,-98.78507,Smith Center,Kansas,Smith County,US
38.89511,-77.03637,"Washington, D.C.","Washington, D.C.",,US
39.77918,-98.78507,Smith Center,Kansas,Smith County,US
40.71427,-74.00597,New York City,New York,,US
41.30815,-72.92816,New Haven,Connecticut,New Haven County,US
39.77918,-98.78507,Smith Center,Kansas,Smith County,US
36.18674,-94.12881,Springdale,Arkansas,Washington County,US
39.77918,-98.78507,Smith Center,Kansas,Smith County,US
25.25857,-99.68371,General Teran,Nuevo Leon,,MX
22.96139,-102.05556,Los Zacatones,San Luis Potosi,Villa de Ramos,MX
39.77918,-98.78507,Smith Center,Kansas,Smith County,US
39.77918,-98.78507,Smith Center,Kansas,Smith County,US
39.77918,-98.78507,Smith Center,Kansas,Smith County,US
39.77918,-98.78507,Smith Center,Kansas,Smith County,US
39.77918,-98.78507,Smith Center,Kansas,Smith County,US
39.77918,-98.78507,Smith Center,Kansas,Smith County,US
40.71427,-74.00597,New York City,New York,,US
20.75924,-156.45802,Kihei,Hawaii,Maui County,US
32.35265,-90.87788,Vicksburg,Mississippi,Warren County,US
46.94809,7.44744,Bern,Bern,Bern-Mittelland District,CH
32.72541,-97.32085,Fort Worth,Texas,Tarrant County,US
39.77918,-98.78507,Smith Center,Kansas,Smith County,US
39.77918,-98.78507,Smith Center,Kansas,Smith County,US
39.77918,-98.78507,Smith Center,Kansas,Smith County,US
39.77918,-98.78507,Smith Center,Kansas,Smith County,US
45.02395,-69.28977,Dexter,Maine,Penobscot County,US
39.77918,-98.78507,Smith Center,Kansas,Smith County,US
39.77918,-98.78507,Smith Center,Kansas,Smith County,US
39.77918,-98.78507,Smith Center,Kansas,Smith County,US
39.77918,-98.78507,Smith Center,Kansas,Smith County,US
39.77918,-98.78507,Smith Center,Kansas,Smith County,US
39.77918,-98.78507,Smith Center,Kansas,Smith County,US
39.77918,-98.78507,Smith Center,Kansas,Smith County,US
39.77918,-98.78507,Smith Center,Kansas,Smith County,US
39.77918,-98.78507,Smith Center,Kansas,Smith County,US
39.77918,-98.78507,Smith Center,Kansas,Smith County,US
39.77918,-98.78507,Smith Center,Kansas,Smith County,US
39.77918,-98.78507,Smith Center,Kansas,Smith County,US
39.77918,-98.78507,Smith Center,Kansas,Smith County,US
39.77918,-98.78507,Smith Center,Kansas,Smith County,US
37.77493,-122.41942,San Francisco,California,San Francisco County,US
37.77493,-122.41942,San Francisco,California,San Francisco County,US
37.77493,-122.41942,San Francisco,California,San Francisco County,US
16.99488,-96.47112,Santa Ana del Valle,Oaxaca,,MX
37.77493,-122.41942,San Francisco,California,San Francisco County,US
39.77918,-98.78507,Smith Center,Kansas,Smith County,US
37.77493,-122.41942,San Francisco,California,San Francisco County,US
39.77918,-98.78507,Smith Center,Kansas,Smith County,US
39.77918,-98.78507,Smith Center,Kansas,Smith County,US
39.77918,-98.78507,Smith Center,Kansas,Smith County,US
40.18261,-74.52932,Shrewsbury,New Jersey,Monmouth County,US
40.71427,-74.00597,New York City,New York,,US
40.71427,-74.00597,New York City,New York,,US
40.71427,-74.00597,New York City,New York,,US
40.71427,-74.00597,New York City,New York,,US
40.71427,-74.00597,New York City,New York,,US
40.71427,-74.00597,New York City,New York,,US
40.71427,-74.00597,New York City,New York,,US
39.77918,-98.78507,Smith Center,Kansas,Smith County,US
39.77918,-98.78507,Smith Center,Kansas,Smith County,US
39.77918,-98.78507,Smith Center,Kansas,Smith County,US
37.26217,-119.70098,Coarsegold,California,Madera County,US
39.77918,-98.78507,Smith Center,Kansas,Smith County,US
37.26217,-119.70098,Coarsegold,California,Madera County,US
39.77918,-98.78507,Smith Center,Kansas,Smith County,US
39.77918,-98.78507,Smith Center,Kansas,Smith County,US
40.71427,-74.00597,New York City,New York,,US
40.71427,-74.00597,New York City,New York,,US
40.71427,-74.00597,New York City,New York,,US
40.71427,-74.00597,New York City,New York,,US
40.71427,-74.00597,New York City,New York,,US
40.71427,-74.00597,New York City,New York,,US
40.78343,-73.96625,Manhattan,New York,New York County,US
46.08594,2.04479,Ahun,Limousin,Departement de la Creuse,FR
48.69406,9.16809,Leinfelden-Echterdingen,Baden-Wuerttemberg,Regierungsbezirk Stuttgart,DE
41.30815,-72.92816,New Haven,Connecticut,New Haven County,US
41.30815,-72.92816,New Haven,Connecticut,New Haven County,US
41.30815,-72.92816,New Haven,Connecticut,New Haven County,US
34.05223,-118.24368,Los Angeles,California,Los Angeles County,US
39.77918,-98.78507,Smith Center,Kansas,Smith County,US
39.77918,-98.78507,Smith Center,Kansas,Smith County,US
40.78593,-74.78016,Long Valley,New Jersey,Morris County,US
39.77918,-98.78507,Smith Center,Kansas,Smith County,US
39.77918,-98.78507,Smith Center,Kansas,Smith County,US
39.77918,-98.78507,Smith Center,Kansas,Smith County,US
39.77918,-98.78507,Smith Center,Kansas,Smith County,US
39.77918,-98.78507,Smith Center,Kansas,Smith County,US
39.77918,-98.78507,Smith Center,Kansas,Smith County,US
39.77918,-98.78507,Smith Center,Kansas,Smith County,US
39.77918,-98.78507,Smith Center,Kansas,Smith County,US
39.77918,-98.78507,Smith Center,Kansas,Smith County,US
39.77918,-98.78507,Smith Center,Kansas,Smith County,US
39.77918,-98.78507,Smith Center,Kansas,Smith County,US
39.77918,-98.78507,Smith Center,Kansas,Smith County,US
39.77918,-98.78507,Smith Center,Kansas,Smith County,US
39.77918,-98.78507,Smith Center,Kansas,Smith County,US
39.77918,-98.78507,Smith Center,Kansas,Smith County,US
39.77918,-98.78507,Smith Center,Kansas,Smith County,US
39.77918,-98.78507,Smith Center,Kansas,Smith County,US
39.77918,-98.78507,Smith Center,Kansas,Smith County,US
39.77918,-98.78507,Smith Center,Kansas,Smith County,US
39.77918,-98.78507,Smith Center,Kansas,Smith County,US
39.77918,-98.78507,Smith Center,Kansas,Smith County,US
39.77918,-98.78507,Smith Center,Kansas,Smith County,US
39.77918,-98.78507,Smith Center,Kansas,Smith County,US
39.77918,-98.78507,Smith Center,Kansas,Smith County,US
39.77918,-98.78507,Smith Center,Kansas,Smith County,US
39.77918,-98.78507,Smith Center,Kansas,Smith County,US
39.77918,-98.78507,Smith Center,Kansas,Smith County,US
39.77918,-98.78507,Smith Center,Kansas,Smith County,US
39.77918,-98.78507,Smith Center,Kansas,Smith County,US
39.77918,-98.78507,Smith Center,Kansas,Smith County,US
39.77918,-98.78507,Smith Center,Kansas,Smith County,US
39.77918,-98.78507,Smith Center,Kansas,Smith County,US
39.77918,-98.78507,Smith Center,Kansas,Smith County,US
39.77918,-98.78507,Smith Center,Kansas,Smith County,US
39.77918,-98.78507,Smith Center,Kansas,Smith County,US
39.77918,-98.78507,Smith Center,Kansas,Smith County,US
39.77918,-98.78507,Smith Center,Kansas,Smith County,US
40.71427,-74.00597,New York City,New York,,US
39.77918,-98.78507,Smith Center,Kansas,Smith County,US
39.77918,-98.78507,Smith Center,Kansas,Smith County,US
39.77918,-98.78507,Smith Center,Kansas,Smith County,US
40.71427,-74.00597,New York City,New York,,US
40.71427,-74.00597,New York City,New York,,US
40.71427,-74.00597,New York City,New York,,US
40.71427,-74.00597,New York City,New York,,US
40.71427,-74.00597,New York City,New York,,US
40.71427,-74.00597,New York City,New York,,US
40.71427,-74.00597,New York City,New York,,US
40.71427,-74.00597,New York City,New York,,US
40.71427,-74.00597,New York City,New York,,US
40.71427,-74.00597,New York City,New York,,US
39.77918,-98.78507,Smith Center,Kansas,Smith County,US
39.77918,-98.78507,Smith Center,Kansas,Smith County,US
40.71427,-74.00597,New York City,New York,,US
40.71427,-74.00597,New York City,New York,,US
40.71427,-74.00597,New York City,New York,,US
40.71427,-74.00597,New York City,New York,,US
39.77918,-98.78507,Smith Center,Kansas,Smith County,US
39.77918,-98.78507,Smith Center,Kansas,Smith County,US
39.77918,-98.78507,Smith Center,Kansas,Smith County,US
37.74075,-119.57788,Yosemite Valley,California,Mariposa County,US
39.77918,-98.78507,Smith Center,Kansas,Smith County,US
39.77918,-98.78507,Smith Center,Kansas,Smith County,US
39.77918,-98.78507,Smith Center,Kansas,Smith County,US
39.77918,-98.78507,Smith Center,Kansas,Smith County,US
39.77918,-98.78507,Smith Center,Kansas,Smith County,US
39.77918,-98.78507,Smith Center,Kansas,Smith County,US
39.77918,-98.78507,Smith Center,Kansas,Smith County,US
39.77918,-98.78507,Smith Center,Kansas,Smith County,US
39.77918,-98.78507,Smith Center,Kansas,Smith County,US
39.77918,-98.78507,Smith Center,Kansas,Smith County,US
39.77918,-98.78507,Smith Center,Kansas,Smith County,US
39.77918,-98.78507,Smith Center,Kansas,Smith County,US
39.77918,-98.78507,Smith Center,Kansas,Smith County,US
39.77918,-98.78507,Smith Center,Kansas,Smith County,US
39.77918,-98.78507,Smith Center,Kansas,Smith County,US
39.77918,-98.78507,Smith Center,Kansas,Smith County,US
39.77918,-98.78507,Smith Center,Kansas,Smith County,US
39.77918,-98.78507,Smith Center,Kansas,Smith County,US
39.77918,-98.78507,Smith Center,Kansas,Smith County,US
39.77918,-98.78507,Smith Center,Kansas,Smith County,US
39.77918,-98.78507,Smith Center,Kansas,Smith County,US
39.77918,-98.78507,Smith Center,Kansas,Smith County,US
39.77918,-98.78507,Smith Center,Kansas,Smith County,US
39.77918,-98.78507,Smith Center,Kansas,Smith County,US
39.77918,-98.78507,Smith Center,Kansas,Smith County,US
39.77918,-98.78507,Smith Center,Kansas,Smith County,US
39.77918,-98.78507,Smith Center,Kansas,Smith County,US
39.77918,-98.78507,Smith Center,Kansas,Smith County,US
35.09886,-120.61239,Oceano,California,San Luis Obispo County,US
37.26217,-119.70098,Coarsegold,California,Madera County,US
40.71427,-74.00597,New York City,New York,,US
39.77918,-98.78507,Smith Center,Kansas,Smith County,US
39.77918,-98.78507,Smith Center,Kansas,Smith County,US
39.77918,-98.78507,Smith Center,Kansas,Smith County,US
39.77918,-98.78507,Smith Center,Kansas,Smith County,US
39.77918,-98.78507,Smith Center,Kansas,Smith County,US
39.77918,-98.78507,Smith Center,Kansas,Smith County,US
39.77918,-98.78507,Smith Center,Kansas,Smith County,US
39.77918,-98.78507,Smith Center,Kansas,Smith County,US
39.77918,-98.78507,Smith Center,Kansas,Smith County,US
39.77918,-98.78507,Smith Center,Kansas,Smith County,US
39.77918,-98.78507,Smith Center,Kansas,Smith County,US
39.77918,-98.78507,Smith Center,Kansas,Smith County,US
41.85003,-87.65005,Chicago,Illinois,Cook County,US
39.77918,-98.78507,Smith Center,Kansas,Smith County,US
39.77918,-98.78507,Smith Center,Kansas,Smith County,US
41.82399,-71.41283,Providence,Rhode Island,Providence County,US
41.82399,-71.41283,Providence,Rhode Island,Providence County,US
48.69406,9.16809,Leinfelden-Echterdingen,Baden-Wuerttemberg,Regierungsbezirk Stuttgart,DE
48.69406,9.16809,Leinfelden-Echterdingen,Baden-Wuerttemberg,Regierungsbezirk Stuttgart,DE
41.30815,-72.92816,New Haven,Connecticut,New Haven County,US
34.05223,-118.24368,Los Angeles,California,Los Angeles County,US
41.30815,-72.92816,New Haven,Connecticut,New Haven County,US
39.77918,-98.78507,Smith Center,Kansas,Smith County,US
40.71427,-74.00597,New York City,New York,,US
39.77918,-98.78507,Smith Center,Kansas,Smith County,US
38.74666,-105.17831,Cripple Creek,Colorado,Teller County,US
45.47265,-0.15218,Barbezieux-Saint-Hilaire,Poitou-Charentes,Departement de la Charente,FR
45.47265,-0.15218,Barbezieux-Saint-Hilaire,Poitou-Charentes,Departement de la Charente,FR
45.47265,-0.15218,Barbezieux-Saint-Hilaire,Poitou-Charentes,Departement de la Charente,FR
39.77918,-98.78507,Smith Center,Kansas,Smith County,US
40.71427,-74.00597,New York City,New York,,US
40.70621,-73.30623,West Islip,New York,Suffolk County,US
40.71427,-74.00597,New York City,New York,,US
40.71427,-74.00597,New York City,New York,,US
40.70621,-73.30623,West Islip,New York,Suffolk County,US
40.70621,-73.30623,West Islip,New York,Suffolk County,US
39.77918,-98.78507,Smith Center,Kansas,Smith County,US
39.77918,-98.78507,Smith Center,Kansas,Smith County,US
39.77918,-98.78507,Smith Center,Kansas,Smith County,US
39.77918,-98.78507,Smith Center,Kansas,Smith County,US
40.71427,-74.00597,New York City,New York,,US
39.77918,-98.78507,Smith Center,Kansas,Smith County,US
39.77918,-98.78507,Smith Center,Kansas,Smith County,US
39.77918,-98.78507,Smith Center,Kansas,Smith County,US
48.85341,2.3488,Paris,Ile-de-France,Paris,FR
34.05223,-118.24368,Los Angeles,California,Los Angeles County,US
40.71427,-74.00597,New York City,New York,,US
40.70621,-73.30623,West Islip,New York,Suffolk County,US
39.77918,-98.78507,Smith Center,Kansas,Smith County,US
34.05223,-118.24368,Los Angeles,California,Los Angeles County,US
40.71427,-74.00597,New York City,New York,,US
39.77918,-98.78507,Smith Center,Kansas,Smith County,US
39.77918,-98.78507,Smith Center,Kansas,Smith County,US
41.89193,12.51133,Rome,Latium,Citta metropolitana di Roma Capitale,IT
40.71427,-74.00597,New York City,New York,,US
40.71427,-74.00597,New York City,New York,,US
40.71427,-74.00597,New York City,New York,,US
34.05223,-118.24368,Los Angeles,California,Los Angeles County,US
52.72258,7.9371,Essen,Lower Saxony,,DE
51.83864,12.24555,Dessau,Saxony-Anhalt,,DE
39.77918,-98.78507,Smith Center,Kansas,Smith County,US
40.71427,-74.00597,New York City,New York,,US
39.77918,-98.78507,Smith Center,Kansas,Smith County,US
34.05223,-118.24368,Los Angeles,California,Los Angeles County,US
39.77918,-98.78507,Smith Center,Kansas,Smith County,US
39.77918,-98.78507,Smith Center,Kansas,Smith County,US
34.05223,-118.24368,Los Angeles,California,Los Angeles County,US
26.49758,-82.07843,Saint James City,Florida,Lee County,US
40.71427,-74.00597,New York City,New York,,US
47.36667,8.55,Zurich,Zurich,Bezirk Zuerich,CH
39.77918,-98.78507,Smith Center,Kansas,Smith County,US
39.77918,-98.78507,Smith Center,Kansas,Smith County,US
39.77918,-98.78507,Smith Center,Kansas,Smith County,US
39.77918,-98.78507,Smith Center,Kansas,Smith County,US
39.77918,-98.78507,Smith Center,Kansas,Smith County,US
39.77918,-98.78507,Smith Center,Kansas,Smith County,US
39.77918,-98.78507,Smith Center,Kansas,Smith County,US
39.77918,-98.78507,Smith Center,Kansas,Smith County,US
39.77918,-98.78507,Smith Center,Kansas,Smith County,US
27.41254,-82.65899,Longboat Key,Florida,Manatee County,US
39.77918,-98.78507,Smith Center,Kansas,Smith County,US
35.08449,-106.65114,Albuquerque,New Mexico,Bernalillo County,US
41.47892,-87.45476,Schererville,Indiana,Lake County,US
41.85003,-87.65005,Chicago,Illinois,Cook County,US
41.84559,-87.75394,Cicero,Illinois,Cook County,US
41.47892,-87.45476,Schererville,Indiana,Lake County,US
40.71427,-74.00597,New York City,New York,,US
30.21742,-91.09621,Carville,Louisiana,Iberville Parish,US
22.26889,-101.00806,Estanzuela,San Luis Potosi,Mexquitic de Carmona,MX
41.45428,-70.60364,Vineyard Haven,Massachusetts,Dukes County,US
45.47265,-0.15218,Barbezieux-Saint-Hilaire,Poitou-Charentes,Departement de la Charente,FR
39.77918,-98.78507,Smith Center,Kansas,Smith County,US
38.25424,-85.75941,Louisville,Kentucky,Jefferson County,US
29.35218,-95.46022,Rosharon,Texas,Brazoria County,US
31.13517,-99.33506,Brady,Texas,McCulloch County,US
41.85003,-87.65005,Chicago,Illinois,Cook County,US
3.71161,-73.24344,San Carlos de Guaroa,Meta,,CO
3.71161,-73.24344,San Carlos de Guaroa,Meta,,CO
35.30004,-106.55114,Bernalillo,New Mexico,Sandoval County,US
40.86566,-73.9268,Inwood,New York,New York County,US
41.85003,-87.65005,Chicago,Illinois,Cook County,US
40.86566,-73.9268,Inwood,New York,New York County,US
51.47572,10.48104,Grossbodungen,Thuringia,,DE
42.33704,-71.20922,Newton,Massachusetts,Middlesex County,US
39.77918,-98.78507,Smith Center,Kansas,Smith County,US
39.77918,-98.78507,Smith Center,Kansas,Smith County,US
19.68782,-98.86208,Teotihuacan de Arista,Morelos,,MX
42.33143,-83.04575,Detroit,Michigan,Wayne County,US
40.78343,-73.96625,Manhattan,New York,New York County,US
40.78343,-73.96625,Manhattan,New York,New York County,US
40.78343,-73.96625,Manhattan,New York,New York County,US
40.78343,-73.96625,Manhattan,New York,New York County,US
40.78343,-73.96625,Manhattan,New York,New York County,US
40.78343,-73.96625,Manhattan,New York,New York County,US
40.78343,-73.96625,Manhattan,New York,New York County,US
40.78343,-73.96625,Manhattan,New York,New York County,US
40.78343,-73.96625,Manhattan,New York,New York County,US
17.65319,-99.52607,Zumpango del Rio,Guerrero,,MX
40.78343,-73.96625,Manhattan,New York,New York County,US
40.78343,-73.96625,Manhattan,New York,New York County,US
40.78343,-73.96625,Manhattan,New York,New York County,US
40.78343,-73.96625,Manhattan,New York,New York County,US
40.78343,-73.96625,Manhattan,New York,New York County,US
40.78343,-73.96625,Manhattan,New York,New York County,US
40.78343,-73.96625,Manhattan,New York,New York County,US
40.78343,-73.96625,Manhattan,New York,New York County,US
40.78343,-73.96625,Manhattan,New York,New York County,US
40.78343,-73.96625,Manhattan,New York,New York County,US
40.78343,-73.96625,Manhattan,New York,New York County,US
40.78343,-73.96625,Manhattan,New York,New York County,US
40.78343,-73.96625,Manhattan,New York,New York County,US
40.78343,-73.96625,Manhattan,New York,New York County,US
40.78343,-73.96625,Manhattan,New York,New York County,US
40.78343,-73.96625,Manhattan,New York,New York County,US
40.78343,-73.96625,Manhattan,New York,New York County,US
40.78343,-73.96625,Manhattan,New York,New York County,US
40.78343,-73.96625,Manhattan,New York,New York County,US
40.78343,-73.96625,Manhattan,New York,New York County,US
40.78343,-73.96625,Manhattan,New York,New York County,US
40.71427,-74.00597,New York City,New York,,US
36.35864,-105.60946,Ranchos de Taos,New Mexico,Taos County,US
48.92162,1.9779,Orgeval,Ile-de-France,Departement des Yvelines,FR
41.71427,-72.65259,Wethersfield,Connecticut,Hartford County,US
39.77918,-98.78507,Smith Center,Kansas,Smith County,US
40.71427,-74.00597,New York City,New York,,US
45.307,-69.03337,Brownville,Maine,Piscataquis County,US
36.40725,-105.57307,Taos,New Mexico,Taos County,US
40.71427,-74.00597,New York City,New York,,US
43.92507,-72.66594,Randolph,Vermont,Orange County,US
45.307,-69.03337,Brownville,Maine,Piscataquis County,US
39.77918,-98.78507,Smith Center,Kansas,Smith County,US
28.61222,-80.80755,Titusville,Florida,Brevard County,US
40.71427,-74.00597,New York City,New York,,US
30.26715,-97.74306,Austin,Texas,Travis County,US
32.72541,-97.32085,Fort Worth,Texas,Tarrant County,US
39.37221,-104.85609,Castle Rock,Colorado,Douglas County,US
40.71427,-74.00597,New York City,New York,,US
40.78343,-73.96625,Manhattan,New York,New York County,US
39.2683,-111.63686,Manti,Utah,Sanpete County,US
40.78343,-73.96625,Manhattan,New York,New York County,US
40.78343,-73.96625,Manhattan,New York,New York County,US
40.71427,-74.00597,New York City,New York,,US
40.71427,-74.00597,New York City,New York,,US
40.71427,-74.00597,New York City,New York,,US
40.71427,-74.00597,New York City,New York,,US
48.69406,9.16809,Leinfelden-Echterdingen,Baden-Wuerttemberg,Regierungsbezirk Stuttgart,DE
48.69406,9.16809,Leinfelden-Echterdingen,Baden-Wuerttemberg,Regierungsbezirk Stuttgart,DE
48.69406,9.16809,Leinfelden-Echterdingen,Baden-Wuerttemberg,Regierungsbezirk Stuttgart,DE
39.77918,-98.78507,Smith Center,Kansas,Smith County,US
40.62842,-76.38718,Tremont,Pennsylvania,Schuylkill County,US
39.77918,-98.78507,Smith Center,Kansas,Smith County,US
41.18454,-73.13317,Stratford,Connecticut,Fairfield County,US
36.58597,-79.39502,Danville,Virginia,City of Danville,US
18.75589,-97.86144,Dolores Hidalgo,Puebla,Huitziltepec,MX
36.58597,-79.39502,Danville,Virginia,City of Danville,US
39.75895,-84.19161,Dayton,Ohio,Montgomery County,US
18.75589,-97.86144,Dolores Hidalgo,Puebla,Huitziltepec,MX
40.62842,-76.38718,Tremont,Pennsylvania,Schuylkill County,US
40.62842,-76.38718,Tremont,Pennsylvania,Schuylkill County,US
39.77918,-98.78507,Smith Center,Kansas,Smith County,US
40.044,-75.38769,Wayne,Pennsylvania,Delaware County,US
39.77918,-98.78507,Smith Center,Kansas,Smith County,US
40.044,-75.38769,Wayne,Pennsylvania,Delaware County,US
39.77918,-98.78507,Smith Center,Kansas,Smith County,US
39.77918,-98.78507,Smith Center,Kansas,Smith County,US
39.77918,-98.78507,Smith Center,Kansas,Smith County,US
39.77918,-98.78507,Smith Center,Kansas,Smith County,US
39.77918,-98.78507,Smith Center,Kansas,Smith County,US
39.77918,-98.78507,Smith Center,Kansas,Smith County,US
39.77918,-98.78507,Smith Center,Kansas,Smith County,US
39.77918,-98.78507,Smith Center,Kansas,Smith County,US
39.77918,-98.78507,Smith Center,Kansas,Smith County,US
39.77918,-98.78507,Smith Center,Kansas,Smith County,US
40.71427,-74.00597,New York City,New York,,US
36.58597,-79.39502,Danville,Virginia,City of Danville,US
39.77918,-98.78507,Smith Center,Kansas,Smith County,US
48.85341,2.3488,Paris,Ile-de-France,Paris,FR
42.33143,-83.04575,Detroit,Michigan,Wayne County,US
40.71427,-74.00597,New York City,New York,,US
41.45428,-70.60364,Vineyard Haven,Massachusetts,Dukes County,US
39.77918,-98.78507,Smith Center,Kansas,Smith County,US
41.85003,-87.65005,Chicago,Illinois,Cook County,US
39.77918,-98.78507,Smith Center,Kansas,Smith County,US
38.20091,-84.87328,Frankfort,Kentucky,Franklin County,US
43.65757,-71.50035,Meredith,New Hampshire,Belknap County,US
39.77918,-98.78507,Smith Center,Kansas,Smith County,US
36.58597,-79.39502,Danville,Virginia,City of Danville,US
39.77918,-98.78507,Smith Center,Kansas,Smith County,US
39.77918,-98.78507,Smith Center,Kansas,Smith County,US
37.77493,-122.41942,San Francisco,California,San Francisco County,US
39.77918,-98.78507,Smith Center,Kansas,Smith County,US
39.77918,-98.78507,Smith Center,Kansas,Smith County,US
39.77918,-98.78507,Smith Center,Kansas,Smith County,US
36.58597,-79.39502,Danville,Virginia,City of Danville,US
51.50853,-0.12574,London,England,Greater London,GB
41.30815,-72.92816,New Haven,Connecticut,New Haven County,US
40.71427,-74.00597,New York City,New York,,US
40.71427,-74.00597,New York City,New York,,US
39.77918,-98.78507,Smith Center,Kansas,Smith County,US
39.77918,-98.78507,Smith Center,Kansas,Smith County,US
39.77918,-98.78507,Smith Center,Kansas,Smith County,US
39.77918,-98.78507,Smith Center,Kansas,Smith County,US
39.77918,-98.78507,Smith Center,Kansas,Smith County,US
40.71427,-74.00597,New York City,New York,,US
39.77918,-98.78507,Smith Center,Kansas,Smith County,US
39.77918,-98.78507,Smith Center,Kansas,Smith County,US
39.77918,-98.78507,Smith Center,Kansas,Smith County,US
39.77918,-98.78507,Smith Center,Kansas,Smith County,US
39.77918,-98.78507,Smith Center,Kansas,Smith County,US
39.77918,-98.78507,Smith Center,Kansas,Smith County,US
39.77918,-98.78507,Smith Center,Kansas,Smith County,US
39.77918,-98.78507,Smith Center,Kansas,Smith County,US
39.77918,-98.78507,Smith Center,Kansas,Smith County,US
39.77918,-98.78507,Smith Center,Kansas,Smith County,US
39.77918,-98.78507,Smith Center,Kansas,Smith County,US
22.96139,-102.05556,Los Zacatones,San Luis Potosi,Villa de Ramos,MX
39.77918,-98.78507,Smith Center,Kansas,Smith County,US
19.68782,-98.86208,Teotihuacan de Arista,Morelos,,MX
41.85003,-87.65005,Chicago,Illinois,Cook County,US
40.71427,-74.00597,New York City,New York,,US
29.88327,-97.94139,San Marcos,Texas,Hays County,US
36.66124,-80.92397,Galax,Virginia,City of Galax,US
32.78306,-96.80667,Dallas,Texas,Dallas County,US
40.71427,-74.00597,New York City,New York,,US
40.71427,-74.00597,New York City,New York,,US
32.78306,-96.80667,Dallas,Texas,Dallas County,US
39.77918,-98.78507,Smith Center,Kansas,Smith County,US
35.08449,-106.65114,Albuquerque,New Mexico,Bernalillo County,US
39.77918,-98.78507,Smith Center,Kansas,Smith County,US
37.26217,-119.70098,Coarsegold,California,Madera County,US
40.71427,-74.00597,New York City,New York,,US
39.77918,-98.78507,Smith Center,Kansas,Smith County,US
39.77918,-98.78507,Smith Center,Kansas,Smith County,US
32.84069,-83.6324,Macon,Georgia,Bibb County,US
39.77918,-98.78507,Smith Center,Kansas,Smith County,US
41.85003,-87.65005,Chicago,Illinois,Cook County,US
39.77918,-98.78507,Smith Center,Kansas,Smith County,US
39.5834,19.8827,Viros,Ionian Islands,Nomos Kerkyras,GR
41.29503,-89.03619,Deer Park,Illinois,LaSalle County,US
34.54002,-112.4685,Prescott,Arizona,Yavapai County,US
41.89193,12.51133,Rome,Latium,Citta metropolitana di Roma Capitale,IT
37.77493,-122.41942,San Francisco,California,San Francisco County,US
40.78343,-73.96625,Manhattan,New York,New York County,US
32.29876,-90.18481,Jackson,Mississippi,Hinds County,US
39.77918,-98.78507,Smith Center,Kansas,Smith County,US
15.39632,-90.56513,San Cristobal Verapaz,Alta Verapaz,,GT
39.77918,-98.78507,Smith Center,Kansas,Smith County,US
39.77918,-98.78507,Smith Center,Kansas,Smith County,US
39.77918,-98.78507,Smith Center,Kansas,Smith County,US
34.05223,-118.24368,Los Angeles,California,Los Angeles County,US
39.77918,-98.78507,Smith Center,Kansas,Smith County,US
39.77918,-98.78507,Smith Center,Kansas,Smith County,US
39.77918,-98.78507,Smith Center,Kansas,Smith County,US
39.77918,-98.78507,Smith Center,Kansas,Smith County,US
40.71427,-74.00597,New York City,New York,,US
39.77918,-98.78507,Smith Center,Kansas,Smith County,US
37.87159,-122.27275,Berkeley,California,Alameda County,US
37.87159,-122.27275,Berkeley,California,Alameda County,US
37.87159,-122.27275,Berkeley,California,Alameda County,US
37.87159,-122.27275,Berkeley,California,Alameda County,US
37.87159,-122.27275,Berkeley,California,Alameda County,US
37.87159,-122.27275,Berkeley,California,Alameda County,US
37.87159,-122.27275,Berkeley,California,Alameda County,US
37.87159,-122.27275,Berkeley,California,Alameda County,US
37.87159,-122.27275,Berkeley,California,Alameda County,US
37.87159,-122.27275,Berkeley,California,Alameda County,US
37.87159,-122.27275,Berkeley,California,Alameda County,US
39.77918,-98.78507,Smith Center,Kansas,Smith County,US
39.77918,-98.78507,Smith Center,Kansas,Smith County,US
20.03981,-90.22573,Tenabo,Campeche,,MX
18.75589,-97.86144,Dolores Hidalgo,Puebla,Huitziltepec,MX
40.71427,-74.00597,New York City,New York,,US
40.71427,-74.00597,New York City,New York,,US
37.77493,-122.41942,San Francisco,California,San Francisco County,US
40.71427,-74.00597,New York City,New York,,US
15.48333,-90.26667,San Pedro Carcha,Alta Verapaz,,GT
39.77918,-98.78507,Smith Center,Kansas,Smith County,US
40.71427,-74.00597,New York City,New York,,US
40.71427,-74.00597,New York City,New York,,US
40.71427,-74.00597,New York City,New York,,US
43.07951,-75.53934,Vernon,New York,Oneida County,US
39.77918,-98.78507,Smith Center,Kansas,Smith County,US
39.77918,-98.78507,Smith Center,Kansas,Smith County,US
34.58277,-117.40922,Adelanto,California,San Bernardino County,US
38.25424,-85.75941,Louisville,Kentucky,Jefferson County,US
29.35218,-95.46022,Rosharon,Texas,Brazoria County,US
30.94519,-95.3755,Trinity,Texas,Trinity County,US
41.85003,-87.65005,Chicago,Illinois,Cook County,US
3.71161,-73.24344,San Carlos de Guaroa,Meta,,CO
39.77918,-98.78507,Smith Center,Kansas,Smith County,US
40.71427,-74.00597,New York City,New York,,US
34.05223,-118.24368,Los Angeles,California,Los Angeles County,US
51.50853,-0.12574,London,England,Greater London,GB
34.05223,-118.24368,Los Angeles,California,Los Angeles County,US
39.77918,-98.78507,Smith Center,Kansas,Smith County,US
40.57788,-73.99403,Coney Island,New York,Kings County,US
40.78343,-73.96625,Manhattan,New York,New York County,US
40.71427,-74.00597,New York City,New York,,US
40.78343,-73.96625,Manhattan,New York,New York County,US
34.05223,-118.24368,Los Angeles,California,Los Angeles County,US
40.78343,-73.96625,Manhattan,New York,New York County,US
40.71427,-74.00597,New York City,New York,,US
40.71427,-74.00597,New York City,New York,,US
30.26715,-97.74306,Austin,Texas,Travis County,US
48.85341,2.3488,Paris,Ile-de-France,Paris,FR
40.71427,-74.00597,New York City,New York,,US
40.71427,-74.00597,New York City,New York,,US
39.77918,-98.78507,Smith Center,Kansas,Smith County,US
39.77918,-98.78507,Smith Center,Kansas,Smith County,US
40.71427,-74.00597,New York City,New York,,US
37.77493,-122.41942,San Francisco,California,San Francisco County,US
40.71427,-74.00597,New York City,New York,,US
34.05223,-118.24368,Los Angeles,California,Los Angeles County,US
40.71427,-74.00597,New York City,New York,,US
43.07951,-75.53934,Vernon,New York,Oneida County,US
40.71427,-74.00597,New York City,New York,,US
40.71427,-74.00597,New York City,New York,,US
41.89193,12.51133,Rome,Latium,Citta metropolitana di Roma Capitale,IT
3.71161,-73.24344,San Carlos de Guaroa,Meta,,CO
28.63528,-106.08889,Chihuahua,Chihuahua,Chihuahua,MX
41.85003,-87.65005,Chicago,Illinois,Cook County,US
44.3508,-89.8654,Port Edwards,Wisconsin,Wood County,US
41.47892,-87.45476,Schererville,Indiana,Lake County,US
41.85003,-87.65005,Chicago,Illinois,Cook County,US
41.84559,-87.75394,Cicero,Illinois,Cook County,US
41.47892,-87.45476,Schererville,Indiana,Lake County,US
37.46355,-122.42859,Half Moon Bay,California,San Mateo County,US
39.77918,-98.78507,Smith Center,Kansas,Smith County,US
39.77918,-98.78507,Smith Center,Kansas,Smith County,US
40.71427,-74.00597,New York City,New York,,US
39.77918,-98.78507,Smith Center,Kansas,Smith County,US
39.77918,-98.78507,Smith Center,Kansas,Smith County,US
39.77918,-98.78507,Smith Center,Kansas,Smith County,US
39.77918,-98.78507,Smith Center,Kansas,Smith County,US
39.77918,-98.78507,Smith Center,Kansas,Smith County,US
39.77918,-98.78507,Smith Center,Kansas,Smith County,US
39.77918,-98.78507,Smith Center,Kansas,Smith County,US
39.77918,-98.78507,Smith Center,Kansas,Smith County,US
39.77918,-98.78507,Smith Center,Kansas,Smith County,US
39.77918,-98.78507,Smith Center,Kansas,Smith County,US
39.77918,-98.78507,Smith Center,Kansas,Smith County,US
39.77918,-98.78507,Smith Center,Kansas,Smith County,US
39.77918,-98.78507,Smith Center,Kansas,Smith County,US
39.77918,-98.78507,Smith Center,Kansas,Smith County,US
39.77918,-98.78507,Smith Center,Kansas,Smith County,US
39.77918,-98.78507,Smith Center,Kansas,Smith County,US
39.77918,-98.78507,Smith Center,Kansas,Smith County,US
39.77918,-98.78507,Smith Center,Kansas,Smith County,US
39.77918,-98.78507,Smith Center,Kansas,Smith County,US
39.77918,-98.78507,Smith Center,Kansas,Smith County,US
39.77918,-98.78507,Smith Center,Kansas,Smith County,US
39.77918,-98.78507,Smith Center,Kansas,Smith County,US
39.77918,-98.78507,Smith Center,Kansas,Smith County,US
39.77918,-98.78507,Smith Center,Kansas,Smith County,US
39.77918,-98.78507,Smith Center,Kansas,Smith County,US
40.78343,-73.96625,Manhattan,New York,New York County,US
19.68972,-98.86083,Teotihuacan de Arista,Mexico,Teotihuacan,MX
19.32072,-96.71874,Apazapan,Veracruz,,MX
17.585,-99.95444,Izotepec,Guerrero,General Heliodoro Castillo,MX
19.68972,-98.86083,Teotihuacan de Arista,Mexico,Teotihuacan,MX
19.68972,-98.86083,Teotihuacan de Arista,Mexico,Teotihuacan,MX
18.45667,-95.40056,Tlapacoyan,Veracruz,Santiago Tuxtla,MX
18.45667,-95.40056,Tlapacoyan,Veracruz,Santiago Tuxtla,MX
18.45667,-95.40056,Tlapacoyan,Veracruz,Santiago Tuxtla,MX
18.45667,-95.40056,Tlapacoyan,Veracruz,Santiago Tuxtla,MX
17.585,-99.95444,Izotepec,Guerrero,General Heliodoro Castillo,MX
22.96139,-102.05556,Los Zacatones,San Luis Potosi,Villa de Ramos,MX
18.45667,-95.40056,Tlapacoyan,Veracruz,Santiago Tuxtla,MX
19.32072,-96.71874,Apazapan,Veracruz,,MX
16.99488,-96.47112,Santa Ana del Valle,Oaxaca,,MX
16.99488,-96.47112,Santa Ana del Valle,Oaxaca,,MX
16.99488,-96.47112,Santa Ana del Valle,Oaxaca,,MX
17.585,-99.95444,Izotepec,Guerrero,General Heliodoro Castillo,MX
17.585,-99.95444,Izotepec,Guerrero,General Heliodoro Castillo,MX
16.99488,-96.47112,Santa Ana del Valle,Oaxaca,,MX
18.75589,-97.86144,Dolores Hidalgo,Puebla,Huitziltepec,MX
16.99488,-96.47112,Santa Ana del Valle,Oaxaca,,MX
49.91684,-74.36586,Chibougamau,Quebec,Nord-du-Quebec,CA
49.91684,-74.36586,Chibougamau,Quebec,Nord-du-Quebec,CA
49.91684,-74.36586,Chibougamau,Quebec,Nord-du-Quebec,CA
18.75589,-97.86144,Dolores Hidalgo,Puebla,Huitziltepec,MX
40.78343,-73.96625,Manhattan,New York,New York County,US
39.77918,-98.78507,Smith Center,Kansas,Smith County,US
40.71427,-74.00597,New York City,New York,,US
39.77918,-98.78507,Smith Center,Kansas,Smith County,US
39.77918,-98.78507,Smith Center,Kansas,Smith County,US
40.71427,-74.00597,New York City,New York,,US
47.36667,8.55,Zurich,Zurich,Bezirk Zuerich,CH
39.77918,-98.78507,Smith Center,Kansas,Smith County,US
40.71427,-74.00597,New York City,New York,,US
40.71427,-74.00597,New York City,New York,,US
19.32072,-96.71874,Apazapan,Veracruz,,MX
22.96139,-102.05556,Los Zacatones,San Luis Potosi,Villa de Ramos,MX
39.77918,-98.78507,Smith Center,Kansas,Smith County,US
49.91684,-74.36586,Chibougamau,Quebec,Nord-du-Quebec,CA
49.91684,-74.36586,Chibougamau,Quebec,Nord-du-Quebec,CA
49.91684,-74.36586,Chibougamau,Quebec,Nord-du-Quebec,CA
49.91684,-74.36586,Chibougamau,Quebec,Nord-du-Quebec,CA
49.91684,-74.36586,Chibougamau,Quebec,Nord-du-Quebec,CA
49.91684,-74.36586,Chibougamau,Quebec,Nord-du-Quebec,CA
49.91684,-74.36586,Chibougamau,Quebec,Nord-du-Quebec,CA
49.91684,-74.36586,Chibougamau,Quebec,Nord-du-Quebec,CA
49.91684,-74.36586,Chibougamau,Quebec,Nord-du-Quebec,CA
49.91684,-74.36586,Chibougamau,Quebec,Nord-du-Quebec,CA
49.91684,-74.36586,Chibougamau,Quebec,Nord-du-Quebec,CA
49.91684,-74.36586,Chibougamau,Quebec,Nord-du-Quebec,CA
49.91684,-74.36586,Chibougamau,Quebec,Nord-du-Quebec,CA
49.91684,-74.36586,Chibougamau,Quebec,Nord-du-Quebec,CA
16.8,-89.93333,San Francisco,Peten,Municipio de San Francisco,GT
22.96139,-102.05556,Los Zacatones,San Luis Potosi,Villa de Ramos,MX
18.75589,-97.86144,Dolores Hidalgo,Puebla,Huitziltepec,MX
19.15361,-90.50556,Maya Tecun I,Campeche,Champoton,MX
21.86286,-102.91105,Tabasco,Zacatecas,,MX
16.99488,-96.47112,Santa Ana del Valle,Oaxaca,,MX
20.54644,-90.16365,Santa Maria Acu,Yucatan,Halacho,MX
21.86286,-102.91105,Tabasco,Zacatecas,,MX
21.86286,-102.91105,Tabasco,Zacatecas,,MX
20.26806,-103.66472,Barranca de Otates (Barranca de Otatan),Jalisco,Zacoalco de Torres,MX
20.03981,-90.22573,Tenabo,Campeche,,MX
16.99488,-96.47112,Santa Ana del Valle,Oaxaca,,MX
20.26806,-103.66472,Barranca de Otates (Barranca de Otatan),Jalisco,Zacoalco de Torres,MX
20.26806,-103.66472,Barranca de Otates (Barranca de Otatan),Jalisco,Zacoalco de Torres,MX
19.68782,-98.86208,Teotihuacan de Arista,Morelos,,MX
20.26806,-103.66472,Barranca de Otates (Barranca de Otatan),Jalisco,Zacoalco de Torres,MX
20.26806,-103.66472,Barranca de Otates (Barranca de Otatan),Jalisco,Zacoalco de Torres,MX
20.26806,-103.66472,Barranca de Otates (Barranca de Otatan),Jalisco,Zacoalco de Torres,MX
20.03981,-90.22573,Tenabo,Campeche,,MX
20.03981,-90.22573,Tenabo,Campeche,,MX
19.76822,-104.36664,Autlan de Navarro,Jalisco,,MX
20.03981,-90.22573,Tenabo,Campeche,,MX
17.50953,-91.98248,Palenque,Chiapas,,MX
20.03981,-90.22573,Tenabo,Campeche,,MX
19.32072,-96.71874,Apazapan,Veracruz,,MX
19.32072,-96.71874,Apazapan,Veracruz,,MX
16.99488,-96.47112,Santa Ana del Valle,Oaxaca,,MX
17.585,-99.95444,Izotepec,Guerrero,General Heliodoro Castillo,MX
19.32072,-96.71874,Apazapan,Veracruz,,MX
17.585,-99.95444,Izotepec,Guerrero,General Heliodoro Castillo,MX
15.48333,-90.26667,San Pedro Carcha,Alta Verapaz,,GT
15.48333,-90.26667,San Pedro Carcha,Alta Verapaz,,GT
22.96139,-102.05556,Los Zacatones,San Luis Potosi,Villa de Ramos,MX
19.32072,-96.71874,Apazapan,Veracruz,,MX
19.16602,-101.86816,Nuevo Urecho,Michoacan,Nuevo Urecho,MX
19.1483,-99.64405,Zaragoza de Guadalupe,Morelos,,MX
18.75589,-97.86144,Dolores Hidalgo,Puebla,Huitziltepec,MX
20.03981,-90.22573,Tenabo,Campeche,,MX
40.34872,-74.65905,Princeton,New Jersey,Mercer County,US
17.93333,-94.08333,Las Choapas,Veracruz,,MX
22.96139,-102.05556,Los Zacatones,San Luis Potosi,Villa de Ramos,MX
17.9324,-99.60257,Mezcala,Guerrero,,MX
25.25857,-99.68371,General Teran,Nuevo Leon,,MX
22.96139,-102.05556,Los Zacatones,San Luis Potosi,Villa de Ramos,MX
13.98667,-89.68111,Chalchuapa,Santa Ana,,SV
16.98333,-89.9,San Jose,Peten,Municipio de San Jose,GT
19.48698,-99.18594,Azcapotzalco,Mexico City,,MX
21.03907,-104.37116,Ixtlan del Rio,Nayarit,,MX
16.98333,-89.9,San Jose,Peten,Municipio de San Jose,GT
19.09425,-96.33351,Manlio Fabio Altamirano,Veracruz,,MX
20.03981,-90.22573,Tenabo,Campeche,,MX
21.03907,-104.37116,Ixtlan del Rio,Nayarit,,MX
14.83333,-89.15,Copan,Copan,,HN
15.88333,-87.85,Baja Mar,Cortes,,HN
13.78333,-88.91667,San Martin,Cuscatlan,,SV
16.99488,-96.47112,Santa Ana del Valle,Oaxaca,,MX
22.96139,-102.05556,Los Zacatones,San Luis Potosi,Villa de Ramos,MX
25.25857,-99.68371,General Teran,Nuevo Leon,,MX
25.25857,-99.68371,General Teran,Nuevo Leon,,MX
19.48698,-99.18594,Azcapotzalco,Mexico City,,MX
25.25857,-99.68371,General Teran,Nuevo Leon,,MX
19.32072,-96.71874,Apazapan,Veracruz,,MX
17.9324,-99.60257,Mezcala,Guerrero,,MX
40.34872,-74.65905,Princeton,New Jersey,Mercer County,US
20.03981,-90.22573,Tenabo,Campeche,,MX
17.9324,-99.60257,Mezcala,Guerrero,,MX
17.585,-99.95444,Izotepec,Guerrero,General Heliodoro Castillo,MX
19.32072,-96.71874,Apazapan,Veracruz,,MX
17.06606,-89.15229,Melchor de Mencos,Peten,,GT
19.32072,-96.71874,Apazapan,Veracruz,,MX
16.99488,-96.47112,Santa Ana del Valle,Oaxaca,,MX
20.03981,-90.22573,Tenabo,Campeche,,MX
15.88333,-87.85,Baja Mar,Cortes,,HN
25.25857,-99.68371,General Teran,Nuevo Leon,,MX
16.98333,-89.9,San Jose,Peten,Municipio de San Jose,GT
14.28356,-91.36063,Tiquisate,Escuintla,Municipio de Tiquisate,GT
15.88333,-87.85,Baja Mar,Cortes,,HN
16.98333,-89.9,San Jose,Peten,Municipio de San Jose,GT
20.03981,-90.22573,Tenabo,Campeche,,MX
20.54644,-90.16365,Santa Maria Acu,Yucatan,Halacho,MX
20.26806,-103.66472,Barranca de Otates (Barranca de Otatan),Jalisco,Zacoalco de Torres,MX
19.32072,-96.71874,Apazapan,Veracruz,,MX
19.16722,-103.93111,Pueblo Juarez (La Magdalena),Colima,Coquimatlan,MX
18.75589,-97.86144,Dolores Hidalgo,Puebla,Huitziltepec,MX
15.48333,-90.26667,San Pedro Carcha,Alta Verapaz,,GT
18.75589,-97.86144,Dolores Hidalgo,Puebla,Huitziltepec,MX
20.26806,-103.66472,Barranca de Otates (Barranca de Otatan),Jalisco,Zacoalco de Torres,MX
15.48333,-90.26667,San Pedro Carcha,Alta Verapaz,,GT
17.585,-99.95444,Izotepec,Guerrero,General Heliodoro Castillo,MX
20.03981,-90.22573,Tenabo,Campeche,,MX
16.98333,-89.9,San Jose,Peten,Municipio de San Jose,GT
39.77918,-98.78507,Smith Center,Kansas,Smith County,US
17.585,-99.95444,Izotepec,Guerrero,General Heliodoro Castillo,MX
39.77918,-98.78507,Smith Center,Kansas,Smith County,US
19.68782,-98.86208,Teotihuacan de Arista,Morelos,,MX
39.77918,-98.78507,Smith Center,Kansas,Smith County,US
39.77918,-98.78507,Smith Center,Kansas,Smith County,US
39.77918,-98.78507,Smith Center,Kansas,Smith County,US
15.48333,-90.26667,San Pedro Carcha,Alta Verapaz,,GT
17.97066,-102.22124,Ciudad Lazaro Cardenas,Michoacan,,MX
17.585,-99.95444,Izotepec,Guerrero,General Heliodoro Castillo,MX
16.8,-89.93333,San Francisco,Peten,Municipio de San Francisco,GT
16.98333,-89.9,San Jose,Peten,Municipio de San Jose,GT
39.77918,-98.78507,Smith Center,Kansas,Smith County,US
19.32072,-96.71874,Apazapan,Veracruz,,MX
18.75589,-97.86144,Dolores Hidalgo,Puebla,Huitziltepec,MX
17.585,-99.95444,Izotepec,Guerrero,General Heliodoro Castillo,MX
16.8,-89.93333,San Francisco,Peten,Municipio de San Francisco,GT
17.9324,-99.60257,Mezcala,Guerrero,,MX
19.32764,-103.76054,Comala,Colima,,MX
15.48333,-90.26667,San Pedro Carcha,Alta Verapaz,,GT
18.75589,-97.86144,Dolores Hidalgo,Puebla,Huitziltepec,MX
18.75589,-97.86144,Dolores Hidalgo,Puebla,Huitziltepec,MX
17.9324,-99.60257,Mezcala,Guerrero,,MX
15.48333,-90.26667,San Pedro Carcha,Alta Verapaz,,GT
17.9324,-99.60257,Mezcala,Guerrero,,MX
18.75589,-97.86144,Dolores Hidalgo,Puebla,Huitziltepec,MX
25.25857,-99.68371,General Teran,Nuevo Leon,,MX
22.96139,-102.05556,Los Zacatones,San Luis Potosi,Villa de Ramos,MX
16.99488,-96.47112,Santa Ana del Valle,Oaxaca,,MX
17.585,-99.95444,Izotepec,Guerrero,General Heliodoro Castillo,MX
18.75589,-97.86144,Dolores Hidalgo,Puebla,Huitziltepec,MX
22.96139,-102.05556,Los Zacatones,San Luis Potosi,Villa de Ramos,MX
25.25857,-99.68371,General Teran,Nuevo Leon,,MX
17.585,-99.95444,Izotepec,Guerrero,General Heliodoro Castillo,MX
22.96139,-102.05556,Los Zacatones,San Luis Potosi,Villa de Ramos,MX
17.585,-99.95444,Izotepec,Guerrero,General Heliodoro Castillo,MX
17.585,-99.95444,Izotepec,Guerrero,General Heliodoro Castillo,MX
19.42847,-99.12766,Mexico City,Mexico City,,MX
20.03981,-90.22573,Tenabo,Campeche,,MX
17.93333,-94.08333,Las Choapas,Veracruz,,MX
19.32072,-96.71874,Apazapan,Veracruz,,MX
17.585,-99.95444,Izotepec,Guerrero,General Heliodoro Castillo,MX
19.32072,-96.71874,Apazapan,Veracruz,,MX
17.9324,-99.60257,Mezcala,Guerrero,,MX
22.96139,-102.05556,Los Zacatones,San Luis Potosi,Villa de Ramos,MX
-10.06667,-75.53333,Pozuzo,Pasco,Provincia de Oxapampa,PE
18.75589,-97.86144,Dolores Hidalgo,Puebla,Huitziltepec,MX
16.8,-89.93333,San Francisco,Peten,Municipio de San Francisco,GT
16.8,-89.93333,San Francisco,Peten,Municipio de San Francisco,GT
17.585,-99.95444,Izotepec,Guerrero,General Heliodoro Castillo,MX
16.8,-89.93333,San Francisco,Peten,Municipio de San Francisco,GT
16.8,-89.93333,San Francisco,Peten,Municipio de San Francisco,GT
18.48667,-95.41333,Arroyo San Isidro,Veracruz,Santiago Tuxtla,MX
22.96139,-102.05556,Los Zacatones,San Luis Potosi,Villa de Ramos,MX
22.96139,-102.05556,Los Zacatones,San Luis Potosi,Villa de Ramos,MX
18.75589,-97.86144,Dolores Hidalgo,Puebla,Huitziltepec,MX
18.75589,-97.86144,Dolores Hidalgo,Puebla,Huitziltepec,MX
18.75589,-97.86144,Dolores Hidalgo,Puebla,Huitziltepec,MX
19.48698,-99.18594,Azcapotzalco,Mexico City,,MX
18.75589,-97.86144,Dolores Hidalgo,Puebla,Huitziltepec,MX
18.75589,-97.86144,Dolores Hidalgo,Puebla,Huitziltepec,MX
17.585,-99.95444,Izotepec,Guerrero,General Heliodoro Castillo,MX
18.75589,-97.86144,Dolores Hidalgo,Puebla,Huitziltepec,MX
18.75589,-97.86144,Dolores Hidalgo,Puebla,Huitziltepec,MX
40.01088,-89.28231,Mount Pulaski,Illinois,Logan County,US
18.75589,-97.86144,Dolores Hidalgo,Puebla,Huitziltepec,MX
39.77918,-98.78507,Smith Center,Kansas,Smith County,US
16.8,-89.93333,San Francisco,Peten,Municipio de San Francisco,GT
18.86564,-99.89452,Almoloya de Alquisiras,Mexico,,MX
18.86564,-99.89452,Almoloya de Alquisiras,Mexico,,MX
18.75589,-97.86144,Dolores Hidalgo,Puebla,Huitziltepec,MX
18.75589,-97.86144,Dolores Hidalgo,Puebla,Huitziltepec,MX
18.86564,-99.89452,Almoloya de Alquisiras,Mexico,,MX
18.86564,-99.89452,Almoloya de Alquisiras,Mexico,,MX
18.86564,-99.89452,Almoloya de Alquisiras,Mexico,,MX
18.86564,-99.89452,Almoloya de Alquisiras,Mexico,,MX
18.86564,-99.89452,Almoloya de Alquisiras,Mexico,,MX
18.86564,-99.89452,Almoloya de Alquisiras,Mexico,,MX
18.86564,-99.89452,Almoloya de Alquisiras,Mexico,,MX
18.86564,-99.89452,Almoloya de Alquisiras,Mexico,,MX
18.86564,-99.89452,Almoloya de Alquisiras,Mexico,,MX
18.86564,-99.89452,Almoloya de Alquisiras,Mexico,,MX
18.86564,-99.89452,Almoloya de Alquisiras,Mexico,,MX
18.86564,-99.89452,Almoloya de Alquisiras,Mexico,,MX
18.86564,-99.89452,Almoloya de Alquisiras,Mexico,,MX
18.86564,-99.89452,Almoloya de Alquisiras,Mexico,,MX
40.71427,-74.00597,New York City,New York,,US
18.86564,-99.89452,Almoloya de Alquisiras,Mexico,,MX
18.86564,-99.89452,Almoloya de Alquisiras,Mexico,,MX
18.86564,-99.89452,Almoloya de Alquisiras,Mexico,,MX
18.86564,-99.89452,Almoloya de Alquisiras,Mexico,,MX
18.86564,-99.89452,Almoloya de Alquisiras,Mexico,,MX
18.86564,-99.89452,Almoloya de Alquisiras,Mexico,,MX
18.86564,-99.89452,Almoloya de Alquisiras,Mexico,,MX
18.86564,-99.89452,Almoloya de Alquisiras,Mexico,,MX
18.86564,-99.89452,Almoloya de Alquisiras,Mexico,,MX
18.86564,-99.89452,Almoloya de Alquisiras,Mexico,,MX
18.86564,-99.89452,Almoloya de Alquisiras,Mexico,,MX
18.86564,-99.89452,Almoloya de Alquisiras,Mexico,,MX
17.585,-99.95444,Izotepec,Guerrero,General Heliodoro Castillo,MX
39.77918,-98.78507,Smith Center,Kansas,Smith County,US
34.05223,-118.24368,Los Angeles,California,Los Angeles County,US
41.20426,-73.72708,Mount Kisco,New York,Westchester County,US
40.71427,-74.00597,New York City,New York,,US
33.98029,-118.45174,Marina del Rey,California,Los Angeles County,US
40.71427,-74.00597,New York City,New York,,US
34.05223,-118.24368,Los Angeles,California,Los Angeles County,US
40.71427,-74.00597,New York City,New York,,US
14.23083,-90.94722,La Democracia,Escuintla,Municipio de La Democracia,GT
39.77918,-98.78507,Smith Center,Kansas,Smith County,US
40.71427,-74.00597,New York City,New York,,US
39.77918,-98.78507,Smith Center,Kansas,Smith County,US
40.71427,-74.00597,New York City,New York,,US
18.75589,-97.86144,Dolores Hidalgo,Puebla,Huitziltepec,MX
17.585,-99.95444,Izotepec,Guerrero,General Heliodoro Castillo,MX
17.585,-99.95444,Izotepec,Guerrero,General Heliodoro Castillo,MX
18.75589,-97.86144,Dolores Hidalgo,Puebla,Huitziltepec,MX
19.68782,-98.86208,Teotihuacan de Arista,Morelos,,MX
63.85694,-148.96611,Healy,Alaska,Denali Borough,US
63.85694,-148.96611,Healy,Alaska,Denali Borough,US
14.28356,-91.36063,Tiquisate,Escuintla,Municipio de Tiquisate,GT
63.85694,-148.96611,Healy,Alaska,Denali Borough,US
34.38447,-111.45514,Pine,Arizona,Gila County,US
63.85694,-148.96611,Healy,Alaska,Denali Borough,US
22.96139,-102.05556,Los Zacatones,San Luis Potosi,Villa de Ramos,MX
65.58604,-171.02082,Lavrentiya,Chukotskiy Avtonomnyy Okrug,,RU
63.85694,-148.96611,Healy,Alaska,Denali Borough,US
43.04558,-85.60059,Northview,Michigan,Kent County,US
63.85694,-148.96611,Healy,Alaska,Denali Borough,US
63.85694,-148.96611,Healy,Alaska,Denali Borough,US
63.85694,-148.96611,Healy,Alaska,Denali Borough,US
38.42755,-89.91371,Freeburg,Illinois,Saint Clair County,US
40.01088,-89.28231,Mount Pulaski,Illinois,Logan County,US
63.85694,-148.96611,Healy,Alaska,Denali Borough,US
63.85694,-148.96611,Healy,Alaska,Denali Borough,US
39.84031,-88.9548,Decatur,Illinois,Macon County,US
40.01088,-89.28231,Mount Pulaski,Illinois,Logan County,US
39.60783,-90.80513,Pittsfield,Illinois,Pike County,US
39.60783,-90.80513,Pittsfield,Illinois,Pike County,US
34.62898,-92.55822,Salem,Arkansas,Saline County,US
40.49282,-90.19068,Cuba,Illinois,Fulton County,US
38.42755,-89.91371,Freeburg,Illinois,Saint Clair County,US
34.62898,-92.55822,Salem,Arkansas,Saline County,US
25.25857,-99.68371,General Teran,Nuevo Leon,,MX
18.75589,-97.86144,Dolores Hidalgo,Puebla,Huitziltepec,MX
19.32072,-96.71874,Apazapan,Veracruz,,MX
18.86564,-99.89452,Almoloya de Alquisiras,Mexico,,MX
20.03981,-90.22573,Tenabo,Campeche,,MX
63.85694,-148.96611,Healy,Alaska,Denali Borough,US
63.85694,-148.96611,Healy,Alaska,Denali Borough,US
63.85694,-148.96611,Healy,Alaska,Denali Borough,US
63.85694,-148.96611,Healy,Alaska,Denali Borough,US
63.85694,-148.96611,Healy,Alaska,Denali Borough,US
63.85694,-148.96611,Healy,Alaska,Denali Borough,US
63.85694,-148.96611,Healy,Alaska,Denali Borough,US
63.85694,-148.96611,Healy,Alaska,Denali Borough,US
63.85694,-148.96611,Healy,Alaska,Denali Borough,US
65.58604,-171.02082,Lavrentiya,Chukotskiy Avtonomnyy Okrug,,RU
63.85694,-148.96611,Healy,Alaska,Denali Borough,US
63.85694,-148.96611,Healy,Alaska,Denali Borough,US
63.85694,-148.96611,Healy,Alaska,Denali Borough,US
63.85694,-148.96611,Healy,Alaska,Denali Borough,US
63.85694,-148.96611,Healy,Alaska,Denali Borough,US
65.50331,-171.70396,Lorino,Chukotskiy Avtonomnyy Okrug,,RU
63.85694,-148.96611,Healy,Alaska,Denali Borough,US
63.85694,-148.96611,Healy,Alaska,Denali Borough,US
63.85694,-148.96611,Healy,Alaska,Denali Borough,US
63.85694,-148.96611,Healy,Alaska,Denali Borough,US
34.38447,-111.45514,Pine,Arizona,Gila County,US
63.85694,-148.96611,Healy,Alaska,Denali Borough,US
63.85694,-148.96611,Healy,Alaska,Denali Borough,US
63.85694,-148.96611,Healy,Alaska,Denali Borough,US
63.85694,-148.96611,Healy,Alaska,Denali Borough,US
17.65319,-99.52607,Zumpango del Rio,Guerrero,,MX
63.85694,-148.96611,Healy,Alaska,Denali Borough,US
63.85694,-148.96611,Healy,Alaska,Denali Borough,US
63.85694,-148.96611,Healy,Alaska,Denali Borough,US
63.85694,-148.96611,Healy,Alaska,Denali Borough,US
63.85694,-148.96611,Healy,Alaska,Denali Borough,US
63.85694,-148.96611,Healy,Alaska,Denali Borough,US
63.85694,-148.96611,Healy,Alaska,Denali Borough,US
63.85694,-148.96611,Healy,Alaska,Denali Borough,US
63.85694,-148.96611,Healy,Alaska,Denali Borough,US
63.85694,-148.96611,Healy,Alaska,Denali Borough,US
63.85694,-148.96611,Healy,Alaska,Denali Borough,US
61.53111,-166.09667,Hooper Bay,Alaska,Wade Hampton Census Area,US
63.85694,-148.96611,Healy,Alaska,Denali Borough,US
63.85694,-148.96611,Healy,Alaska,Denali Borough,US
63.85694,-148.96611,Healy,Alaska,Denali Borough,US
63.85694,-148.96611,Healy,Alaska,Denali Borough,US
63.85694,-148.96611,Healy,Alaska,Denali Borough,US
63.85694,-148.96611,Healy,Alaska,Denali Borough,US
63.85694,-148.96611,Healy,Alaska,Denali Borough,US
63.85694,-148.96611,Healy,Alaska,Denali Borough,US
63.85694,-148.96611,Healy,Alaska,Denali Borough,US
63.85694,-148.96611,Healy,Alaska,Denali Borough,US
63.85694,-148.96611,Healy,Alaska,Denali Borough,US
63.85694,-148.96611,Healy,Alaska,Denali Borough,US
63.85694,-148.96611,Healy,Alaska,Denali Borough,US
63.85694,-148.96611,Healy,Alaska,Denali Borough,US
63.85694,-148.96611,Healy,Alaska,Denali Borough,US
63.85694,-148.96611,Healy,Alaska,Denali Borough,US
63.85694,-148.96611,Healy,Alaska,Denali Borough,US
63.85694,-148.96611,Healy,Alaska,Denali Borough,US
63.85694,-148.96611,Healy,Alaska,Denali Borough,US
63.85694,-148.96611,Healy,Alaska,Denali Borough,US
63.85694,-148.96611,Healy,Alaska,Denali Borough,US
63.85694,-148.96611,Healy,Alaska,Denali Borough,US
63.85694,-148.96611,Healy,Alaska,Denali Borough,US
63.85694,-148.96611,Healy,Alaska,Denali Borough,US
63.85694,-148.96611,Healy,Alaska,Denali Borough,US
63.85694,-148.96611,Healy,Alaska,Denali Borough,US
63.85694,-148.96611,Healy,Alaska,Denali Borough,US
63.85694,-148.96611,Healy,Alaska,Denali Borough,US
63.85694,-148.96611,Healy,Alaska,Denali Borough,US
63.85694,-148.96611,Healy,Alaska,Denali Borough,US
63.85694,-148.96611,Healy,Alaska,Denali Borough,US
65.58604,-171.02082,Lavrentiya,Chukotskiy Avtonomnyy Okrug,,RU
63.85694,-148.96611,Healy,Alaska,Denali Borough,US
34.38447,-111.45514,Pine,Arizona,Gila County,US
63.85694,-148.96611,Healy,Alaska,Denali Borough,US
63.85694,-148.96611,Healy,Alaska,Denali Borough,US
63.85694,-148.96611,Healy,Alaska,Denali Borough,US
63.85694,-148.96611,Healy,Alaska,Denali Borough,US
63.85694,-148.96611,Healy,Alaska,Denali Borough,US
65.58604,-171.02082,Lavrentiya,Chukotskiy Avtonomnyy Okrug,,RU
63.85694,-148.96611,Healy,Alaska,Denali Borough,US
63.85694,-148.96611,Healy,Alaska,Denali Borough,US
63.85694,-148.96611,Healy,Alaska,Denali Borough,US
63.85694,-148.96611,Healy,Alaska,Denali Borough,US
63.85694,-148.96611,Healy,Alaska,Denali Borough,US
63.85694,-148.96611,Healy,Alaska,Denali Borough,US
63.85694,-148.96611,Healy,Alaska,Denali Borough,US
63.85694,-148.96611,Healy,Alaska,Denali Borough,US
63.85694,-148.96611,Healy,Alaska,Denali Borough,US
63.85694,-148.96611,Healy,Alaska,Denali Borough,US
63.85694,-148.96611,Healy,Alaska,Denali Borough,US
63.85694,-148.96611,Healy,Alaska,Denali Borough,US
63.85694,-148.96611,Healy,Alaska,Denali Borough,US
63.85694,-148.96611,Healy,Alaska,Denali Borough,US
63.85694,-148.96611,Healy,Alaska,Denali Borough,US
63.85694,-148.96611,Healy,Alaska,Denali Borough,US
63.85694,-148.96611,Healy,Alaska,Denali Borough,US
63.85694,-148.96611,Healy,Alaska,Denali Borough,US
63.85694,-148.96611,Healy,Alaska,Denali Borough,US
63.85694,-148.96611,Healy,Alaska,Denali Borough,US
63.85694,-148.96611,Healy,Alaska,Denali Borough,US
63.85694,-148.96611,Healy,Alaska,Denali Borough,US
63.85694,-148.96611,Healy,Alaska,Denali Borough,US
63.85694,-148.96611,Healy,Alaska,Denali Borough,US
63.85694,-148.96611,Healy,Alaska,Denali Borough,US
63.85694,-148.96611,Healy,Alaska,Denali Borough,US
63.85694,-148.96611,Healy,Alaska,Denali Borough,US
63.85694,-148.96611,Healy,Alaska,Denali Borough,US
63.85694,-148.96611,Healy,Alaska,Denali Borough,US
63.85694,-148.96611,Healy,Alaska,Denali Borough,US
63.85694,-148.96611,Healy,Alaska,Denali Borough,US
63.85694,-148.96611,Healy,Alaska,Denali Borough,US
63.85694,-148.96611,Healy,Alaska,Denali Borough,US
63.85694,-148.96611,Healy,Alaska,Denali Borough,US
63.85694,-148.96611,Healy,Alaska,Denali Borough,US
63.85694,-148.96611,Healy,Alaska,Denali Borough,US
63.85694,-148.96611,Healy,Alaska,Denali Borough,US
63.85694,-148.96611,Healy,Alaska,Denali Borough,US
63.85694,-148.96611,Healy,Alaska,Denali Borough,US
63.85694,-148.96611,Healy,Alaska,Denali Borough,US
63.85694,-148.96611,Healy,Alaska,Denali Borough,US
63.85694,-148.96611,Healy,Alaska,Denali Borough,US
63.85694,-148.96611,Healy,Alaska,Denali Borough,US
63.85694,-148.96611,Healy,Alaska,Denali Borough,US
63.85694,-148.96611,Healy,Alaska,Denali Borough,US
63.85694,-148.96611,Healy,Alaska,Denali Borough,US
63.85694,-148.96611,Healy,Alaska,Denali Borough,US
63.85694,-148.96611,Healy,Alaska,Denali Borough,US
63.85694,-148.96611,Healy,Alaska,Denali Borough,US
63.85694,-148.96611,Healy,Alaska,Denali Borough,US
63.85694,-148.96611,Healy,Alaska,Denali Borough,US
63.85694,-148.96611,Healy,Alaska,Denali Borough,US
63.85694,-148.96611,Healy,Alaska,Denali Borough,US
63.85694,-148.96611,Healy,Alaska,Denali Borough,US
63.85694,-148.96611,Healy,Alaska,Denali Borough,US
63.85694,-148.96611,Healy,Alaska,Denali Borough,US
63.85694,-148.96611,Healy,Alaska,Denali Borough,US
63.85694,-148.96611,Healy,Alaska,Denali Borough,US
63.85694,-148.96611,Healy,Alaska,Denali Borough,US
63.85694,-148.96611,Healy,Alaska,Denali Borough,US
63.85694,-148.96611,Healy,Alaska,Denali Borough,US
63.85694,-148.96611,Healy,Alaska,Denali Borough,US
63.85694,-148.96611,Healy,Alaska,Denali Borough,US
63.85694,-148.96611,Healy,Alaska,Denali Borough,US
63.85694,-148.96611,Healy,Alaska,Denali Borough,US
63.85694,-148.96611,Healy,Alaska,Denali Borough,US
63.85694,-148.96611,Healy,Alaska,Denali Borough,US
63.85694,-148.96611,Healy,Alaska,Denali Borough,US
63.85694,-148.96611,Healy,Alaska,Denali Borough,US
63.85694,-148.96611,Healy,Alaska,Denali Borough,US
63.85694,-148.96611,Healy,Alaska,Denali Borough,US
63.85694,-148.96611,Healy,Alaska,Denali Borough,US
63.85694,-148.96611,Healy,Alaska,Denali Borough,US
63.85694,-148.96611,Healy,Alaska,Denali Borough,US
63.85694,-148.96611,Healy,Alaska,Denali Borough,US
63.85694,-148.96611,Healy,Alaska,Denali Borough,US
63.85694,-148.96611,Healy,Alaska,Denali Borough,US
63.85694,-148.96611,Healy,Alaska,Denali Borough,US
63.85694,-148.96611,Healy,Alaska,Denali Borough,US
63.85694,-148.96611,Healy,Alaska,Denali Borough,US
63.85694,-148.96611,Healy,Alaska,Denali Borough,US
63.85694,-148.96611,Healy,Alaska,Denali Borough,US
63.85694,-148.96611,Healy,Alaska,Denali Borough,US
63.85694,-148.96611,Healy,Alaska,Denali Borough,US
63.85694,-148.96611,Healy,Alaska,Denali Borough,US
63.85694,-148.96611,Healy,Alaska,Denali Borough,US
63.85694,-148.96611,Healy,Alaska,Denali Borough,US
63.85694,-148.96611,Healy,Alaska,Denali Borough,US
63.85694,-148.96611,Healy,Alaska,Denali Borough,US
63.85694,-148.96611,Healy,Alaska,Denali Borough,US
63.85694,-148.96611,Healy,Alaska,Denali Borough,US
63.85694,-148.96611,Healy,Alaska,Denali Borough,US
63.85694,-148.96611,Healy,Alaska,Denali Borough,US
63.85694,-148.96611,Healy,Alaska,Denali Borough,US
63.85694,-148.96611,Healy,Alaska,Denali Borough,US
63.85694,-148.96611,Healy,Alaska,Denali Borough,US
63.85694,-148.96611,Healy,Alaska,Denali Borough,US
63.85694,-148.96611,Healy,Alaska,Denali Borough,US
63.85694,-148.96611,Healy,Alaska,Denali Borough,US
63.85694,-148.96611,Healy,Alaska,Denali Borough,US
63.85694,-148.96611,Healy,Alaska,Denali Borough,US
63.85694,-148.96611,Healy,Alaska,Denali Borough,US
63.85694,-148.96611,Healy,Alaska,Denali Borough,US
63.85694,-148.96611,Healy,Alaska,Denali Borough,US
63.85694,-148.96611,Healy,Alaska,Denali Borough,US
63.85694,-148.96611,Healy,Alaska,Denali Borough,US
63.85694,-148.96611,Healy,Alaska,Denali Borough,US
63.85694,-148.96611,Healy,Alaska,Denali Borough,US
63.85694,-148.96611,Healy,Alaska,Denali Borough,US
63.85694,-148.96611,Healy,Alaska,Denali Borough,US
63.85694,-148.96611,Healy,Alaska,Denali Borough,US
63.85694,-148.96611,Healy,Alaska,Denali Borough,US
63.85694,-148.96611,Healy,Alaska,Denali Borough,US
63.85694,-148.96611,Healy,Alaska,Denali Borough,US
63.85694,-148.96611,Healy,Alaska,Denali Borough,US
63.85694,-148.96611,Healy,Alaska,Denali Borough,US
63.85694,-148.96611,Healy,Alaska,Denali Borough,US
63.85694,-148.96611,Healy,Alaska,Denali Borough,US
63.85694,-148.96611,Healy,Alaska,Denali Borough,US
63.85694,-148.96611,Healy,Alaska,Denali Borough,US
63.85694,-148.96611,Healy,Alaska,Denali Borough,US
63.85694,-148.96611,Healy,Alaska,Denali Borough,US
63.85694,-148.96611,Healy,Alaska,Denali Borough,US
37.77493,-122.41942,San Francisco,California,San Francisco County,US
37.77493,-122.41942,San Francisco,California,San Francisco County,US
34.05223,-118.24368,Los Angeles,California,Los Angeles County,US
48.69406,9.16809,Leinfelden-Echterdingen,Baden-Wuerttemberg,Regierungsbezirk Stuttgart,DE
18.75589,-97.86144,Dolores Hidalgo,Puebla,Huitziltepec,MX
19.48698,-99.18594,Azcapotzalco,Mexico City,,MX
14.91667,-86.38333,Manto,Olancho,,HN
22.96139,-102.05556,Los Zacatones,San Luis Potosi,Villa de Ramos,MX
19.48698,-99.18594,Azcapotzalco,Mexico City,,MX
19.48698,-99.18594,Azcapotzalco,Mexico City,,MX
19.76861,-99.67694,Barrio Cuarto (La Loma),Mexico,Morelos,MX
19.48698,-99.18594,Azcapotzalco,Mexico City,,MX
19.48698,-99.18594,Azcapotzalco,Mexico City,,MX
19.48698,-99.18594,Azcapotzalco,Mexico City,,MX
19.42847,-99.12766,Mexico City,Mexico City,,MX
19.48698,-99.18594,Azcapotzalco,Mexico City,,MX
39.77918,-98.78507,Smith Center,Kansas,Smith County,US
39.77918,-98.78507,Smith Center,Kansas,Smith County,US
19.48698,-99.18594,Azcapotzalco,Mexico City,,MX
17.585,-99.95444,Izotepec,Guerrero,General Heliodoro Castillo,MX
46.86326,-114.04844,Orchard Homes,Montana,Missoula County,US
25.25857,-99.68371,General Teran,Nuevo Leon,,MX
37.26217,-119.70098,Coarsegold,California,Madera County,US
32.77952,-108.15032,Santa Clara,New Mexico,Grant County,US
39.77918,-98.78507,Smith Center,Kansas,Smith County,US
40.78343,-73.96625,Manhattan,New York,New York County,US
39.77918,-98.78507,Smith Center,Kansas,Smith County,US
41.89193,12.51133,Rome,Latium,Citta metropolitana di Roma Capitale,IT
41.89193,12.51133,Rome,Latium,Citta metropolitana di Roma Capitale,IT
41.82399,-71.41283,Providence,Rhode Island,Providence County,US
34.05223,-118.24368,Los Angeles,California,Los Angeles County,US
39.77918,-98.78507,Smith Center,Kansas,Smith County,US
17.585,-99.95444,Izotepec,Guerrero,General Heliodoro Castillo,MX
39.77918,-98.78507,Smith Center,Kansas,Smith County,US
14.86748,-89.1,"Santa Rita, Copan",Copan,Santa Rita,HN
39.77918,-98.78507,Smith Center,Kansas,Smith County,US
39.77918,-98.78507,Smith Center,Kansas,Smith County,US
39.77918,-98.78507,Smith Center,Kansas,Smith County,US
25.25857,-99.68371,General Teran,Nuevo Leon,,MX
22.96139,-102.05556,Los Zacatones,San Luis Potosi,Villa de Ramos,MX
22.96139,-102.05556,Los Zacatones,San Luis Potosi,Villa de Ramos,MX
16.19889,-89.44028,San Luis,Peten,,GT
39.77918,-98.78507,Smith Center,Kansas,Smith County,US
39.77918,-98.78507,Smith Center,Kansas,Smith County,US
19.48698,-99.18594,Azcapotzalco,Mexico City,,MX
16.51599,-90.65371,Benemerito de las Americas,Chiapas,,MX
39.77918,-98.78507,Smith Center,Kansas,Smith County,US
39.77918,-98.78507,Smith Center,Kansas,Smith County,US
39.77918,-98.78507,Smith Center,Kansas,Smith County,US
39.77918,-98.78507,Smith Center,Kansas,Smith County,US
37.77493,-122.41942,San Francisco,California,San Francisco County,US
41.82399,-71.41283,Providence,Rhode Island,Providence County,US
41.82399,-71.41283,Providence,Rhode Island,Providence County,US
41.82399,-71.41283,Providence,Rhode Island,Providence County,US
40.71427,-74.00597,New York City,New York,,US
47.36667,8.55,Zurich,Zurich,Bezirk Zuerich,CH
41.82399,-71.41283,Providence,Rhode Island,Providence County,US
39.77918,-98.78507,Smith Center,Kansas,Smith County,US
47.36667,8.55,Zurich,Zurich,Bezirk Zuerich,CH
40.71427,-74.00597,New York City,New York,,US
47.36667,8.55,Zurich,Zurich,Bezirk Zuerich,CH
47.36667,8.55,Zurich,Zurich,Bezirk Zuerich,CH
47.36667,8.55,Zurich,Zurich,Bezirk Zuerich,CH
47.36667,8.55,Zurich,Zurich,Bezirk Zuerich,CH
47.36667,8.55,Zurich,Zurich,Bezirk Zuerich,CH
40.71427,-74.00597,New York City,New York,,US
17.585,-99.95444,Izotepec,Guerrero,General Heliodoro Castillo,MX
47.36667,8.55,Zurich,Zurich,Bezirk Zuerich,CH
47.36667,8.55,Zurich,Zurich,Bezirk Zuerich,CH
25.25857,-99.68371,General Teran,Nuevo Leon,,MX
20.03981,-90.22573,Tenabo,Campeche,,MX
48.85341,2.3488,Paris,Ile-de-France,Paris,FR
20.03981,-90.22573,Tenabo,Campeche,,MX
41.82399,-71.41283,Providence,Rhode Island,Providence County,US
39.77918,-98.78507,Smith Center,Kansas,Smith County,US
39.77918,-98.78507,Smith Center,Kansas,Smith County,US
39.77918,-98.78507,Smith Center,Kansas,Smith County,US
36.60626,-118.06462,Lone Pine,California,Inyo County,US
41.82399,-71.41283,Providence,Rhode Island,Providence County,US
40.70621,-73.30623,West Islip,New York,Suffolk County,US
40.70621,-73.30623,West Islip,New York,Suffolk County,US
32.71533,-117.15726,San Diego,California,San Diego County,US
41.82399,-71.41283,Providence,Rhode Island,Providence County,US
25.25857,-99.68371,General Teran,Nuevo Leon,,MX
25.25857,-99.68371,General Teran,Nuevo Leon,,MX
40.71427,-74.00597,New York City,New York,,US
17.585,-99.95444,Izotepec,Guerrero,General Heliodoro Castillo,MX
17.585,-99.95444,Izotepec,Guerrero,General Heliodoro Castillo,MX
17.585,-99.95444,Izotepec,Guerrero,General Heliodoro Castillo,MX
17.585,-99.95444,Izotepec,Guerrero,General Heliodoro Castillo,MX
17.585,-99.95444,Izotepec,Guerrero,General Heliodoro Castillo,MX
17.585,-99.95444,Izotepec,Guerrero,General Heliodoro Castillo,MX
17.585,-99.95444,Izotepec,Guerrero,General Heliodoro Castillo,MX
17.585,-99.95444,Izotepec,Guerrero,General Heliodoro Castillo,MX
17.585,-99.95444,Izotepec,Guerrero,General Heliodoro Castillo,MX
17.585,-99.95444,Izotepec,Guerrero,General Heliodoro Castillo,MX
17.585,-99.95444,Izotepec,Guerrero,General Heliodoro Castillo,MX
17.585,-99.95444,Izotepec,Guerrero,General Heliodoro Castillo,MX
22.96139,-102.05556,Los Zacatones,San Luis Potosi,Villa de Ramos,MX
18.75589,-97.86144,Dolores Hidalgo,Puebla,Huitziltepec,MX
17.585,-99.95444,Izotepec,Guerrero,General Heliodoro Castillo,MX
17.585,-99.95444,Izotepec,Guerrero,General Heliodoro Castillo,MX
17.585,-99.95444,Izotepec,Guerrero,General Heliodoro Castillo,MX
40.71427,-74.00597,New York City,New York,,US
22.96139,-102.05556,Los Zacatones,San Luis Potosi,Villa de Ramos,MX
41.82399,-71.41283,Providence,Rhode Island,Providence County,US
19.32072,-96.71874,Apazapan,Veracruz,,MX
39.77918,-98.78507,Smith Center,Kansas,Smith County,US
39.77918,-98.78507,Smith Center,Kansas,Smith County,US
41.82399,-71.41283,Providence,Rhode Island,Providence County,US
20.03981,-90.22573,Tenabo,Campeche,,MX
48.84598,2.20289,Saint-Cloud,Ile-de-France,Departement des Hauts-de-Seine,FR
28.73221,-82.50621,Sugarmill Woods,Florida,Citrus County,US
41.82399,-71.41283,Providence,Rhode Island,Providence County,US
40.71427,-74.00597,New York City,New York,,US
16.98333,-89.9,San Jose,Peten,Municipio de San Jose,GT
41.82399,-71.41283,Providence,Rhode Island,Providence County,US
40.71427,-74.00597,New York City,New York,,US
40.71427,-74.00597,New York City,New York,,US
40.71427,-74.00597,New York City,New York,,US
40.71427,-74.00597,New York City,New York,,US
40.71427,-74.00597,New York City,New York,,US
40.71427,-74.00597,New York City,New York,,US
40.71427,-74.00597,New York City,New York,,US
40.71427,-74.00597,New York City,New York,,US
40.71427,-74.00597,New York City,New York,,US
41.82399,-71.41283,Providence,Rhode Island,Providence County,US
40.05812,-82.40126,Newark,Ohio,Licking County,US
41.82399,-71.41283,Providence,Rhode Island,Providence County,US
17.50953,-91.98248,Palenque,Chiapas,,MX
16.99488,-96.47112,Santa Ana del Valle,Oaxaca,,MX
40.71427,-74.00597,New York City,New York,,US
40.71427,-74.00597,New York City,New York,,US
40.71427,-74.00597,New York City,New York,,US
40.71427,-74.00597,New York City,New York,,US
40.71427,-74.00597,New York City,New York,,US
40.71427,-74.00597,New York City,New York,,US
40.71427,-74.00597,New York City,New York,,US
40.71427,-74.00597,New York City,New York,,US
40.71427,-74.00597,New York City,New York,,US
41.82399,-71.41283,Providence,Rhode Island,Providence County,US
41.82399,-71.41283,Providence,Rhode Island,Providence County,US
41.82399,-71.41283,Providence,Rhode Island,Providence County,US
41.82399,-71.41283,Providence,Rhode Island,Providence County,US
19.48698,-99.18594,Azcapotzalco,Mexico City,,MX
40.71427,-74.00597,New York City,New York,,US
41.82399,-71.41283,Providence,Rhode Island,Providence County,US
41.82399,-71.41283,Providence,Rhode Island,Providence County,US
41.82399,-71.41283,Providence,Rhode Island,Providence County,US
41.82399,-71.41283,Providence,Rhode Island,Providence County,US
41.82399,-71.41283,Providence,Rhode Island,Providence County,US
39.77918,-98.78507,Smith Center,Kansas,Smith County,US
40.71427,-74.00597,New York City,New York,,US
39.77918,-98.78507,Smith Center,Kansas,Smith County,US
39.77918,-98.78507,Smith Center,Kansas,Smith County,US
19.48698,-99.18594,Azcapotzalco,Mexico City,,MX
17.585,-99.95444,Izotepec,Guerrero,General Heliodoro Castillo,MX
40.34872,-74.65905,Princeton,New Jersey,Mercer County,US
40.78343,-73.96625,Manhattan,New York,New York County,US
45.52345,-122.67621,Portland,Oregon,Multnomah County,US
20.03981,-90.22573,Tenabo,Campeche,,MX
17.9324,-99.60257,Mezcala,Guerrero,,MX
15.48333,-90.26667,San Pedro Carcha,Alta Verapaz,,GT
39.77918,-98.78507,Smith Center,Kansas,Smith County,US
25.25857,-99.68371,General Teran,Nuevo Leon,,MX
35.30004,-106.55114,Bernalillo,New Mexico,Sandoval County,US
19.16602,-101.86816,Nuevo Urecho,Michoacan,Nuevo Urecho,MX
40.86566,-73.9268,Inwood,New York,New York County,US
40.86566,-73.9268,Inwood,New York,New York County,US
25.25857,-99.68371,General Teran,Nuevo Leon,,MX
34.05223,-118.24368,Los Angeles,California,Los Angeles County,US
34.05223,-118.24368,Los Angeles,California,Los Angeles County,US
39.77918,-98.78507,Smith Center,Kansas,Smith County,US
39.77918,-98.78507,Smith Center,Kansas,Smith County,US
40.71427,-74.00597,New York City,New York,,US
39.77918,-98.78507,Smith Center,Kansas,Smith County,US
39.77918,-98.78507,Smith Center,Kansas,Smith County,US
39.77918,-98.78507,Smith Center,Kansas,Smith County,US
39.77918,-98.78507,Smith Center,Kansas,Smith County,US
32.70458,-87.59584,Greensboro,Alabama,Hale County,US
39.77918,-98.78507,Smith Center,Kansas,Smith County,US
39.77918,-98.78507,Smith Center,Kansas,Smith County,US
39.77918,-98.78507,Smith Center,Kansas,Smith County,US
39.11566,-77.5636,Leesburg,Virginia,Loudoun County,US
39.77918,-98.78507,Smith Center,Kansas,Smith County,US
39.77918,-98.78507,Smith Center,Kansas,Smith County,US
39.77918,-98.78507,Smith Center,Kansas,Smith County,US
35.68698,-105.9378,Santa Fe,New Mexico,Santa Fe County,US
39.77918,-98.78507,Smith Center,Kansas,Smith County,US
39.77918,-98.78507,Smith Center,Kansas,Smith County,US
39.77918,-98.78507,Smith Center,Kansas,Smith County,US
39.77918,-98.78507,Smith Center,Kansas,Smith County,US
39.77918,-98.78507,Smith Center,Kansas,Smith County,US
39.77918,-98.78507,Smith Center,Kansas,Smith County,US
40.71427,-74.00597,New York City,New York,,US
39.77918,-98.78507,Smith Center,Kansas,Smith County,US
39.77918,-98.78507,Smith Center,Kansas,Smith County,US
39.77918,-98.78507,Smith Center,Kansas,Smith County,US
39.77918,-98.78507,Smith Center,Kansas,Smith County,US
39.77918,-98.78507,Smith Center,Kansas,Smith County,US
35.08449,-106.65114,Albuquerque,New Mexico,Bernalillo County,US
36.07264,-79.79198,Greensboro,North Carolina,Guilford County,US
33.749,-84.38798,Atlanta,Georgia,Fulton County,US
40.71427,-74.00597,New York City,New York,,US
39.77918,-98.78507,Smith Center,Kansas,Smith County,US
40.71427,-74.00597,New York City,New York,,US
41.25648,-74.35988,Warwick,New York,Orange County,US
40.71427,-74.00597,New York City,New York,,US
39.77918,-98.78507,Smith Center,Kansas,Smith County,US
43.15478,-77.61556,Rochester,New York,Monroe County,US
40.71427,-74.00597,New York City,New York,,US
40.71427,-74.00597,New York City,New York,,US
43.15478,-77.61556,Rochester,New York,Monroe County,US
39.77918,-98.78507,Smith Center,Kansas,Smith County,US
39.77918,-98.78507,Smith Center,Kansas,Smith County,US
41.92704,-73.99736,Kingston,New York,Ulster County,US
39.77918,-98.78507,Smith Center,Kansas,Smith County,US
40.71427,-74.00597,New York City,New York,,US
44.97997,-93.26384,Minneapolis,Minnesota,Hennepin County,US
41.85003,-87.65005,Chicago,Illinois,Cook County,US
40.71427,-74.00597,New York City,New York,,US
40.71427,-74.00597,New York City,New York,,US
40.71427,-74.00597,New York City,New York,,US
40.71427,-74.00597,New York City,New York,,US
40.71427,-74.00597,New York City,New York,,US
40.71427,-74.00597,New York City,New York,,US
40.71427,-74.00597,New York City,New York,,US
40.71427,-74.00597,New York City,New York,,US
40.71427,-74.00597,New York City,New York,,US
40.71427,-74.00597,New York City,New York,,US
40.9126,-73.83708,Mount Vernon,New York,Westchester County,US
40.71427,-74.00597,New York City,New York,,US
40.71427,-74.00597,New York City,New York,,US
40.71427,-74.00597,New York City,New York,,US
40.71427,-74.00597,New York City,New York,,US
40.71427,-74.00597,New York City,New York,,US
40.71427,-74.00597,New York City,New York,,US
39.77918,-98.78507,Smith Center,Kansas,Smith County,US
39.92679,-74.07708,Seaside Park,New Jersey,Ocean County,US
40.71427,-74.00597,New York City,New York,,US
40.71427,-74.00597,New York City,New York,,US
40.71427,-74.00597,New York City,New York,,US
40.71427,-74.00597,New York City,New York,,US
40.71427,-74.00597,New York City,New York,,US
40.71427,-74.00597,New York City,New York,,US
40.71427,-74.00597,New York City,New York,,US
40.71427,-74.00597,New York City,New York,,US
35.08449,-106.65114,Albuquerque,New Mexico,Bernalillo County,US
39.77918,-98.78507,Smith Center,Kansas,Smith County,US
39.77918,-98.78507,Smith Center,Kansas,Smith County,US
39.77918,-98.78507,Smith Center,Kansas,Smith County,US
40.71427,-74.00597,New York City,New York,,US
39.77918,-98.78507,Smith Center,Kansas,Smith County,US
39.77918,-98.78507,Smith Center,Kansas,Smith County,US
39.77918,-98.78507,Smith Center,Kansas,Smith County,US
39.77918,-98.78507,Smith Center,Kansas,Smith County,US
39.77918,-98.78507,Smith Center,Kansas,Smith County,US
40.71427,-74.00597,New York City,New York,,US
35.08449,-106.65114,Albuquerque,New Mexico,Bernalillo County,US
39.77918,-98.78507,Smith Center,Kansas,Smith County,US
39.77918,-98.78507,Smith Center,Kansas,Smith County,US
39.77918,-98.78507,Smith Center,Kansas,Smith County,US
39.77918,-98.78507,Smith Center,Kansas,Smith County,US
40.71427,-74.00597,New York City,New York,,US
40.71427,-74.00597,New York City,New York,,US
40.71427,-74.00597,New York City,New York,,US
39.77918,-98.78507,Smith Center,Kansas,Smith County,US
37.77493,-122.41942,San Francisco,California,San Francisco County,US
40.71427,-74.00597,New York City,New York,,US
40.71427,-74.00597,New York City,New York,,US
40.71427,-74.00597,New York City,New York,,US
39.77918,-98.78507,Smith Center,Kansas,Smith County,US
39.77918,-98.78507,Smith Center,Kansas,Smith County,US
39.77918,-98.78507,Smith Center,Kansas,Smith County,US
39.77918,-98.78507,Smith Center,Kansas,Smith County,US
35.08449,-106.65114,Albuquerque,New Mexico,Bernalillo County,US
39.77918,-98.78507,Smith Center,Kansas,Smith County,US
39.77918,-98.78507,Smith Center,Kansas,Smith County,US
39.77918,-98.78507,Smith Center,Kansas,Smith County,US
39.77918,-98.78507,Smith Center,Kansas,Smith County,US
40.71427,-74.00597,New York City,New York,,US
39.77918,-98.78507,Smith Center,Kansas,Smith County,US
35.08449,-106.65114,Albuquerque,New Mexico,Bernalillo County,US
39.77918,-98.78507,Smith Center,Kansas,Smith County,US
39.77918,-98.78507,Smith Center,Kansas,Smith County,US
39.77918,-98.78507,Smith Center,Kansas,Smith County,US
39.77918,-98.78507,Smith Center,Kansas,Smith County,US
39.77918,-98.78507,Smith Center,Kansas,Smith County,US
39.77918,-98.78507,Smith Center,Kansas,Smith County,US
39.77918,-98.78507,Smith Center,Kansas,Smith County,US
39.77918,-98.78507,Smith Center,Kansas,Smith County,US
39.77918,-98.78507,Smith Center,Kansas,Smith County,US
40.71427,-74.00597,New York City,New York,,US
40.71427,-74.00597,New York City,New York,,US
39.77918,-98.78507,Smith Center,Kansas,Smith County,US
40.71427,-74.00597,New York City,New York,,US
39.77918,-98.78507,Smith Center,Kansas,Smith County,US
39.77918,-98.78507,Smith Center,Kansas,Smith County,US
39.77918,-98.78507,Smith Center,Kansas,Smith County,US
41.08315,-73.92014,South Nyack,New York,Rockland County,US
39.77918,-98.78507,Smith Center,Kansas,Smith County,US
39.77918,-98.78507,Smith Center,Kansas,Smith County,US
39.77918,-98.78507,Smith Center,Kansas,Smith County,US
39.77918,-98.78507,Smith Center,Kansas,Smith County,US
39.77918,-98.78507,Smith Center,Kansas,Smith County,US
39.77918,-98.78507,Smith Center,Kansas,Smith County,US
39.77918,-98.78507,Smith Center,Kansas,Smith County,US
39.77918,-98.78507,Smith Center,Kansas,Smith County,US
41.85003,-87.65005,Chicago,Illinois,Cook County,US
40.78343,-73.96625,Manhattan,New York,New York County,US
40.78343,-73.96625,Manhattan,New York,New York County,US
39.77918,-98.78507,Smith Center,Kansas,Smith County,US
40.71427,-74.00597,New York City,New York,,US
40.71427,-74.00597,New York City,New York,,US
35.08449,-106.65114,Albuquerque,New Mexico,Bernalillo County,US
39.77918,-98.78507,Smith Center,Kansas,Smith County,US
39.77918,-98.78507,Smith Center,Kansas,Smith County,US
40.71427,-74.00597,New York City,New York,,US
39.77918,-98.78507,Smith Center,Kansas,Smith County,US
39.77918,-98.78507,Smith Center,Kansas,Smith County,US
39.77918,-98.78507,Smith Center,Kansas,Smith County,US
46.08594,2.04479,Ahun,Limousin,Departement de la Creuse,FR
35.68698,-105.9378,Santa Fe,New Mexico,Santa Fe County,US
41.85003,-87.65005,Chicago,Illinois,Cook County,US
40.71427,-74.00597,New York City,New York,,US
39.77918,-98.78507,Smith Center,Kansas,Smith County,US
40.71427,-74.00597,New York City,New York,,US
40.71427,-74.00597,New York City,New York,,US
40.71427,-74.00597,New York City,New York,,US
39.77918,-98.78507,Smith Center,Kansas,Smith County,US
39.77918,-98.78507,Smith Center,Kansas,Smith County,US
39.77918,-98.78507,Smith Center,Kansas,Smith County,US
40.71427,-74.00597,New York City,New York,,US
40.71427,-74.00597,New York City,New York,,US
40.71427,-74.00597,New York City,New York,,US
40.71427,-74.00597,New York City,New York,,US
39.77918,-98.78507,Smith Center,Kansas,Smith County,US
39.77918,-98.78507,Smith Center,Kansas,Smith County,US
39.77918,-98.78507,Smith Center,Kansas,Smith County,US
39.77918,-98.78507,Smith Center,Kansas,Smith County,US
39.77918,-98.78507,Smith Center,Kansas,Smith County,US
39.77918,-98.78507,Smith Center,Kansas,Smith County,US
39.77918,-98.78507,Smith Center,Kansas,Smith County,US
39.77918,-98.78507,Smith Center,Kansas,Smith County,US
39.77918,-98.78507,Smith Center,Kansas,Smith County,US
39.77918,-98.78507,Smith Center,Kansas,Smith County,US
39.77918,-98.78507,Smith Center,Kansas,Smith County,US
39.77918,-98.78507,Smith Center,Kansas,Smith County,US
40.71427,-74.00597,New York City,New York,,US
39.77918,-98.78507,Smith Center,Kansas,Smith County,US
39.77918,-98.78507,Smith Center,Kansas,Smith County,US
48.65698,9.22049,Filderstadt,Baden-Wuerttemberg,Regierungsbezirk Stuttgart,DE
40.71427,-74.00597,New York City,New York,,US
35.08449,-106.65114,Albuquerque,New Mexico,Bernalillo County,US
39.77918,-98.78507,Smith Center,Kansas,Smith County,US
39.77918,-98.78507,Smith Center,Kansas,Smith County,US
39.77918,-98.78507,Smith Center,Kansas,Smith County,US
39.77918,-98.78507,Smith Center,Kansas,Smith County,US
41.20426,-73.72708,Mount Kisco,New York,Westchester County,US
39.77918,-98.78507,Smith Center,Kansas,Smith County,US
39.77918,-98.78507,Smith Center,Kansas,Smith County,US
39.77918,-98.78507,Smith Center,Kansas,Smith County,US
39.77918,-98.78507,Smith Center,Kansas,Smith County,US
39.77918,-98.78507,Smith Center,Kansas,Smith County,US
39.77918,-98.78507,Smith Center,Kansas,Smith County,US
41.85003,-87.65005,Chicago,Illinois,Cook County,US
40.71427,-74.00597,New York City,New York,,US
40.71427,-74.00597,New York City,New York,,US
46.17086,8.79953,Locarno,Ticino,Locarno District,CH
26.61369,-82.11815,Pine Island Center,Florida,Lee County,US
39.77918,-98.78507,Smith Center,Kansas,Smith County,US
38.89511,-77.03637,"Washington, D.C.","Washington, D.C.",,US
40.71427,-74.00597,New York City,New York,,US
39.77918,-98.78507,Smith Center,Kansas,Smith County,US
40.71427,-74.00597,New York City,New York,,US
39.77918,-98.78507,Smith Center,Kansas,Smith County,US
38.89511,-77.03637,"Washington, D.C.","Washington, D.C.",,US
34.05223,-118.24368,Los Angeles,California,Los Angeles County,US
39.77918,-98.78507,Smith Center,Kansas,Smith County,US
37.77493,-122.41942,San Francisco,California,San Francisco County,US
35.08449,-106.65114,Albuquerque,New Mexico,Bernalillo County,US
35.08449,-106.65114,Albuquerque,New Mexico,Bernalillo County,US
34.05223,-118.24368,Los Angeles,California,Los Angeles County,US
39.77918,-98.78507,Smith Center,Kansas,Smith County,US
39.77918,-98.78507,Smith Center,Kansas,Smith County,US
39.77918,-98.78507,Smith Center,Kansas,Smith County,US
39.77918,-98.78507,Smith Center,Kansas,Smith County,US
39.77918,-98.78507,Smith Center,Kansas,Smith County,US
39.77918,-98.78507,Smith Center,Kansas,Smith County,US
39.77918,-98.78507,Smith Center,Kansas,Smith County,US
39.77918,-98.78507,Smith Center,Kansas,Smith County,US
39.77918,-98.78507,Smith Center,Kansas,Smith County,US
39.77918,-98.78507,Smith Center,Kansas,Smith County,US
35.08449,-106.65114,Albuquerque,New Mexico,Bernalillo County,US
40.71427,-74.00597,New York City,New York,,US
40.71427,-74.00597,New York City,New York,,US
39.77918,-98.78507,Smith Center,Kansas,Smith County,US
42.35843,-71.05977,Boston,Massachusetts,Suffolk County,US
39.77918,-98.78507,Smith Center,Kansas,Smith County,US
39.77918,-98.78507,Smith Center,Kansas,Smith County,US
37.77493,-122.41942,San Francisco,California,San Francisco County,US
39.77918,-98.78507,Smith Center,Kansas,Smith County,US
39.77918,-98.78507,Smith Center,Kansas,Smith County,US
39.77918,-98.78507,Smith Center,Kansas,Smith County,US
37.77493,-122.41942,San Francisco,California,San Francisco County,US
40.71427,-74.00597,New York City,New York,,US
40.71427,-74.00597,New York City,New York,,US
40.71427,-74.00597,New York City,New York,,US
40.71427,-74.00597,New York City,New York,,US
40.71427,-74.00597,New York City,New York,,US
39.77918,-98.78507,Smith Center,Kansas,Smith County,US
39.77918,-98.78507,Smith Center,Kansas,Smith County,US
39.77918,-98.78507,Smith Center,Kansas,Smith County,US
39.77918,-98.78507,Smith Center,Kansas,Smith County,US
48.52961,12.16179,Landshut,Bavaria,Lower Bavaria,DE
37.77493,-122.41942,San Francisco,California,San Francisco County,US
39.77918,-98.78507,Smith Center,Kansas,Smith County,US
39.77918,-98.78507,Smith Center,Kansas,Smith County,US
45.76667,4.88333,Villeurbanne,Rhone-Alpes,Departement du Rhone,FR
39.77918,-98.78507,Smith Center,Kansas,Smith County,US
48.85341,2.3488,Paris,Ile-de-France,Paris,FR
39.77918,-98.78507,Smith Center,Kansas,Smith County,US
40.71427,-74.00597,New York City,New York,,US
39.77918,-98.78507,Smith Center,Kansas,Smith County,US
39.77918,-98.78507,Smith Center,Kansas,Smith County,US
39.77918,-98.78507,Smith Center,Kansas,Smith County,US
41.30815,-72.92816,New Haven,Connecticut,New Haven County,US
41.30815,-72.92816,New Haven,Connecticut,New Haven County,US
41.30815,-72.92816,New Haven,Connecticut,New Haven County,US
41.30815,-72.92816,New Haven,Connecticut,New Haven County,US
41.30815,-72.92816,New Haven,Connecticut,New Haven County,US
41.30815,-72.92816,New Haven,Connecticut,New Haven County,US
41.30815,-72.92816,New Haven,Connecticut,New Haven County,US
41.30815,-72.92816,New Haven,Connecticut,New Haven County,US
41.30815,-72.92816,New Haven,Connecticut,New Haven County,US
41.30815,-72.92816,New Haven,Connecticut,New Haven County,US
39.77918,-98.78507,Smith Center,Kansas,Smith County,US
16.99488,-96.47112,Santa Ana del Valle,Oaxaca,,MX
39.77918,-98.78507,Smith Center,Kansas,Smith County,US
39.77918,-98.78507,Smith Center,Kansas,Smith County,US
39.77918,-98.78507,Smith Center,Kansas,Smith County,US
39.77918,-98.78507,Smith Center,Kansas,Smith County,US
39.77918,-98.78507,Smith Center,Kansas,Smith County,US
43.15478,-77.61556,Rochester,New York,Monroe County,US
43.15478,-77.61556,Rochester,New York,Monroe County,US
39.77918,-98.78507,Smith Center,Kansas,Smith County,US
36.55524,-121.92329,Carmel-by-the-Sea,California,Monterey County,US
36.55524,-121.92329,Carmel-by-the-Sea,California,Monterey County,US
40.01088,-89.28231,Mount Pulaski,Illinois,Logan County,US
19.16722,-103.93111,Pueblo Juarez (La Magdalena),Colima,Coquimatlan,MX
39.77918,-98.78507,Smith Center,Kansas,Smith County,US
39.77918,-98.78507,Smith Center,Kansas,Smith County,US
40.71427,-74.00597,New York City,New York,,US
39.77918,-98.78507,Smith Center,Kansas,Smith County,US
39.77918,-98.78507,Smith Center,Kansas,Smith County,US
40.71427,-74.00597,New York City,New York,,US
25.25857,-99.68371,General Teran,Nuevo Leon,,MX
19.68028,-99.01,Ojo de Agua,Mexico,Tecamac,MX
39.77918,-98.78507,Smith Center,Kansas,Smith County,US
40.71427,-74.00597,New York City,New York,,US
39.77918,-98.78507,Smith Center,Kansas,Smith County,US
39.77918,-98.78507,Smith Center,Kansas,Smith County,US
39.77918,-98.78507,Smith Center,Kansas,Smith County,US
39.77918,-98.78507,Smith Center,Kansas,Smith County,US
39.77918,-98.78507,Smith Center,Kansas,Smith County,US
39.77918,-98.78507,Smith Center,Kansas,Smith County,US
39.77918,-98.78507,Smith Center,Kansas,Smith County,US
39.77918,-98.78507,Smith Center,Kansas,Smith County,US
35.49147,-92.03126,Heber Springs,Arkansas,Cleburne County,US
35.49147,-92.03126,Heber Springs,Arkansas,Cleburne County,US
35.49147,-92.03126,Heber Springs,Arkansas,Cleburne County,US
39.77918,-98.78507,Smith Center,Kansas,Smith County,US
40.71427,-74.00597,New York City,New York,,US
39.77918,-98.78507,Smith Center,Kansas,Smith County,US
34.77371,-90.75761,Marianna,Arkansas,Lee County,US
34.75839,-106.05585,Estancia,New Mexico,Torrance County,US
39.77918,-98.78507,Smith Center,Kansas,Smith County,US
39.77918,-98.78507,Smith Center,Kansas,Smith County,US
39.77918,-98.78507,Smith Center,Kansas,Smith County,US
39.77918,-98.78507,Smith Center,Kansas,Smith County,US
39.77918,-98.78507,Smith Center,Kansas,Smith County,US
40.71427,-74.00597,New York City,New York,,US
40.71427,-74.00597,New York City,New York,,US
40.71427,-74.00597,New York City,New York,,US
37.77493,-122.41942,San Francisco,California,San Francisco County,US
39.77918,-98.78507,Smith Center,Kansas,Smith County,US
39.77918,-98.78507,Smith Center,Kansas,Smith County,US
42.35843,-71.05977,Boston,Massachusetts,Suffolk County,US
42.35843,-71.05977,Boston,Massachusetts,Suffolk County,US
42.35843,-71.05977,Boston,Massachusetts,Suffolk County,US
42.35843,-71.05977,Boston,Massachusetts,Suffolk County,US
32.71533,-117.15726,San Diego,California,San Diego County,US
18.64592,-91.82991,Ciudad del Carmen,Campeche,Carmen,MX
35.21453,-90.19648,Marion,Arkansas,Crittenden County,US
17.25,-88.76667,Belmopan,Cayo,,BZ
35.00815,-90.78983,Forrest City,Arkansas,Saint Francis County,US
37.77493,-122.41942,San Francisco,California,San Francisco County,US
37.77493,-122.41942,San Francisco,California,San Francisco County,US
37.77493,-122.41942,San Francisco,California,San Francisco County,US
37.77493,-122.41942,San Francisco,California,San Francisco County,US
37.77493,-122.41942,San Francisco,California,San Francisco County,US
37.77493,-122.41942,San Francisco,California,San Francisco County,US
37.77493,-122.41942,San Francisco,California,San Francisco County,US
37.77493,-122.41942,San Francisco,California,San Francisco County,US
37.77493,-122.41942,San Francisco,California,San Francisco County,US
37.77493,-122.41942,San Francisco,California,San Francisco County,US
35.08449,-106.65114,Albuquerque,New Mexico,Bernalillo County,US
35.08449,-106.65114,Albuquerque,New Mexico,Bernalillo County,US
35.08449,-106.65114,Albuquerque,New Mexico,Bernalillo County,US
35.08449,-106.65114,Albuquerque,New Mexico,Bernalillo County,US
35.08449,-106.65114,Albuquerque,New Mexico,Bernalillo County,US
35.08449,-106.65114,Albuquerque,New Mexico,Bernalillo County,US
35.08449,-106.65114,Albuquerque,New Mexico,Bernalillo County,US
35.08449,-106.65114,Albuquerque,New Mexico,Bernalillo County,US
35.08449,-106.65114,Albuquerque,New Mexico,Bernalillo County,US
35.08449,-106.65114,Albuquerque,New Mexico,Bernalillo County,US
35.08449,-106.65114,Albuquerque,New Mexico,Bernalillo County,US
35.08449,-106.65114,Albuquerque,New Mexico,Bernalillo County,US
35.08449,-106.65114,Albuquerque,New Mexico,Bernalillo County,US
35.08449,-106.65114,Albuquerque,New Mexico,Bernalillo County,US
35.08449,-106.65114,Albuquerque,New Mexico,Bernalillo County,US
35.08449,-106.65114,Albuquerque,New Mexico,Bernalillo County,US
35.08449,-106.65114,Albuquerque,New Mexico,Bernalillo County,US
35.08449,-106.65114,Albuquerque,New Mexico,Bernalillo County,US
35.08449,-106.65114,Albuquerque,New Mexico,Bernalillo County,US
35.08449,-106.65114,Albuquerque,New Mexico,Bernalillo County,US
35.08449,-106.65114,Albuquerque,New Mexico,Bernalillo County,US
35.08449,-106.65114,Albuquerque,New Mexico,Bernalillo County,US
35.08449,-106.65114,Albuquerque,New Mexico,Bernalillo County,US
35.08449,-106.65114,Albuquerque,New Mexico,Bernalillo County,US
39.77918,-98.78507,Smith Center,Kansas,Smith County,US
39.77918,-98.78507,Smith Center,Kansas,Smith County,US
39.77918,-98.78507,Smith Center,Kansas,Smith County,US
39.77918,-98.78507,Smith Center,Kansas,Smith County,US
39.77918,-98.78507,Smith Center,Kansas,Smith County,US
39.77918,-98.78507,Smith Center,Kansas,Smith County,US
39.77918,-98.78507,Smith Center,Kansas,Smith County,US
39.77918,-98.78507,Smith Center,Kansas,Smith County,US
39.77918,-98.78507,Smith Center,Kansas,Smith County,US
39.77918,-98.78507,Smith Center,Kansas,Smith County,US
41.30815,-72.92816,New Haven,Connecticut,New Haven County,US
41.30815,-72.92816,New Haven,Connecticut,New Haven County,US
41.30815,-72.92816,New Haven,Connecticut,New Haven County,US
41.30815,-72.92816,New Haven,Connecticut,New Haven County,US
41.30815,-72.92816,New Haven,Connecticut,New Haven County,US
41.30815,-72.92816,New Haven,Connecticut,New Haven County,US
41.30815,-72.92816,New Haven,Connecticut,New Haven County,US
41.30815,-72.92816,New Haven,Connecticut,New Haven County,US
41.30815,-72.92816,New Haven,Connecticut,New Haven County,US
41.30815,-72.92816,New Haven,Connecticut,New Haven County,US
41.30815,-72.92816,New Haven,Connecticut,New Haven County,US
41.30815,-72.92816,New Haven,Connecticut,New Haven County,US
41.30815,-72.92816,New Haven,Connecticut,New Haven County,US
41.30815,-72.92816,New Haven,Connecticut,New Haven County,US
41.30815,-72.92816,New Haven,Connecticut,New Haven County,US
41.30815,-72.92816,New Haven,Connecticut,New Haven County,US
41.30815,-72.92816,New Haven,Connecticut,New Haven County,US
41.30815,-72.92816,New Haven,Connecticut,New Haven County,US
41.30815,-72.92816,New Haven,Connecticut,New Haven County,US
41.30815,-72.92816,New Haven,Connecticut,New Haven County,US
41.30815,-72.92816,New Haven,Connecticut,New Haven County,US
41.30815,-72.92816,New Haven,Connecticut,New Haven County,US
41.30815,-72.92816,New Haven,Connecticut,New Haven County,US
41.30815,-72.92816,New Haven,Connecticut,New Haven County,US
41.30815,-72.92816,New Haven,Connecticut,New Haven County,US
41.30815,-72.92816,New Haven,Connecticut,New Haven County,US
41.30815,-72.92816,New Haven,Connecticut,New Haven County,US
41.30815,-72.92816,New Haven,Connecticut,New Haven County,US
41.30815,-72.92816,New Haven,Connecticut,New Haven County,US
41.30815,-72.92816,New Haven,Connecticut,New Haven County,US
41.30815,-72.92816,New Haven,Connecticut,New Haven County,US
41.30815,-72.92816,New Haven,Connecticut,New Haven County,US
41.30815,-72.92816,New Haven,Connecticut,New Haven County,US
40.71427,-74.00597,New York City,New York,,US
40.75704,-72.93927,Bellport,New York,Suffolk County,US
41.30815,-72.92816,New Haven,Connecticut,New Haven County,US
41.30815,-72.92816,New Haven,Connecticut,New Haven County,US
41.30815,-72.92816,New Haven,Connecticut,New Haven County,US
41.30815,-72.92816,New Haven,Connecticut,New Haven County,US
41.30815,-72.92816,New Haven,Connecticut,New Haven County,US
41.30815,-72.92816,New Haven,Connecticut,New Haven County,US
41.30815,-72.92816,New Haven,Connecticut,New Haven County,US
41.30815,-72.92816,New Haven,Connecticut,New Haven County,US
41.30815,-72.92816,New Haven,Connecticut,New Haven County,US
41.30815,-72.92816,New Haven,Connecticut,New Haven County,US
41.30815,-72.92816,New Haven,Connecticut,New Haven County,US
41.30815,-72.92816,New Haven,Connecticut,New Haven County,US
41.30815,-72.92816,New Haven,Connecticut,New Haven County,US
41.30815,-72.92816,New Haven,Connecticut,New Haven County,US
41.30815,-72.92816,New Haven,Connecticut,New Haven County,US
41.30815,-72.92816,New Haven,Connecticut,New Haven County,US
41.30815,-72.92816,New Haven,Connecticut,New Haven County,US
41.30815,-72.92816,New Haven,Connecticut,New Haven County,US
41.30815,-72.92816,New Haven,Connecticut,New Haven County,US
41.30815,-72.92816,New Haven,Connecticut,New Haven County,US
41.30815,-72.92816,New Haven,Connecticut,New Haven County,US
41.30815,-72.92816,New Haven,Connecticut,New Haven County,US
41.30815,-72.92816,New Haven,Connecticut,New Haven County,US
41.30815,-72.92816,New Haven,Connecticut,New Haven County,US
41.30815,-72.92816,New Haven,Connecticut,New Haven County,US
41.30815,-72.92816,New Haven,Connecticut,New Haven County,US
41.30815,-72.92816,New Haven,Connecticut,New Haven County,US
41.30815,-72.92816,New Haven,Connecticut,New Haven County,US
41.30815,-72.92816,New Haven,Connecticut,New Haven County,US
41.30815,-72.92816,New Haven,Connecticut,New Haven County,US
41.30815,-72.92816,New Haven,Connecticut,New Haven County,US
41.30815,-72.92816,New Haven,Connecticut,New Haven County,US
40.71427,-74.00597,New York City,New York,,US
40.71427,-74.00597,New York City,New York,,US
40.71427,-74.00597,New York City,New York,,US
40.71427,-74.00597,New York City,New York,,US
40.71427,-74.00597,New York City,New York,,US
40.71427,-74.00597,New York City,New York,,US
40.71427,-74.00597,New York City,New York,,US
51.50853,-0.12574,London,England,Greater London,GB
51.50853,-0.12574,London,England,Greater London,GB
51.50853,-0.12574,London,England,Greater London,GB
51.50853,-0.12574,London,England,Greater London,GB
51.50853,-0.12574,London,England,Greater London,GB
51.50853,-0.12574,London,England,Greater London,GB
51.50853,-0.12574,London,England,Greater London,GB
51.50853,-0.12574,London,England,Greater London,GB
51.50853,-0.12574,London,England,Greater London,GB
51.50853,-0.12574,London,England,Greater London,GB
51.50853,-0.12574,London,England,Greater London,GB
39.77918,-98.78507,Smith Center,Kansas,Smith County,US
40.78343,-73.96625,Manhattan,New York,New York County,US
39.77918,-98.78507,Smith Center,Kansas,Smith County,US
51.47572,10.48104,Grossbodungen,Thuringia,,DE
40.71427,-74.00597,New York City,New York,,US
40.71427,-74.00597,New York City,New York,,US
40.71427,-74.00597,New York City,New York,,US
40.71427,-74.00597,New York City,New York,,US
40.71427,-74.00597,New York City,New York,,US
40.71427,-74.00597,New York City,New York,,US
39.77918,-98.78507,Smith Center,Kansas,Smith County,US
39.77918,-98.78507,Smith Center,Kansas,Smith County,US
39.77918,-98.78507,Smith Center,Kansas,Smith County,US
39.77918,-98.78507,Smith Center,Kansas,Smith County,US
39.77918,-98.78507,Smith Center,Kansas,Smith County,US
39.77918,-98.78507,Smith Center,Kansas,Smith County,US
39.77918,-98.78507,Smith Center,Kansas,Smith County,US
20.03981,-90.22573,Tenabo,Campeche,,MX
39.77918,-98.78507,Smith Center,Kansas,Smith County,US
39.77918,-98.78507,Smith Center,Kansas,Smith County,US
39.77918,-98.78507,Smith Center,Kansas,Smith County,US
39.77918,-98.78507,Smith Center,Kansas,Smith County,US
39.77918,-98.78507,Smith Center,Kansas,Smith County,US
39.77918,-98.78507,Smith Center,Kansas,Smith County,US
39.77918,-98.78507,Smith Center,Kansas,Smith County,US
39.77918,-98.78507,Smith Center,Kansas,Smith County,US
39.77918,-98.78507,Smith Center,Kansas,Smith County,US
40.71427,-74.00597,New York City,New York,,US
39.77918,-98.78507,Smith Center,Kansas,Smith County,US
33.83171,-111.29457,Tonto Basin,Arizona,Gila County,US
33.83171,-111.29457,Tonto Basin,Arizona,Gila County,US
33.83171,-111.29457,Tonto Basin,Arizona,Gila County,US
33.83171,-111.29457,Tonto Basin,Arizona,Gila County,US
33.83171,-111.29457,Tonto Basin,Arizona,Gila County,US
33.83171,-111.29457,Tonto Basin,Arizona,Gila County,US
33.83171,-111.29457,Tonto Basin,Arizona,Gila County,US
33.83171,-111.29457,Tonto Basin,Arizona,Gila County,US
33.83171,-111.29457,Tonto Basin,Arizona,Gila County,US
33.83171,-111.29457,Tonto Basin,Arizona,Gila County,US
33.83171,-111.29457,Tonto Basin,Arizona,Gila County,US
33.83171,-111.29457,Tonto Basin,Arizona,Gila County,US
33.83171,-111.29457,Tonto Basin,Arizona,Gila County,US
33.83171,-111.29457,Tonto Basin,Arizona,Gila County,US
33.83171,-111.29457,Tonto Basin,Arizona,Gila County,US
33.83171,-111.29457,Tonto Basin,Arizona,Gila County,US
33.83171,-111.29457,Tonto Basin,Arizona,Gila County,US
33.83171,-111.29457,Tonto Basin,Arizona,Gila County,US
33.83171,-111.29457,Tonto Basin,Arizona,Gila County,US
33.83171,-111.29457,Tonto Basin,Arizona,Gila County,US
33.83171,-111.29457,Tonto Basin,Arizona,Gila County,US
33.83171,-111.29457,Tonto Basin,Arizona,Gila County,US
33.83171,-111.29457,Tonto Basin,Arizona,Gila County,US
32.83395,-109.70758,Safford,Arizona,Graham County,US
19.16722,-103.93111,Pueblo Juarez (La Magdalena),Colima,Coquimatlan,MX
40.71427,-74.00597,New York City,New York,,US
40.71427,-74.00597,New York City,New York,,US
39.77918,-98.78507,Smith Center,Kansas,Smith County,US
41.30815,-72.92816,New Haven,Connecticut,New Haven County,US
34.05223,-118.24368,Los Angeles,California,Los Angeles County,US
39.77918,-98.78507,Smith Center,Kansas,Smith County,US
39.77918,-98.78507,Smith Center,Kansas,Smith County,US
39.77918,-98.78507,Smith Center,Kansas,Smith County,US
42.05844,-70.17864,Provincetown,Massachusetts,Barnstable County,US
39.77918,-98.78507,Smith Center,Kansas,Smith County,US
39.77918,-98.78507,Smith Center,Kansas,Smith County,US
39.77918,-98.78507,Smith Center,Kansas,Smith County,US
39.77918,-98.78507,Smith Center,Kansas,Smith County,US
41.93761,-70.0328,Wellfleet,Massachusetts,Barnstable County,US
39.77918,-98.78507,Smith Center,Kansas,Smith County,US
47.93195,23.88603,Sighetu Marmatiei,Maramures,Municipiul Sighetu Marmatiei,RO
64.16667,25.96667,Piippola,Northern Ostrobothnia,Haapavesi-Siikalatva,FI
39.77918,-98.78507,Smith Center,Kansas,Smith County,US
33.83171,-111.29457,Tonto Basin,Arizona,Gila County,US
17.585,-99.95444,Izotepec,Guerrero,General Heliodoro Castillo,MX
34.38447,-111.45514,Pine,Arizona,Gila County,US
34.38447,-111.45514,Pine,Arizona,Gila County,US
40.71427,-74.00597,New York City,New York,,US
40.71427,-74.00597,New York City,New York,,US
40.71427,-74.00597,New York City,New York,,US
40.71427,-74.00597,New York City,New York,,US
40.71427,-74.00597,New York City,New York,,US
40.71427,-74.00597,New York City,New York,,US
40.71427,-74.00597,New York City,New York,,US
40.71427,-74.00597,New York City,New York,,US
40.71427,-74.00597,New York City,New York,,US
40.71427,-74.00597,New York City,New York,,US
40.71427,-74.00597,New York City,New York,,US
40.71427,-74.00597,New York City,New York,,US
40.71427,-74.00597,New York City,New York,,US
40.71427,-74.00597,New York City,New York,,US
40.71427,-74.00597,New York City,New York,,US
40.71427,-74.00597,New York City,New York,,US
40.34872,-74.65905,Princeton,New Jersey,Mercer County,US
16.99488,-96.47112,Santa Ana del Valle,Oaxaca,,MX
37.77493,-122.41942,San Francisco,California,San Francisco County,US
37.77493,-122.41942,San Francisco,California,San Francisco County,US
37.77493,-122.41942,San Francisco,California,San Francisco County,US
37.77493,-122.41942,San Francisco,California,San Francisco County,US
37.77493,-122.41942,San Francisco,California,San Francisco County,US
37.77493,-122.41942,San Francisco,California,San Francisco County,US
37.77493,-122.41942,San Francisco,California,San Francisco County,US
37.77493,-122.41942,San Francisco,California,San Francisco County,US
37.77493,-122.41942,San Francisco,California,San Francisco County,US
37.77493,-122.41942,San Francisco,California,San Francisco County,US
37.77493,-122.41942,San Francisco,California,San Francisco County,US
37.77493,-122.41942,San Francisco,California,San Francisco County,US
37.77493,-122.41942,San Francisco,California,San Francisco County,US
37.77493,-122.41942,San Francisco,California,San Francisco County,US
40.34872,-74.65905,Princeton,New Jersey,Mercer County,US
29.76328,-95.36327,Houston,Texas,Harris County,US
40.21705,-74.74294,Trenton,New Jersey,Mercer County,US
33.83171,-111.29457,Tonto Basin,Arizona,Gila County,US
33.83171,-111.29457,Tonto Basin,Arizona,Gila County,US
41.82399,-71.41283,Providence,Rhode Island,Providence County,US
40.71427,-74.00597,New York City,New York,,US
40.71427,-74.00597,New York City,New York,,US
41.60054,-93.60911,Des Moines,Iowa,Polk County,US
39.77918,-98.78507,Smith Center,Kansas,Smith County,US
20.03024,-100.72249,Acambaro,Guanajuato,,MX
39.77918,-98.78507,Smith Center,Kansas,Smith County,US
40.71427,-74.00597,New York City,New York,,US
39.77918,-98.78507,Smith Center,Kansas,Smith County,US
39.77918,-98.78507,Smith Center,Kansas,Smith County,US
39.77918,-98.78507,Smith Center,Kansas,Smith County,US
39.77918,-98.78507,Smith Center,Kansas,Smith County,US
39.77918,-98.78507,Smith Center,Kansas,Smith County,US
39.77918,-98.78507,Smith Center,Kansas,Smith County,US
39.77918,-98.78507,Smith Center,Kansas,Smith County,US
39.77918,-98.78507,Smith Center,Kansas,Smith County,US
39.77918,-98.78507,Smith Center,Kansas,Smith County,US
22.05697,78.93958,Chhindwara,Madhya Pradesh,Chhindwara,IN
22.05697,78.93958,Chhindwara,Madhya Pradesh,Chhindwara,IN
22.05697,78.93958,Chhindwara,Madhya Pradesh,Chhindwara,IN
22.05697,78.93958,Chhindwara,Madhya Pradesh,Chhindwara,IN
22.05697,78.93958,Chhindwara,Madhya Pradesh,Chhindwara,IN
22.05697,78.93958,Chhindwara,Madhya Pradesh,Chhindwara,IN
22.05697,78.93958,Chhindwara,Madhya Pradesh,Chhindwara,IN
22.05697,78.93958,Chhindwara,Madhya Pradesh,Chhindwara,IN
22.05697,78.93958,Chhindwara,Madhya Pradesh,Chhindwara,IN
22.05697,78.93958,Chhindwara,Madhya Pradesh,Chhindwara,IN
22.05697,78.93958,Chhindwara,Madhya Pradesh,Chhindwara,IN
22.05697,78.93958,Chhindwara,Madhya Pradesh,Chhindwara,IN
22.05697,78.93958,Chhindwara,Madhya Pradesh,Chhindwara,IN
22.05697,78.93958,Chhindwara,Madhya Pradesh,Chhindwara,IN
22.05697,78.93958,Chhindwara,Madhya Pradesh,Chhindwara,IN
22.05697,78.93958,Chhindwara,Madhya Pradesh,Chhindwara,IN
22.05697,78.93958,Chhindwara,Madhya Pradesh,Chhindwara,IN
22.05697,78.93958,Chhindwara,Madhya Pradesh,Chhindwara,IN
22.05697,78.93958,Chhindwara,Madhya Pradesh,Chhindwara,IN
22.05697,78.93958,Chhindwara,Madhya Pradesh,Chhindwara,IN
22.05697,78.93958,Chhindwara,Madhya Pradesh,Chhindwara,IN
22.05697,78.93958,Chhindwara,Madhya Pradesh,Chhindwara,IN
22.05697,78.93958,Chhindwara,Madhya Pradesh,Chhindwara,IN
22.05697,78.93958,Chhindwara,Madhya Pradesh,Chhindwara,IN
22.05697,78.93958,Chhindwara,Madhya Pradesh,Chhindwara,IN
22.05697,78.93958,Chhindwara,Madhya Pradesh,Chhindwara,IN
22.05697,78.93958,Chhindwara,Madhya Pradesh,Chhindwara,IN
22.05697,78.93958,Chhindwara,Madhya Pradesh,Chhindwara,IN
22.05697,78.93958,Chhindwara,Madhya Pradesh,Chhindwara,IN
22.05697,78.93958,Chhindwara,Madhya Pradesh,Chhindwara,IN
39.77918,-98.78507,Smith Center,Kansas,Smith County,US
39.77918,-98.78507,Smith Center,Kansas,Smith County,US
39.77918,-98.78507,Smith Center,Kansas,Smith County,US
39.77918,-98.78507,Smith Center,Kansas,Smith County,US
39.77918,-98.78507,Smith Center,Kansas,Smith County,US
39.77918,-98.78507,Smith Center,Kansas,Smith County,US
38.84622,-77.30637,Fairfax,Virginia,City of Fairfax,US
40.71427,-74.00597,New York City,New York,,US
40.71427,-74.00597,New York City,New York,,US
29.95465,-90.07507,New Orleans,Louisiana,Orleans Parish,US
42.27863,-88.26092,Prairie Grove,Illinois,McHenry County,US
43.49674,-73.77623,Warrensburg,New York,Warren County,US
48.79632,2.33661,Cachan,Ile-de-France,Departement du Val-de-Marne,FR
40.71427,-74.00597,New York City,New York,,US
39.77918,-98.78507,Smith Center,Kansas,Smith County,US
40.71427,-74.00597,New York City,New York,,US
40.71427,-74.00597,New York City,New York,,US
40.71427,-74.00597,New York City,New York,,US
40.71427,-74.00597,New York City,New York,,US
40.71427,-74.00597,New York City,New York,,US
40.71427,-74.00597,New York City,New York,,US
40.71427,-74.00597,New York City,New York,,US
40.71427,-74.00597,New York City,New York,,US
40.71427,-74.00597,New York City,New York,,US
40.71427,-74.00597,New York City,New York,,US
40.71427,-74.00597,New York City,New York,,US
40.71427,-74.00597,New York City,New York,,US
40.6501,-73.94958,Brooklyn,New York,Kings County,US
43.07951,-75.53934,Vernon,New York,Oneida County,US
43.92507,-72.66594,Randolph,Vermont,Orange County,US
40.78343,-73.96625,Manhattan,New York,New York County,US
40.6501,-73.94958,Brooklyn,New York,Kings County,US
40.6501,-73.94958,Brooklyn,New York,Kings County,US
62.03407,14.36577,Sveg,Jaemtland,Harjedalens Kommun,SE
12.93435,-85.22354,Rio Blanco,Matagalpa,,NI
12.93435,-85.22354,Rio Blanco,Matagalpa,,NI
12.93435,-85.22354,Rio Blanco,Matagalpa,,NI
39.77918,-98.78507,Smith Center,Kansas,Smith County,US
11.97444,-86.09417,Masaya,Masaya,,NI
42.35843,-71.05977,Boston,Massachusetts,Suffolk County,US
39.162,-84.45689,Cincinnati,Ohio,Hamilton County,US
40.99121,-74.03264,Westwood,New Jersey,Bergen County,US
40.94454,-74.07542,Paramus,New Jersey,Bergen County,US
40.71427,-74.00597,New York City,New York,,US
40.71427,-74.00597,New York City,New York,,US
39.77918,-98.78507,Smith Center,Kansas,Smith County,US
40.71427,-74.00597,New York City,New York,,US
40.71427,-74.00597,New York City,New York,,US
40.71427,-74.00597,New York City,New York,,US
40.71427,-74.00597,New York City,New York,,US
40.71427,-74.00597,New York City,New York,,US
40.71427,-74.00597,New York City,New York,,US
40.71427,-74.00597,New York City,New York,,US
40.71427,-74.00597,New York City,New York,,US
40.71427,-74.00597,New York City,New York,,US
40.71427,-74.00597,New York City,New York,,US
40.71427,-74.00597,New York City,New York,,US
40.71427,-74.00597,New York City,New York,,US
40.71427,-74.00597,New York City,New York,,US
40.71427,-74.00597,New York City,New York,,US
40.71427,-74.00597,New York City,New York,,US
40.71427,-74.00597,New York City,New York,,US
40.71427,-74.00597,New York City,New York,,US
40.71427,-74.00597,New York City,New York,,US
40.71427,-74.00597,New York City,New York,,US
40.71427,-74.00597,New York City,New York,,US
40.05812,-82.40126,Newark,Ohio,Licking County,US
40.05812,-82.40126,Newark,Ohio,Licking County,US
40.71427,-74.00597,New York City,New York,,US
40.71427,-74.00597,New York City,New York,,US
40.71427,-74.00597,New York City,New York,,US
40.71427,-74.00597,New York City,New York,,US
40.71427,-74.00597,New York City,New York,,US
40.71427,-74.00597,New York City,New York,,US
40.71427,-74.00597,New York City,New York,,US
40.71427,-74.00597,New York City,New York,,US
40.71427,-74.00597,New York City,New York,,US
40.71427,-74.00597,New York City,New York,,US
40.71427,-74.00597,New York City,New York,,US
40.71427,-74.00597,New York City,New York,,US
40.71427,-74.00597,New York City,New York,,US
40.71427,-74.00597,New York City,New York,,US
40.71427,-74.00597,New York City,New York,,US
40.71427,-74.00597,New York City,New York,,US
40.71427,-74.00597,New York City,New York,,US
40.71427,-74.00597,New York City,New York,,US
40.71427,-74.00597,New York City,New York,,US
40.71427,-74.00597,New York City,New York,,US
40.71427,-74.00597,New York City,New York,,US
40.71427,-74.00597,New York City,New York,,US
40.71427,-74.00597,New York City,New York,,US
40.71427,-74.00597,New York City,New York,,US
40.71427,-74.00597,New York City,New York,,US
40.71427,-74.00597,New York City,New York,,US
40.71427,-74.00597,New York City,New York,,US
40.05812,-82.40126,Newark,Ohio,Licking County,US
40.71427,-74.00597,New York City,New York,,US
40.71427,-74.00597,New York City,New York,,US
40.71427,-74.00597,New York City,New York,,US
40.05812,-82.40126,Newark,Ohio,Licking County,US
38.38207,-78.9767,Bridgewater,Virginia,Rockingham County,US
40.71427,-74.00597,New York City,New York,,US
45.307,-69.03337,Brownville,Maine,Piscataquis County,US
45.307,-69.03337,Brownville,Maine,Piscataquis County,US
40.71427,-74.00597,New York City,New York,,US
40.05812,-82.40126,Newark,Ohio,Licking County,US
40.71427,-74.00597,New York City,New York,,US
40.05812,-82.40126,Newark,Ohio,Licking County,US
40.71427,-74.00597,New York City,New York,,US
40.71427,-74.00597,New York City,New York,,US
40.71427,-74.00597,New York City,New York,,US
40.71427,-74.00597,New York City,New York,,US
40.71427,-74.00597,New York City,New York,,US
40.71427,-74.00597,New York City,New York,,US
40.71427,-74.00597,New York City,New York,,US
40.71427,-74.00597,New York City,New York,,US
40.71427,-74.00597,New York City,New York,,US
40.71427,-74.00597,New York City,New York,,US
40.71427,-74.00597,New York City,New York,,US
40.71427,-74.00597,New York City,New York,,US
40.71427,-74.00597,New York City,New York,,US
40.71427,-74.00597,New York City,New York,,US
40.71427,-74.00597,New York City,New York,,US
40.71427,-74.00597,New York City,New York,,US
48.81381,2.235,Meudon,Ile-de-France,Departement des Hauts-de-Seine,FR
40.71427,-74.00597,New York City,New York,,US
48.81381,2.235,Meudon,Ile-de-France,Departement des Hauts-de-Seine,FR
40.71427,-74.00597,New York City,New York,,US
48.81381,2.235,Meudon,Ile-de-France,Departement des Hauts-de-Seine,FR
40.71427,-74.00597,New York City,New York,,US
40.71427,-74.00597,New York City,New York,,US
40.71427,-74.00597,New York City,New York,,US
40.71427,-74.00597,New York City,New York,,US
40.71427,-74.00597,New York City,New York,,US
40.71427,-74.00597,New York City,New York,,US
40.71427,-74.00597,New York City,New York,,US
40.71427,-74.00597,New York City,New York,,US
40.71427,-74.00597,New York City,New York,,US
40.71427,-74.00597,New York City,New York,,US
40.78343,-73.96625,Manhattan,New York,New York County,US
40.71427,-74.00597,New York City,New York,,US
40.71427,-74.00597,New York City,New York,,US
40.71427,-74.00597,New York City,New York,,US
40.71427,-74.00597,New York City,New York,,US
40.71427,-74.00597,New York City,New York,,US
40.71427,-74.00597,New York City,New York,,US
40.71427,-74.00597,New York City,New York,,US
40.71427,-74.00597,New York City,New York,,US
40.71427,-74.00597,New York City,New York,,US
40.71427,-74.00597,New York City,New York,,US
40.71427,-74.00597,New York City,New York,,US
40.71427,-74.00597,New York City,New York,,US
40.71427,-74.00597,New York City,New York,,US
40.71427,-74.00597,New York City,New York,,US
42.02731,-73.32928,Canaan,Connecticut,Litchfield County,US
42.02731,-73.32928,Canaan,Connecticut,Litchfield County,US
19.32072,-96.71874,Apazapan,Veracruz,,MX
40.71427,-74.00597,New York City,New York,,US
40.71427,-74.00597,New York City,New York,,US
42.35843,-71.05977,Boston,Massachusetts,Suffolk County,US
18.75589,-97.86144,Dolores Hidalgo,Puebla,Huitziltepec,MX
18.75589,-97.86144,Dolores Hidalgo,Puebla,Huitziltepec,MX
42.35843,-71.05977,Boston,Massachusetts,Suffolk County,US
40.71427,-74.00597,New York City,New York,,US
16.99488,-96.47112,Santa Ana del Valle,Oaxaca,,MX
20.54644,-90.16365,Santa Maria Acu,Yucatan,Halacho,MX
40.77066,-74.23265,Orange,New Jersey,Essex County,US
39.77918,-98.78507,Smith Center,Kansas,Smith County,US
39.77918,-98.78507,Smith Center,Kansas,Smith County,US
63.85694,-148.96611,Healy,Alaska,Denali Borough,US
39.77918,-98.78507,Smith Center,Kansas,Smith County,US
39.77918,-98.78507,Smith Center,Kansas,Smith County,US
40.71427,-74.00597,New York City,New York,,US
40.71427,-74.00597,New York City,New York,,US
16.98333,-89.9,San Jose,Peten,Municipio de San Jose,GT
39.77918,-98.78507,Smith Center,Kansas,Smith County,US
51.50853,-0.12574,London,England,Greater London,GB
51.50853,-0.12574,London,England,Greater London,GB
51.50853,-0.12574,London,England,Greater London,GB
51.50853,-0.12574,London,England,Greater London,GB
51.50853,-0.12574,London,England,Greater London,GB
51.50853,-0.12574,London,England,Greater London,GB
51.50853,-0.12574,London,England,Greater London,GB
51.50853,-0.12574,London,England,Greater London,GB
51.50853,-0.12574,London,England,Greater London,GB
39.77918,-98.78507,Smith Center,Kansas,Smith County,US
39.77918,-98.78507,Smith Center,Kansas,Smith County,US
51.50853,-0.12574,London,England,Greater London,GB
22.96139,-102.05556,Los Zacatones,San Luis Potosi,Villa de Ramos,MX
14.23083,-90.94722,La Democracia,Escuintla,Municipio de La Democracia,GT
40.71427,-74.00597,New York City,New York,,US
40.71427,-74.00597,New York City,New York,,US
40.78343,-73.96625,Manhattan,New York,New York County,US
21.92501,-105.04031,La Jarretadera,Nayarit,,MX
39.77918,-98.78507,Smith Center,Kansas,Smith County,US
19.16722,-103.93111,Pueblo Juarez (La Magdalena),Colima,Coquimatlan,MX
19.32072,-96.71874,Apazapan,Veracruz,,MX
39.77918,-98.78507,Smith Center,Kansas,Smith County,US
46.08594,2.04479,Ahun,Limousin,Departement de la Creuse,FR
46.08594,2.04479,Ahun,Limousin,Departement de la Creuse,FR
22.96139,-102.05556,Los Zacatones,San Luis Potosi,Villa de Ramos,MX
39.77918,-98.78507,Smith Center,Kansas,Smith County,US
40.34872,-74.65905,Princeton,New Jersey,Mercer County,US
40.34872,-74.65905,Princeton,New Jersey,Mercer County,US
43.22395,-77.18609,Williamson,New York,Wayne County,US
43.15478,-77.61556,Rochester,New York,Monroe County,US
43.15478,-77.61556,Rochester,New York,Monroe County,US
43.15478,-77.61556,Rochester,New York,Monroe County,US
43.15478,-77.61556,Rochester,New York,Monroe County,US
43.15478,-77.61556,Rochester,New York,Monroe County,US
43.15478,-77.61556,Rochester,New York,Monroe County,US
42.99812,-78.18752,Batavia,New York,Genesee County,US
43.15478,-77.61556,Rochester,New York,Monroe County,US
40.78343,-73.96625,Manhattan,New York,New York County,US
40.71427,-74.00597,New York City,New York,,US
37.74075,-119.57788,Yosemite Valley,California,Mariposa County,US
40.49238,-121.88916,Shingletown,California,Shasta County,US
34.01945,-118.49119,Santa Monica,California,Los Angeles County,US
39.77918,-98.78507,Smith Center,Kansas,Smith County,US
34.05223,-118.24368,Los Angeles,California,Los Angeles County,US
39.77918,-98.78507,Smith Center,Kansas,Smith County,US
39.77918,-98.78507,Smith Center,Kansas,Smith County,US
36.15335,-106.67948,Santa Teresa,New Mexico,Rio Arriba County,US
36.15335,-106.67948,Santa Teresa,New Mexico,Rio Arriba County,US
40.71427,-74.00597,New York City,New York,,US
39.77918,-98.78507,Smith Center,Kansas,Smith County,US
52.52437,13.41053,Berlin,Berlin,,DE
40.71427,-74.00597,New York City,New York,,US
40.71427,-74.00597,New York City,New York,,US
40.71427,-74.00597,New York City,New York,,US
39.77918,-98.78507,Smith Center,Kansas,Smith County,US
39.77918,-98.78507,Smith Center,Kansas,Smith County,US
39.77918,-98.78507,Smith Center,Kansas,Smith County,US
39.77918,-98.78507,Smith Center,Kansas,Smith County,US
40.78593,-74.78016,Long Valley,New Jersey,Morris County,US
40.71427,-74.00597,New York City,New York,,US
40.71427,-74.00597,New York City,New York,,US
40.78593,-74.78016,Long Valley,New Jersey,Morris County,US
39.77918,-98.78507,Smith Center,Kansas,Smith County,US
39.77918,-98.78507,Smith Center,Kansas,Smith County,US
40.78593,-74.78016,Long Valley,New Jersey,Morris County,US
39.77918,-98.78507,Smith Center,Kansas,Smith County,US
39.77918,-98.78507,Smith Center,Kansas,Smith County,US
39.77918,-98.78507,Smith Center,Kansas,Smith County,US
39.77918,-98.78507,Smith Center,Kansas,Smith County,US
39.77918,-98.78507,Smith Center,Kansas,Smith County,US
39.77918,-98.78507,Smith Center,Kansas,Smith County,US
39.77918,-98.78507,Smith Center,Kansas,Smith County,US
39.77918,-98.78507,Smith Center,Kansas,Smith County,US
